"Name","Clinic","Hospital","ST","VAC","Latitude","Longitude","Address","Contact","State"
"Klinik Kesihatan Pantai",1,0,0,0,3.115289,101.668414,"C15-3, Tower C, Wisma Goshen, Plaza Pantai, No.5 Jalan 4/83A, Off Jalan Pantai Baru
59200, Pantai Baru
WP Kuala Lumpur","03-22881071","WP Kuala Lumpur"
"Klinik Kesihatan Tanglin",1,0,0,0,3.144953,101.691319,"Jalan Cenderasari
50590, Tanglin
WP Kuala Lumpur","03-26983311","WP Kuala Lumpur"
"Klinik Kesihatan Pandamaran",1,0,0,0,3.014444,101.412778,"Persiaran Raja Muda Musa
42000, Klang
Selangor","03-31658769","Selangor"
"Klinik Kesihatan Pulau Indah",1,0,0,0,2.937778,101.324722,"PT 8805, JKR 1353, Jalan Rahmat
42920, Klang
Selangor","03-31012035","Selangor"
"Klinik Kesihatan Pulau Ketam",1,0,0,0,3.018889,101.253333,"PT 14208, Jalan Merdeka
42490, Pelabuhan Klang
Selangor","03-31104206","Selangor"
"Klinik Kesihatan Kampung Bandar",1,0,0,0,2.842977,101.441292,"Jalan Kurai, Chendoi
42700, Banting
Selangor","03-31201333","Selangor"
"Klinik Kesihatan Sijangkang",1,0,0,0,2.941017,101.456183,"Jalan Sekolah, Batu 1, Kg Sijangkang
42500, Banting
Selangor","03-31226686","Selangor"
"Klinik Kesihatan Telok Panglima Garang",1,0,0,0,2.90509,101.46769,"Telok Panglima Garang
42500, Banting
Selangor","03-31227433","Selangor"
"Klinik Kesihatan Bukit Changgang",1,0,0,0,2.82731,101.62049,"Bukit Changgang
42700, Banting
Selangor","03-31491355","Selangor"
"Klinik Kesihatan Pelabuhan Klang",1,0,0,0,3.000833,101.393889,"PT 6/62, Jalan Limbungan
42000, Klang
Selangor","03-31658459","Selangor"
"Klinik Kesihatan Batu 10 Kebun Baru",1,0,0,0,2.91227,101.48782,"Jalan Dato' Kasman, Batu 10, Teluk Panglima Garang
42500, Banting
Selangor","03-31220943","Selangor"
"Klinik Kesihatan Kanchung Darat",1,0,0,0,2.788981,101.48845,"Jalan Durian, Kanchung Darat
42700, Kuala Langat
Selangor","03-31871934","Selangor"
"Klinik Kesihatan Telok Datok",1,0,0,0,2.819472,101.518006,"Jalan Pegawai
42700, Banting
Selangor","03-31871117","Selangor"
"Klinik Kesihatan Jenjarom",1,0,0,0,2.877959,101.500299,"Jenjorom, Kuala Langat, Jalan Besar
42700, Banting
Selangor","03-31913066","Selangor"
"Klinik Kesihatan Tanjung Sepat",1,0,0,0,2.665583,101.551437,"Tanjung Sepat
42700, Banting
Selangor","03-31972880","Selangor"
"Klinik Kesihatan Parit Baru",1,0,0,0,3.81659,100.8431,"Jalan Masjid
45100, Parit Baru
Selangor","03-32136223","Selangor"
"Klinik Kesihatan Sungai Air Tawar",1,0,0,0,3.78833,100.88694,"Jalan Besar, Sungai Air Tawar
45100, Sabak Bernam
Selangor","03-32136227","Selangor"
"Klinik Kesihatan Merbau Berdarah
 3.637068, 101.062663",1,0,0,0,"","","Jalan PT 16, Kg. Kelompok Binjai, Sg Panjang
45300, Sungai Besar
Selangor","03-32161077","Selangor"
"Klinik Kesihatan Bagan Terap",1,0,0,0,3.749379,101.056794,"Jalan Bagan Terap
45300, Sungai Besar
Selangor","03-32162722","Selangor"
"Klinik Kesihatan Sungai Besar",1,0,0,0,3.67598,100.98901,"Jalan Sungai Limau
45300, Sungai Besar
Selangor","03-32241358","Selangor"
"Klinik Kesihatan Sekinchan",1,0,0,0,3.50985,101.10259,"Jalan Pekan
45400, Sekinchan
Selangor","03-32410331","Selangor"
"Klinik Kesihatan Kapar",1,0,0,0,3.139444,101.372222,"PT 3763, Sek 1, Batu 10, Jalan Kapar
42200, Klang
Selangor","03-32508355","Selangor"
"Klinik Kesihatan Bestari Jaya",1,0,0,0,3.37941,101.40774,"Lot 1867 Jalan Kampong
45600, Bestari Jaya
Selangor","03-32719151","Selangor"
"Klinik Kesihatan Jeram",1,0,0,0,3.23381,101.3148,"Jalan Klang
45800, Jeram
Selangor","03-32791167","Selangor"
"Klinik Kesihatan Bukit Kuda",1,0,0,0,3.050556,101.458056,"Jalan Batu Tiga Lama
41300, Klang
Selangor","03-33488174","Selangor"
"Klinik Kesihatan Anika Klang",1,0,0,0,3.037222,101.446667,"112, Jalan Pegawai, Off Tengku Kelana
41000, Klang
Selangor","03-33748019","Selangor"
"Klinik Kesihatan Meru",1,0,0,0,3.136389,101.440833,"PT 55/61, Jalan Kenangan
41050, Bukit Raja
Selangor","03-33929802","Selangor"
"Klinik Kesihatan Sentul",1,0,0,0,3.18367,101.69134,"Tingkat 2, Kompleks Komuniti Perniagaan, Jalan 1/48A, Bandar Baru Sentul
51000, Sentul
WP Kuala Lumpur","03-40427557","WP Kuala Lumpur"
"Klinik Kesihatan Hulu Kelang",1,0,0,0,3.20139,101.76211,"Jalan Datuk Abu Samah
68000, Hulu Kelang
Selangor","03-41056640","Selangor"
"Klinik Kesihatan Sungai Pelek",1,0,0,0,2.644631,101.718489,"436, Jalan Sg Pelek
43950, Sepang
Selangor","03-31411242","Selangor"
"Klinik Kesihatan Setapak",1,0,0,0,3.197178,101.720417,"No. 26/28, Jln. 9/23A, Medan Makmur, Off Jalan Usahawan
53200, Setapak
WP Kuala Lumpur","03-41425429","WP Kuala Lumpur"
"Klinik Kesihatan Au 2",1,0,0,0,3.174666,101.748503,"Jalan AU2, Taman Seri Keramat
54200, Ampang
Selangor","03-42579466","Selangor"
"Klinik Kesihatan Dato Keramat",1,0,0,0,3.166708,101.736419,"Jalan Jelatek
54200, Kuala Lumpur
WP Kuala Lumpur","03-42573333","WP Kuala Lumpur"
"Klinik Kesihatan Ampang",1,0,0,0,3.145315,101.761272,"Jalan Mewah 3, Pekan Ampang
68000, Ampang
Selangor","03-42922333","Selangor"
"Klinik Kesihatan Cheras Baru",1,0,0,0,3.10626,101.74844,"Jalan 16, Off Jalan Kuari, Kampung Cheras Baru
56100, Cheras Baru
WP Kuala Lumpur","03-42946114","WP Kuala Lumpur"
"Klinik Kesihatan Seksyen 7 Shah Alam",1,0,0,0,3.07201,101.49118,"No.2 Persiaran Kayangan, Seksyen 7
40000, Shah Alam
Selangor","03-55180195","Selangor"
"Klinik Kesihatan Seksyen 19 Shah Alam",1,0,0,0,3.049873,101.533226,"Jalan Gelora 19/46
40300, Shah Alam
Selangor","03-55413570","Selangor"
"Klinik Kesihatan Batu Arang",1,0,0,0,3.31992,101.472505,"JKR G/1325
48100, Batu Arang
Selangor","03-60352287","Selangor"
"Klinik Kesihatan Kuang",1,0,0,0,3.259549,101.551652,"JKR 9/1254, Batu 20
48050, Rawang
Selangor","03-60371355","Selangor"
"Klinik Kesihatan Kalumpang",1,0,0,0,3.63678,101.57277,"Kalumpang
44100, Kalumpang
Selangor","03-60491426","Selangor"
"Klinik Kesihatan Rasa",1,0,0,0,3.49773,101.63613,"Rasa
44200, Rasa
Selangor","03-60573264","Selangor"
"Klinik Kesihatan Serendah",1,0,0,0,3.36231,101.60279,"Serendah
48200, Serendah
Selangor","03-60812500","Selangor"
"Klinik Kesihatan Rawang",1,0,0,0,3.32154,101.57747,"Jalan RP5, Rawang Perdana 1
48000, Rawang
Selangor","03-60919055","Selangor"
"Klinik Kesihatan Sungai Buloh",1,0,0,0,3.22064,101.57731,"Lot 1853, Kg Melayu
47000, Sungai Buloh
Selangor","03-61401293","Selangor"
"Klinik Kesihatan Selayang Baru",1,0,0,0,3.24547,101.67403,"Jln Sg. Tua Mukim Batu
68100, Batu Caves
Selangor","03-61878564","Selangor"
"Klinik Kesihatan Batu",1,0,0,0,3.200758,101.676703,"Batu 4 ?, Jalan Ipoh
52100, Kuala Lumpur
WP Kuala Lumpur","03-62574966","WP Kuala Lumpur"
"Klinik Kesihatan Jinjang",1,0,0,0,3.219822,101.654214,"No.2, Jalan Jinjang Setia 3, Jinjang Utara Tambahan
52000, Jinjang Utara
WP Kuala Lumpur","03-40427557","WP Kuala Lumpur"
"Klinik Kesihatan Taman Ehsan",1,0,0,0,3.224115,101.622655,"Jalan E4/16, Taman Ehsan
51000, Kepong
Selangor","03-62727471","Selangor"
"Klinik Kesihatan Taman Medan",1,0,0,0,3.079,101.63474,"Jalan PJS 2C/5, Taman Dato Harun
46000, Petaling Jaya
Selangor","03-77819001","Selangor"
"Klinik Kesihatan Petaling Bahagia",1,0,0,0,3.079358,101.665244,"Batu 6, Jalan Puchong
58200, Kuala Lumpur
WP Kuala Lumpur","03- 77829355","WP Kuala Lumpur"
"Klinik Kesihatan Kelana Jaya",1,0,0,0,3.09913,101.60064,"Lot. 38294, Jln.SS6/3A Kelana Jaya
47301, Petaling Jaya
Selangor","03-78045001","Selangor"
"Klinik Kesihatan Puchong",1,0,0,0,2.99398,101.61975,"Batu 14, Jalan Puchong
47100, Puchong
Selangor","03-80611814","Selangor"
"Klinik Kesihatan Salak",1,0,0,0,2.789722,101.749167,"117, Jalan Salak
43900, Sepang
Selangor","03-87069001","Selangor"
"Klinik Kesihatan Sungai Sekamat",1,0,0,0,3.02303,101.77567,"Batu 12 ?, Sungai Sekamat
43000, Kajang
Selangor","03-87336312","Selangor"
"Klinik Kesihatan Sg. Chuah",1,0,0,0,2.98588,101.77167,"Kawasan Perindustrian Sungai Chua, Sungai Ramal Luar
43000, Kajang
Selangor","03-87336775","Selangor"
"Klinik Kesihatan Semenyih",1,0,0,0,2.95187,101.840494,"Kg Baru Cina
43500, Semenyih
Selangor","03-87238355","Selangor"
"Klinik Kesihatan Kajang",1,0,0,0,2.97865,101.82571,"Jalan Semenyih
43000, Kajang
Selangor","03-87395764","Selangor"
"Klinik Kesihatan Lenggeng",1,0,0,0,2.86717,101.93675,"Lenggeng
71750, Lenggeng
Negeri Sembilan","03-87667499","Negeri Sembilan"
"Klinik Kesihatan Dengkil",1,0,0,0,2.859739,101.681697,"Batu 30 Jalan Kajang
43800, Dengkil
Selangor","03-87686355","Selangor"
"Klinik Kesihatan Putrajaya Presint 11",1,0,0,0,2.953164,101.67744,"Blok B-T00-U03 & 04, Pangsapuri Zon 6B, Presint 11
62300, Putrajaya
WP Putrajaya","03-88811732","WP Putrajaya"
"Klinik Kesihatan Putrajaya Presint 14",1,0,0,0,2.953556,101.726309,"Lot Bilik Bacaan, Blok Apartment 14-7, Kuarters Kakitangan Kerajaan, Presint 14
62000, Putrajaya
WP Putrajaya","03-88880107","WP Putrajaya"
"Klinik Kesihatan Putrajaya Presint 9",1,0,0,0,2.94126,101.67628,"No 1, Jalan P9E, Presint 9
62200, Putrajaya
WP Putrajaya","03-88883057","WP Putrajaya"
"Klinik Kesihatan Putrajaya Presint 13",1,0,0,0,2.916149,101.683791,"Lot 3C4, 26 Boulevard
62675, Putrajaya
WP Putrajaya","03-88880241","WP Putrajaya"
"Klinik Kesihatan Bandar Seri Putra",1,0,0,0,2.88828,101.792413,"Jalan 1/9, Bandar Seri Putra
43000, Kajang
Selangor","03-89258592","Selangor"
"Klinik Kesihatan Bandar Baru Bangi",1,0,0,0,2.935412,101.773739,"Jalan Persiaran 3, Seksyen 3
43650, Bandar Baru Bangi
Selangor","03-89258707","Selangor"
"Klinik Kesihatan Seri Kembangan",1,0,0,0,3.0274,101.71134,"Jalan Besar
43300, Seri Kembangan
Selangor","03-89455929","Selangor"
"Klinik Kesihatan Balakong",1,0,0,0,3.02742,101.74688,"Kampung Baru Balakong
43300, Balakong
Selangor","03-90213210/
 03-896","Selangor"
"Klinik Kesihatan Batu 14",1,0,0,0,3.1109,101.814825,"Batu 14
43200, Hulu Langat
Selangor","03-90211414","Selangor"
"Klinik Kesihatan Sungai Besi",1,0,0,0,3.063225,101.710439,"No.80, Jalan Tasik Utama 5, Medan Niaga Tasik Damai
57100, Sungai Besi
WP Kuala Lumpur","03-60549911","WP Kuala Lumpur"
"Klinik Kesihatan Batu 9 Cheras",1,0,0,0,3.06952,101.7742,"Batu 9
43200, Cheras
Selangor","03-90804503","Selangor"
"Klinik Kesihatan Bandar Tun Razak",1,0,0,0,3.087158,101.720489,"No.16 & 18, Jalan Jujur 3 , Bandar Tun Razak
56000, Kuala Lumpur
WP Kuala Lumpur","03-91713333","WP Kuala Lumpur"
"Klinik Kesihatan Kampung Pandan",1,0,0,0,3.144239,101.732539,"Jalan Belangkas, Kampung Pandan
55100, Kampung Pandan
WP Kuala Lumpur","03-92810275","WP Kuala Lumpur"
"Klinik Kesihatan Jalan Macalister",1,0,0,0,5.4151,100.326065,"Lot 1762, Seksyen 12, Jalan Macalister
10400, Georgetown
Pulau Pinang","04-2289610","Pulau Pinang"
"Klinik Kesihatan Lebuh Muntri",1,0,0,0,5.42012,100.3361,"Jalan Lebuh Muntri, Georgetown
10400, Georgetown
Pulau Pinang","04-2620024","Pulau Pinang"
"Klinik Kesihatan Jalan Perak",1,0,0,0,5.402828,100.314595,"Lot 174,175 & 648, Seksyen 2, Jalan Perak, Bandar Jelutong
11600, Georgetown
Pulau Pinang","04-2812033","Pulau Pinang"
"Klinik Kesihatan Sungai Dua",1,0,0,0,5.34418,100.29756,"Lot 2544, Mukim 13, Sungai Dua
11700, Gelugor
Pulau Pinang","04-6422201","Pulau Pinang"
"Klinik Kesihatan Bukit Jambul",1,0,0,0,5.336553,100.288166,"Blok D No 2759 & 2758 Tingkat Bawah Taman Bukit Jambul
11900, Bukit Jambul
Pulau Pinang","04-6448521","Pulau Pinang"
"Klinik Kesihatan Bukit Bendera",1,0,0,0,5.42448,100.26904,"Bukit Bendera
11300, Bukit Bendera
Pulau Pinang","04-8299406","Pulau Pinang"
"Klinik Kesihatan Butterworth",1,0,0,0,5.40678,100.36848,"Lot 1699, Seksyen 4, Jalan Bagan Luar
12000, Butterworth
Pulau Pinang","04-3233828","Pulau Pinang"
"Klinik Kesihatan Sungai Dua",1,0,0,0,5.441806,100.430726,"Lot 2349, Mukim 11, Sungai Dua
13800, Butterworth
Pulau Pinang","04-3564355","Pulau Pinang"
"Klinik Kesihatan Seberang Jaya",1,0,0,0,5.39351,100.3985,"Lot 340, Mukim 1, Jalan Perpustakaan
13700, Seberang Jaya
Pulau Pinang","04-3900264/ 04-39018","Pulau Pinang"
"Klinik Kesihatan Serdang",1,0,0,0,5.212117,100.615617,"Serdang, Jalan Pecah Batu
9800, Serdang
Kedah","04-4076100","Kedah"
"Klinik Kesihatan Lubuk Buntar",1,0,0,0,5.14409,100.59026,"Lubuk Buntar, Jalan Serdang
34950, Bandar Baharu
Kedah","04-4077320","Kedah"
"Klinik Kesihatan Bandar Baharu",1,0,0,0,5.12626,100.51265,"Bandar Baharu
34950, Bandar Baharu
Kedah","05-7178232","Kedah"
"Klinik Kesihatan Kuala Ketil",1,0,0,0,5.60554,100.65335,"Mukim Tawar, Jalan Kuala Ketil
9300, Baling
Kedah","04-4163355","Kedah"
"Klinik Kesihatan Bukit Selambau",1,0,0,0,5.6898,100.632722,"Bukit Selambu
8010, Sungai Petani
Kedah","04-4193312","Kedah"
"Klinik Kesihatan Bandar Sungai Petani",1,0,0,0,5.64704,100.49774,"Jalan Badlishah
8000, Sungai Petani
Kedah","04-4213333","Kedah"
"Klinik Kesihatan Bakar Arang",1,0,0,0,5.63491,100.47812,"Jalan Taman Intan
8000, Sungai Petani
Kedah","04-4220294","Kedah"
"Klinik Kesihatan Kota Kuala Muda",1,0,0,0,5.5875,100.37475,"Jalan Pantai Merdeka, Jalan Sungai Mas
8500, Kuala Muda
Kedah","04-4374225","Kedah"
"Klinik Kesihatan Merbok",1,0,0,0,5.722667,100.409472,"Bandar Merbok
8400, Merbok
Kedah","04-4572214","Kedah"
"Klinik Kesihatan Sungai Lalang",1,0,0,0,5.715722,100.534861,"Lot 15 & 16, Taman Lembah Permai
8100, Sungai Lalang
Kedah","04-4594127","Kedah"
"Klinik Kesihatan Padang Serai",1,0,0,0,5.51039,100.55393,"Jalan Lunas
9400, Padang Serai
Kedah","04-4855655","Kedah"
"Klinik Kesihatan Jeniang",1,0,0,0,5.81344,100.64575,"Jalan Jeniang
8700, Gurun
Kedah","04-4641200","Kedah"
"Klinik Kesihatan Guar Chempedak",1,0,0,0,5.85402,100.45989,"Guar Campak
8800, Guar Chempedak
Kedah","04-4682396","Kedah"
"Klinik Kesihatan Gulau",1,0,0,0,6.02782,100.811,"Mukim Sik
8210, Sik
Kedah","04-7522826","Kedah"
"Klinik Kesihatan Kampung Lalang",1,0,0,0,5.79484,100.898119,"Jalan Weng
9100, Baling
Kedah","04-4732555","Kedah"
"Klinik Kesihatan Parit Panjang",1,0,0,0,5.70405,100.74437,"Mukim Teloi Kanan
9120, Baling
Kedah","04-4761246","Kedah"
"Klinik Kesihatan Tawar",1,0,0,0,5.59514,100.771,"Jalan Kuala Ketil
9310, Baling
Kedah","04-4766308","Kedah"
"Klinik Kesihatan Kupang",1,0,0,0,5.63485,100.83376,"Jalan Kuala Ketil, Kupang
9200, Baling
Kedah","04-4766355","Kedah"
"Klinik Kesihatan Bedong",1,0,0,0,5.72292,100.50646,"Bedong
8100, Bedong
Kedah","04-4583333","Kedah"
"Klinik Kesihatan Pengkalan Hulu",1,0,0,0,5.70623,100.996154,"Jalan Pengkalan Hulu
33100, Pengkalan Hulu
Perak","04-4778355","Perak"
"Klinik Kesihatan Karangan",1,0,0,0,5.42722,100.65826,"Jalan Mahang
9700, Karangan
Kedah","04-4056261","Kedah"
"Klinik Kesihatan Merbau Pulas",1,0,0,0,5.5531,100.63492,"Jalan Kuala Ketil, Merbau Pulas
9410, Padang Serai
Kedah","04-4163852","Kedah"
"Klinik Kesihatan Kulim",1,0,0,0,5.36742,100.55765,"Jalan Hospital Lama
9000, Kulim
Kedah","04-4905533","Kedah"
"Klinik Kesihatan Permatang Pauh",1,0,0,0,5.41792,100.41218,"PWD 662, PT 67, Mukim 2, Jalan Sama Gagah
13500, Permatang Pauh
Pulau Pinang","04-3981380","Pulau Pinang"
"Klinik Kesihatan Bukit Minyak",1,0,0,0,5.326678,100.448307,"PT 35, Mukim 14, Jalan Bukit Minyak
14000, Bukit Mertajam
Pulau Pinang","04-5071355","Pulau Pinang"
"Klinik Kesihatan Kubang Semang",1,0,0,0,5.39746,100.46431,"Lot 807, Mukim 5, Kubang Semang
14000, Bukit Mertajam
Pulau Pinang","04-5390654","Pulau Pinang"
"Klinik Kesihatan Berapit",1,0,0,0,5.37946,100.47394,"Lot 89, Mukim 17,  Berapit
14000, Bukit Mertajam
Pulau Pinang","04-5395400","Pulau Pinang"
"Klinik Kesihatan Penaga",1,0,0,0,5.53535,100.38056,"Lot 3001, Mukim 5
13110, Penaga
Pulau Pinang","04-5791718","Pulau Pinang"
"Klinik Kesihatan Mak Mandin",1,0,0,0,5.42132,100.38938,"Lot 2882, Seksyen 3, Jalan Mak Mandin
13400, Butterworth
Pulau Pinang","04-3244685","Pulau Pinang"
"Klinik Kesihatan Kepala Batas",1,0,0,0,5.51663,100.433045,"Lot 1466, Mukim 6, Jalan Sheikh Mohd Tahir
13200, Kepala Batas
Pulau Pinang","04-5756755","Pulau Pinang"
"Klinik Kesihatan Bandar Tasik Mutiara",1,0,0,0,5.2814,100.49214,"Lot 1051, Mukim 15, Lorong Tasik Mutiara 19/SS2
14100, Bandar Tasik Mutiara
Pulau Pinang","04-5079855","Pulau Pinang"
"Klinik Kesihatan Nibong Tebal",1,0,0,0,5.166602,100.49279,"Lot 320, Mukim 17
14300, Nibong Tebal
Pulau Pinang","04-5593135","Pulau Pinang"
"Klinik Kesihatan Bukit Panchor",1,0,0,0,5.16748,100.49285,"Lot 1866, Mukim 7, Jalan Bukit Panchor
14300, Nibong Tebal
Pulau Pinang","04-5931679","Pulau Pinang"
"Klinik Kesihatan Sungai Acheh",1,0,0,0,5.150278,100.422563,"Lot 1376, Mukim 10, Sungai Acheh
14300, Nibong Tebal
Pulau Pinang","04-5981733","Pulau Pinang"
"Klinik Kesihatan Bayan Baru",1,0,0,0,5.319757,100.279744,"Jalan Tengah
11950, Bayan Lepas
Pulau Pinang","04-6425102","Pulau Pinang"
"Klinik Kesihatan Bayan Lepas",1,0,0,0,5.29947,100.26205,"Lot 1157, Mulim 12
11900, Bayan Lepas
Pulau Pinang","04-6435434","Pulau Pinang"
"Klinik Kesihatan Kepala Batas",1,0,0,0,6.20393,100.41635,"Kepala Batas
6200, Kepala Batas
Kedah","04-7144820","Kedah"
"Klinik Kesihatan Alor Janggus",1,0,0,0,6.17273,100.30784,"Jalan Alor Janggus
6250, Alor Setar
Kedah","04-7301985","Kedah"
"Klinik Kesihatan Bandar Alor Setar",1,0,0,0,6.1414,100.37105,"Blok A, Aras 1 Hospital Alor Setar (Hospital Lama), Lebuhraya Darulaman
5100, Alor Setar
Kedah","04-7308353","Kedah"
"Klinik Kesihatan Kuala Kedah",1,0,0,0,6.09872,100.30121,"Batu 6, Jalan Kuala Kedah
5600, Alor Setar
Kedah","04-7621526","Kedah"
"Klinik Kesihatan Simpang Kuala",1,0,0,0,6.09694,100.36112,"Simpang Kuala
5400, Alor Setar
Kedah","04-7720583","Kedah"
"Klinik Kesihatan Dato Kumbar",1,0,0,0,6.121003,100.399488,"Jalan Datuk Kumbar
6500, Alor Setar
Kedah","04-7306319","Kedah"
"Klinik Kesihatan Lubuk Merbau",1,0,0,0,6.00064,100.72532,"Lubuk Merbau
6300, Kuala Nerang
Kedah","04-7520129","Kedah"
"Klinik Kesihatan Sungai Tiang",1,0,0,0,5.99566,100.59588,"Jalan Sungai Tiang
6720, Pendang
Kedah","04-7541135","Kedah"
"Klinik Kesihatan Pendang",1,0,0,0,5.98549,100.47918,"Jalan Sungai Tiang
6700, Pendang
Kedah","04-7596412","Kedah"
"Klinik Kesihatan Sungai Limau Dalam",1,0,0,0,5.90127,100.3815,"Sungai Limau Dalam
6910, Yan
Kedah","04-7691607","Kedah"
"Klinik Kesihatan Langgar",1,0,0,0,6.14762,100.42497,"Jalan Langgar
6500, Langgar
Kedah","04-7876648","Kedah"
"Klinik Kesihatan Pokok Sena",1,0,0,0,6.16801,100.51838,"782
6400, Pokok Sena
Kedah","04-7821355","Kedah"
"Klinik Kesihatan Kubur Panjang",1,0,0,0,6.08913,100.5537,"Kubur Panjang
6700, Pendang
Kedah","04-7846355","Kedah"
"Klinik Kesihatan Naka",1,0,0,0,6.14058,100.66835,"Naka
6300, Kuala Nerang
Kedah","04-7851229","Kedah"
"Klinik Kesihatan Durian Burung
6.282253, 100.599122",1,0,0,0,"","","Kuala Nerang
6300, Kuala Nerang
Kedah","04-7860013","Kedah"
"Klinik Kesihatan Kuala Sanglang",1,0,0,0,6.262644,100.195881,"Kuala Sanglang
2800, Kuala Sanglang
Perlis","04-7940216","Perlis"
"Klinik Kesihatan Ayer Hitam",1,0,0,0,6.24043,100.24638,"Ayer Hitam
6150, Ayer Hitam
Kedah","04-7942101","Kedah"
"Klinik Kesihatan Bandar Baru Air Itam",1,0,0,0,5.40575,100.2823,"Lot 10094 & 2584, Mukim 13, No 8 Jalan Angsana
11500, Bandar Baru Air Itam
Pulau Pinang","04-8266267","Pulau Pinang"
"Klinik Kesihatan Air Itam",1,0,0,0,5.389701,100.285453,"Lot 322, Seksyen 3, Jalan Bukit Bendera
11500, Ayer Itam
Pulau Pinang","04-8283355","Pulau Pinang"
"Klinik Kesihatan Teluk Bahang",1,0,0,0,5.45561,100.21501,"Lot 669, Mukim 2
11050, Teluk Bahang
Pulau Pinang","04-8851951","Pulau Pinang"
"Klinik Kesihatan Selangau",1,0,0,0,2.527674,112.32911,"KM 80, Jln Sibu/ Bintulu, Kampung Selangau
96000, Selangau
Sarawak","084-894320","Sarawak"
"Klinik Kesihatan Banai",1,0,0,0,6.220883,100.458138,"Banai
6000, Jitra
Kedah","04-9171382","Kedah"
"Klinik Kesihatan Laka Temin",1,0,0,0,6.50386,100.42044,"Laka Temin
6050, Bukit Kayu Hitam
Kedah","04-9221655","Kedah"
"Klinik Kesihatan Changloon",1,0,0,0,6.425149,100.429344,"Changloon
6010, Changloon
Kedah","04-9241277","Kedah"
"Klinik Kesihatan Kodiang",1,0,0,0,6.396452,100.304901,"Kodiang
6100, Kodiang
Kedah","04-9250178","Kedah"
"Klinik Kesihatan Tunjang",1,0,0,0,6.29783,100.36599,"Tunjang
6000, Jitra
Kedah","04-9291524","Kedah"
"Klinik Kesihatan Beseri",1,0,0,0,6.51487,100.23052,"Jalan Bukit Keteri
2400, Beseri
Perlis","04-9381355","Perlis"
"Klinik Kesihatan Kaki Bukit",1,0,0,0,6.64256,100.2116,"Kaki Bukit
2200, Kali Bukit
Perlis","04-9456237","Perlis"
"Klinik Kesihatan Padang Besar",1,0,0,0,6.65689,100.31586,"KM 37, Jalan Padang Besar
2500, Padang Besar
Perlis","04-9490333","Perlis"
"Klinik Kesihatan Kuah",1,0,0,0,6.32289,99.84751,"Jalan Air Hangat
7000, Langkawi
Kedah","04-9663490","Kedah"
"Klinik Kesihatan Kangar",1,0,0,0,6.43956,100.19059,"Jalan Kolam Air
1000, Kangar
Perlis","04-9778333","Perlis"
"Klinik Kesihatan Simpang Empat",1,0,0,0,6.33657,100.19147,"Simpang Empat
2700, Simpang Empat
Perlis","04-9807214","Perlis"
"Klinik Kesihatan Kuala Perlis",1,0,0,0,6.397391,100.134362,"Batu 7, Jalan Kuala Perlis
2000, Kuala Perlis
Perlis","04-9854259","Perlis"
"Klinik Kesihatan Kampung Gial",1,0,0,0,6.4655,100.27354,"Kampung Gial
2500, Mata Air
Perlis","04-9861177","Perlis"
"Klinik Kesihatan Arau",1,0,0,0,6.4327,100.27051,"Arau
2600, Arau
Perlis","04-9861218","Perlis"
"Klinik Kesihatan Chemor",1,0,0,0,4.731944,101.134444,"Jalan Tanah Hitam, Kampung Chemor
31200, Chemor
Perak","05-2011355","Perak"
"Klinik Kesihatan Bijih Timah",1,0,0,0,4.593889,101.078056,"Jalan Treacher
31350, Ipoh
Perak","05-2548615","Perak"
"Klinik Kesihatan Greentown",1,0,0,0,4.602778,101.086944,"Jalan Raja Musa Aziz
30450, Ipoh
Perak","05-2530801","Perak"
"Klinik Kesihatan Menglembu",1,0,0,0,4.56272,101.05053,"Jalan Menglembu Timur 10, Pekan Mengelembu
31450, Ipoh
Perak","05-2815882","Perak"
"Klinik Kesihatan Buntung",1,0,0,0,4.58529,101.05064,"Lot 30943, Jalan Desa Rishah
30100, Ipoh
Perak","05-2824421","Perak"
"Klinik Kesihatan Gunung Rapat",1,0,0,0,4.56289,101.11241,"Jalan Gunung Rapat
31350, Ipoh
Perak","05-3115813","Perak"
"Klinik Kesihatan Pasir Pinji",1,0,0,0,4.5751,101.08512,"Jalan Bunga Raya, Pasir Pinji
31650, Ipoh
Perak","05-3214172","Perak"
"Klinik Kesihatan Kota Bharu",1,0,0,0,4.39884,101.07933,"Jalan Kota Bharu
31610, Gopeng
Perak","05-3594355","Perak"
"Klinik Kesihatan Gopeng",1,0,0,0,4.45373,101.16513,"Jalan Dr.Raja Nazrin
31600, Gopeng
Perak","05-3593355","Perak"
"Klinik Kesihatan Tanjung Tualang",1,0,0,0,4.325278,101.055,"Pekan Tanjung Tualang
31800, Tanjung Tualang
Perak","05-3609355","Perak"
"Klinik Kesihatan Tronoh",1,0,0,0,4.423056,100.993056,"Jalan Tronoh
31750, Tronoh
Perak","05-3676355","Perak"
"Klinik Kesihatan Bota Kiri",1,0,0,0,4.35685,100.873,"Jalan Bota Kiri
32600, Bota Kiri
Perak","05-3761355","Perak"
"Klinik Kesihatan Lambor Kiri",1,0,0,0,4.279409,100.880362,"Jalan Teluk Sena
32900, Lambor Kiri
Perak","05-3761855","Perak"
"Klinik Kesihatan Parit",1,0,0,0,4.47648,100.90975,"Jalan Pejabat Pos
32800, Parit
Perak","05-3772689","Perak"
"Klinik Kesihatan Air Kuning",1,0,0,0,4.24629,101.031328,"Jalan Tanjung Tualang, Air Kuning
36800, Kampung Gajah
Perak","05-4780897","Perak"
"Klinik Kesihatan Kampung Gajah",1,0,0,0,4.18274,100.94215,"Pekan  Kampung Gajah
36800, Kampung Gajah
Perak","05-6311185","Perak"
"Klinik Kesihatan Changkat Lada",1,0,0,0,4.144508,100.90083,"Felcra Changkat Lada, Kampung Gajah
36800, Changkat Lada
Perak","05-6551355/ 05-65515","Perak"
"Klinik Kesihatan Ulu Dedap",1,0,0,0,4.090167,100.94685,"Jalan Seberang Perak, Kampung Ulu Dedap
36000, Teluk Intan
Perak","05-6551384","Perak"
"Klinik Kesihatan Tapah",1,0,0,0,4.18704,101.26554,"Jalan Damai
35000, Tapah
Perak","05-4010260","Perak"
"Klinik Kesihatan Gunung Besout",1,0,0,0,3.84331,101.29489,"Jalan Klinik, Gunung Besout
35600, Sungkai
Perak","05-4311092","Perak"
"Klinik Kesihatan Trolak (Felda)",1,0,0,0,3.89244,101.3763,"Jalan Besar Trolak Selatan, Felda Trolak Selatan
35600, Sungkai
Perak","05-4323136","Perak"
"Klinik Kesihatan Bidor",1,0,0,0,4.114722,101.284833,"Jalan Besar Bidor
35500, Bidor
Perak","05-4341480","Perak"
"Klinik Kesihatan Sungkai",1,0,0,0,3.99848,101.30889,"Jalan Pekan Sungkai
35600, Sungkai
Perak","05-4386355","Perak"
"Klinik Kesihatan Slim River",1,0,0,0,3.83743,101.40143,"Jalan Indah
35800, Slim River
Perak","05-4527679/ 05-43231","Perak"
"Klinik Kesihatan Tanjung Malim",1,0,0,0,3.68813,101.524392,"Pekan Tanjung Malim
35900, Tanjung Malim
Perak","05-4596333","Perak"
"Klinik Kesihatan Kampar",1,0,0,0,4.298333,101.156944,"Jalan Degong
31900, Kinta
Perak","05-4667011","Perak"
"Klinik Kesihatan Malim Nawar",1,0,0,0,4.35765,101.12213,"Jalan Malim Nawar
31700, Malim Nawar
Perak","05-4771818","Perak"
"Klinik Kesihatan Tanah Rata",1,0,0,0,4.47126,101.37918,"Tanah Rata
39000, Tanah Rata
Pahang","05-4911257","Pahang"
"Klinik Kesihatan Manjoi",1,0,0,0,4.61808,101.07101,"Kampung Manjol, Jalan Masjid
30100, Ipoh
Perak","05-5263220","Perak"
"Klinik Kesihatan Jelapang",1,0,0,0,4.614167,101.056667,"Jalan Jelapang, Pekan Jelapang
30020, Ipoh
Perak","05-5268566","Perak"
"Klinik Kesihatan Tanjung Rambutan",1,0,0,0,4.66554,101.15743,"Jalan Tambun
31650, Tanjung Rambutan
Perak","05-5331355","Perak"
"Klinik Kesihatan Kampung Simee",1,0,0,0,4.616667,101.115278,"Jalan Kompleks Sukan, Kampung Simee
31400, Ipoh
Perak","05-5474202","Perak"
"Klinik Kesihatan Tebong",1,0,0,0,2.461879,102.34026,"Tebong
76100, Durian Tunggal
Melaka","05-4486716","Melaka"
"Klinik Kesihatan Lintang",1,0,0,0,4.935269,101.099898,"Kampung Lintang
31110, Sungai Siput Utara
Perak","05-5912255","Perak"
"Klinik Kesihatan Ayer Tawar",1,0,0,0,4.289038,100.748947,"Jalan Besar,  Pekan Ayer Tawar
32400, Ayer Tawar
Perak","05-6723333","Perak"
"Klinik Kesihatan Bruas",1,0,0,0,4.49729,100.78898,"Jalan Besar
32700, Bruas
Perak","05-6743333","Perak"
"Klinik Kesihatan Pantai Remis",1,0,0,0,4.44408,100.63073,"Jalan Besar, Pekan Pantai Remis
34900, Pantai Remis
Perak","05-6771316","Perak"
"Klinik Kesihatan Lekir",1,0,0,0,4.13571,100.7306,"Batu 8
32020, Lekir
Perak","05-6791415/ 1527","Perak"
"Klinik Kesihatan Pulau Pangkor",1,0,0,0,4.21201,100.57144,"Jalan Pasir Bogak, Pekan Pulau Pangkor
32300, Pulau Pangkor
Perak","05-6851234/ 4048/ 21","Perak"
"Klinik Kesihatan Sitiawan",1,0,0,0,4.22392,100.70281,"Jalan Dato' Ahmad Yunus, Pekan Sitiawan
32000, Sitiawan
Perak","05-6914355","Perak"
"Klinik Kesihatan Kedai Empat",1,0,0,0,5.108931,100.438456,"Jalan Sungai Kota, Kedai Empat
34250, Tanjung Piandang
Perak","05-7165155","Perak"
"Klinik Kesihatan Jalan Baru",1,0,0,0,5.07456,100.47813,"Jalan Tanah Kebun
34250, Kerian
Perak","05-7163355","Perak"
"Klinik Kesihatan Teluk Medan",1,0,0,0,4.985617,100.582197,"Jalan Taiping, Kampung Teluk Medan
34300, Bagan Serai
Perak","05-7215655","Perak"
"Klinik Kesihatan Alor Pongsu",1,0,0,0,5.049533,100.587297,"Jalan Stesen
34300, Alor Pongsu
Perak","05-7215855","Perak"
"Klinik Kesihatan Bagan Datoh",1,0,0,0,3.97823,100.78651,"Pekan Bagan Datoh
36100, Bagan Datoh
Perak","05-6466233","Perak"
"Klinik Kesihatan Tanjung Piandang",1,0,0,0,5.07191,100.38536,"Jalan Pantai Remis
34250, Tanjung Piandang
Perak","05-7256355","Perak"
"Klinik Kesihatan Kuala Kurau",1,0,0,0,5.025519,100.435694,"Jalan Kuala Kurau
34350, Kuala Kurau
Perak","05-7277355","Perak"
"Klinik Kesihatan Manong",1,0,0,0,4.591333,100.879683,"Jalan Rumah Awam II
33800, Kuala Kangsar
Perak","05-7430355","Perak"
"Klinik Kesihatan Sauk",1,0,0,0,4.9317,100.92571,"Jalan Besar Lenggong
33500, Kuala Kangsar
Perak","05-7511355","Perak"
"Klinik Kesihatan Karai",1,0,0,0,4.832567,100.967117,"Jalan Besar, Kampung Karai
33600, Enggor
Perak","05-7576355","Perak"
"Klinik Kesihatan Padang Rengas",1,0,0,0,4.7747,100.849983,"Pekan Padang Rengas
33700, Padang Rengas
Perak","05-7584355","Perak"
"Klinik Kesihatan Lenggong",1,0,0,0,5.107533,100.968,"Jalan Gerik
33400, Lenggong
Perak","05-7677355","Perak"
"Klinik Kesihatan Pos Kemar",1,0,0,0,5.435927,101.130051,"Pejabat Kesihatan Hulu Perak, Aras 3 Wisma Persekutuan Persekutuan, Jln Intan
33300, Grik
Perak","05-7911335","Perak"
"Klinik Kesihatan Lawin",1,0,0,0,5.2936,101.05847,"Jalan Lenggong-Gerik
33410, Lawin
Perak","05-7911907","Perak"
"Klinik Kesihatan Plang",1,0,0,0,5.5666,101.107733,"Jalan Gerik-Pengkalan Hulu, Kampung Plang
33320, Gerik
Perak","05-7917635","Perak"
"Klinik Kesihatan Taiping",1,0,0,0,4.8475,100.745556,"Jalan Tupai
34000, Taiping
Perak","05-8041555","Perak"
"Klinik Kesihatan Pokok Assam",1,0,0,0,4.834167,100.741667,"Jalan Menteri Besar, Pekan Pokok Assam
34000, Taiping
Perak","05-8067177","Perak"
"Klinik Kesihatan Sungai Bayor",1,0,0,0,5.259039,100.782123,"Pekan Sungai Bayor
34110, Selama
Perak","05-8394155","Perak"
"Klinik Kesihatan Selama",1,0,0,0,5.21651,100.69474,"Pekan Selama
34100, Selama
Perak","05-8394355","Perak"
"Klinik Kesihatan Sungai Kerang",1,0,0,0,4.59819,100.68144,"Jalan Pantai Remis
34800, Trong
Perak","05-8544255","Perak"
"Klinik Kesihatan Changkat Jering",1,0,0,0,4.78641,100.72433,"Pekan Changkat Jering, Jalan Kuala Kangsar
34850, Changkat Jering
Perak","05-8553013","Perak"
"Klinik Kesihatan Trong",1,0,0,0,4.70477,100.71845,"Trong
34800, Trong
Perak","05-8577155","Perak"
"Klinik Kesihatan Kuala Sepetang",1,0,0,0,4.83836,100.6329,"Kampung Kuala Sepetang
34600, Kuala Sepetang
Perak","05-8581355","Perak"
"Klinik Kesihatan Redang Panjang",1,0,0,0,5.11525,100.784442,"Jalan Batu Kurau
34510, Ijok
Perak","05-8802264","Perak"
"Klinik Kesihatan Batu Kurau",1,0,0,0,4.977,100.80143,"Pekan Batu Kurau
34500, Batu Kurau
Perak","05-8880333","Perak"
"Klinik Kesihatan Gunung Semanggol",1,0,0,0,4.965594,100.652394,"Jalan Kubu Gajah, Simpang Empat
34400, Gunung Semanggol
Perak","05-8921304","Perak"
"Klinik Kesihatan Kamunting",1,0,0,0,4.903262,100.723102,"Jalan Ekpo, Pekan Kemunting
34600, Kamunting
Perak","05-8913751","Perak"
"Klinik Kesihatan Ayer Keroh",1,0,0,0,2.266558,102.284026,"Jalan Ayer Keroh Lama
75350, Melaka Tengah
Melaka","06-2312344","Melaka"
"Klinik Kesihatan Merlimau",1,0,0,0,2.15366,102.42805,"Kampung Merlimau, Jalan Besar Merlimau
77300, Merlimau
Melaka","06-2631533","Melaka"
"Klinik Kesihatan Sungai Rambai",1,0,0,0,2.12459,102.49279,"KM 32, Sungai Rambai
77400, Sungai Rambai
Melaka","06-2659526","Melaka"
"Klinik Kesihatan Ujong Pasir",1,0,0,0,2.18729,102.27115,"Jalan Ujong Pasir
75000, Ujong Pasir
Melaka","06-2867333","Melaka"
"Klinik Kesihatan Tengkera",1,0,0,0,2.201313,102.238144,"Jalan Dato Wira Poh Ah Tiam, Lorong Pandan, Tengkera
75200, Melaka Tengah
Melaka","06-3360176","Melaka"
"Klinik Kesihatan Kuala Sungai Baru",1,0,0,0,2.35955,102.04368,"Pekan Kuala Sungai Baru
78200, Kuala Sungai Baru
Melaka","06-3876333","Melaka"
"Klinik Kesihatan Peringgit",1,0,0,0,2.222318,102.254434,"Jalan Peringgit
75400, Melaka Tengah
Melaka","06-2882344","Melaka"
"Klinik Kesihatan Cheng",1,0,0,0,2.274482,102.215104,"Jalan Cheng
75250, Cheng
Melaka","06-3123333","Melaka"
"Klinik Kesihatan Masjid Tanah",1,0,0,0,2.3562,102.1006,"Batu 18 1/2, Paya Rumput
78300, Masjid Tanah
Melaka","06-3842533","Melaka"
"Klinik Kesihatan Gemenceh",1,0,0,0,2.5328,102.3997,"Gemenchih
73200, Gemencheh
Negeri Sembilan","06-4318304","Negeri Sembilan"
"Klinik Kesihatan Jelai",1,0,0,0,2.64586,102.4889,"Jelai
73480, Gemas
Negeri Sembilan","06-4347488","Negeri Sembilan"
"Klinik Kesihatan Tampin (Jpl)",1,0,0,0,2.4845,102.23433,"Tampin
73009, Tampin
Negeri Sembilan","06-4431806","Negeri Sembilan"
"Klinik Kesihatan Air Kuning",1,0,0,0,2.51668,102.48401,"Air Kuning
73200, Gemenceh
Negeri Sembilan","06-4478730","Negeri Sembilan"
"Klinik Kesihatan Bahau",1,0,0,0,2.803579,102.378073,"Klinik Kesihatan Bahau
72100, Bahau
Negeri Sembilan","06-4541234","Negeri Sembilan"
"Klinik Kesihatan Bandar Seri Jempol",1,0,0,0,2.8979,102.39458,"Klinik Kesihatan Bandar Seri Jempol
72120, Bandar Seri Jempol
Negeri Sembilan","06-4581667","Negeri Sembilan"
"Klinik Kesihatan Palong 7 & 8 (Felda)",1,0,0,0,2.82201,102.6673,"Klinik Kesihatan Palong 7 & 8
73430, Gemas
Negeri Sembilan","06-4645549","Negeri Sembilan"
"Klinik Kesihatan Palong 9, 10 & 11",1,0,0,0,2.78438,102.58105,"JKR 861, Klinik Kesihatan Palong 9,10,11
73430, Gemas
Negeri Sembilan","06-4668419","Negeri Sembilan"
"Klinik Kesihatan Serting Hilir",1,0,0,0,2.9455,102.49362,"Bandar Seri Jempol
72120, Bandar Seri Jempol
Negeri Sembilan","06-4683829","Negeri Sembilan"
"Klinik Kesihatan Lui Muda",1,0,0,0,3.02601,102.36924,"Bandar Seri Jempol
72120, Bandar Seri Jempol
Negeri Sembilan","06-4691003","Negeri Sembilan"
"Klinik Kesihatan Palong 4,5,6",1,0,0,0,2.7418,102.64713,"Klinik Kesihatan Palong 4,5,6
73430, Gemas
Negeri Sembilan","06-4666433","Negeri Sembilan"
"Klinik Kesihatan Tembangau",1,0,0,0,3.107719,102.534376,"Tembangau
28380, Triang
Pahang","06-4685730","Pahang"
"Klinik Kesihatan Padang Lebar",1,0,0,0,2.85919,102.2707,"Klinik Kesihatan Padang Lebar
72200, Batu Kikir
Negeri Sembilan","06-4982667","Negeri Sembilan"
"Klinik Kesihatan Johol",1,0,0,0,2.6087,102.2689,"Klinik Kesihatan Johol
73100, Johol
Negeri Sembilan","06-4367239","Negeri Sembilan"
"Klinik Kesihatan Terachi",1,0,0,0,2.74171,102.13459,"Terachi
71550, Tanjong Ipoh
Negeri Sembilan","06-4887202","Negeri Sembilan"
"Klinik Kesihatan Gunung Pasir",1,0,0,0,2.66811,102.14562,"Klinik Kesihatan Gunung Pasir
71550, Sri Menanti
Negeri Sembilan","06-4979245","Negeri Sembilan"
"Klinik Kesihatan Sri Menanti",1,0,0,0,1.91003,102.68704,"Sri Menanti
71550, Sri Menanti
Negeri Sembilan","06-4979581","Negeri Sembilan"
"Klinik Kesihatan Juasseh",1,0,0,0,2.79334,102.30291,"Klinik Kesihatan Juasseh
72500, Batu Kikir
Negeri Sembilan","06-4981581","Negeri Sembilan"
"Klinik Kesihatan Kuala Pilah",1,0,0,0,2.73718,102.24894,"Klinik Kesihatan Kuala Pilah
72000, Kuala Pilah
Negeri Sembilan","06-4842844","Negeri Sembilan"
"Klinik Kesihatan Simpang Durian",1,0,0,0,3.10128,102.22099,"Simpang Durian
72400, Simpang Durian
Negeri Sembilan","06-4914522","Negeri Sembilan"
"Klinik Kesihatan Pertang",1,0,0,0,2.95574,102.2241,"Simpang Pertang
72300, Pertang
Negeri Sembilan","06-4941287","Negeri Sembilan"
"Klinik Kesihatan Selandar",1,0,0,0,2.38798,102.37254,"Jalan Macap
77500, Selandar
Melaka","06-5251495","Melaka"
"Klinik Kesihatan Jasin",1,0,0,0,2.30674,102.43013,"Pejabat Kesihatan Jasin
77000, Jasin
Melaka","06-5294636","Melaka"
"Klinik Kesihatan Durian Tunggal",1,0,0,0,2.310834,102.286363,"KM 16, Padang Keladi
76100, Durian Tunggal
Melaka","06-5531133","Melaka"
"Klinik Kesihatan Titi",1,0,0,0,3.00244,102.07925,"Titi
71650, Jelebu
Negeri Sembilan","06-6111398","Negeri Sembilan"
"Klinik Kesihatan Jelebu",1,0,0,0,2.95511,102.05986,"Klinik Kesihatan Jelebu
71600, Kuala Klawang
Negeri Sembilan","06-6139497/ 9300/ 94","Negeri Sembilan"
"Klinik Kesihatan Port Dickson",1,0,0,0,2.52836,101.79181,"KM 1, Jalan Seremban
71000, Port Dickson
Negeri Sembilan","06-6473333","Negeri Sembilan"
"Klinik Kesihatan Bukit Pelanduk",1,0,0,0,2.64317,101.74342,"Pejabat Kesihatan, KM 2, Jalan Seremban
71960, Port Dickson
Negeri Sembilan","06-6581964","Negeri Sembilan"
"Klinik Kesihatan Pasir Panjang",1,0,0,0,2.42935,101.93712,"Pejabat Kesihatan, KM 2, Jalan Seremban
71250, Port Dickson
Negeri Sembilan","06-6619346","Negeri Sembilan"
"Klinik Kesihatan Linggi",1,0,0,0,2.4827,102.01737,"KM 2, Jalan Seremban
71150, Port Dickson
Negeri Sembilan","06-6970213","Negeri Sembilan"
"Klinik Kesihatan Senawang",1,0,0,0,2.69191,101.98838,"Persiaran Senawang 2
70450, Seremban
Negeri Sembilan","06-6766000","Negeri Sembilan"
"Klinik Kesihatan Ampangan",1,0,0,0,2.72367,101.98746,"KM 4, Jalan Seremban-Kuala Pilah
70400, Seremban
Negeri Sembilan","06-6788986","Negeri Sembilan"
"Klinik Kesihatan Pedas",1,0,0,0,2.62917,102.06224,"JKR 437, Lot 4056, Pekan Pedas
71400, Rembau
Negeri Sembilan","06-6851306","Negeri Sembilan"
"Klinik Kesihatan Rembau",1,0,0,0,2.58576,102.09344,"JKR 493, Lot 93, Jalan Batu Hampar, Mukim Bandar Rembau
71300, Rembau
Negeri Sembilan","06-6852010","Negeri Sembilan"
"Klinik Kesihatan Rantau",1,0,0,0,2.60058,101.96199,"Jalan Besar Rantau
71200, Rantau
Negeri Sembilan","06-6941274","Negeri Sembilan"
"Klinik Kesihatan Mantin",1,0,0,0,2.82488,101.89315,"Jalan Besar Mantin
71700, Mantin
Negeri Sembilan","06-7581242","Negeri Sembilan"
"Klinik Kesihatan Seremban",1,0,0,0,2.48411,102.23521,"Jalan Rasah
70300, Seremban
Negeri Sembilan","06-7679667","Negeri Sembilan"
"Klinik Kesihatan Klia",1,0,0,0,2.76639,101.7649,"Jijan
71800, Nilai
Negeri Sembilan","06-7913352","Negeri Sembilan"
"Klinik Kesihatan Nilai",1,0,0,0,2.80261,101.79829,"Nilai Square
71800, Nilai
Negeri Sembilan","06-7991282","Negeri Sembilan"
"Klinik Kesihatan Sendayan",1,0,0,0,2.67911,101.84599,"Felda Sendayan
71950, Sendayan
Negeri Sembilan","06-7922073","Negeri Sembilan"
"Klinik Kesihatan Kampung Kenangan Tun Dr. Ismail",1,0,0,0,2.050051,102.585121,"Batu 6
84200, Bakri
Johor","06-9523563","Johor"
"Klinik Kesihatan Bandar Maharani",1,0,0,0,2.05811,102.57649,"Jalan Salleh
84000, Muar
Johor","06-9811324","Johor"
"Klinik Kesihatan Lenga",1,0,0,0,2.25921,102.83195,"Lot 1507, Jalan Sg. Abong
84000, Muar
Johor","06-9711445","Johor"
"Klinik Kesihatan Gersik",1,0,0,0,2.208967,102.705691,"PTD 7800
84700, Gersik
Johor","06-9728780","Johor"
"Klinik Kesihatan Sungai Mati",1,0,0,0,2.14669,102.56338,"Lot 1052, Klinik Kesihatan Sg Mati
84400, Serom
Johor","06-9751054","Johor"
"Klinik Kesihatan Bukit Gambir",1,0,0,0,2.363141,102.783946,"Lot 11961
84800, Gersik
Johor","06-9762549","Johor"
"Klinik Kesihatan Bukit Serampang",1,0,0,0,2.36313,102.78394,"Lot 4470
85220, Bukit Serampang
Johor","06-9776961","Johor"
"Klinik Kesihatan Parit Bakar",1,0,0,0,1.999948,102.608467,"Lot 2355, Jalan Muar ke Pagoh
84300, Jorak
Johor","06-9811324","Johor"
"Klinik Kesihatan Bukit Pasir",1,0,0,0,2.099233,102.639881,"No.264-5 Jln Kenangan 1, Tmn Tun Dr Ismail
84000, Muar
Johor","06-9856196","Johor"
"Klinik Kesihatan Bakri",1,0,0,0,2.040522,102.65956,"MLO 2599, Jalan Muar ke Pagoh
84600, Jorak
Johor","06-9867007","Johor"
"Klinik Kesihatan Parit Jawa",1,0,0,0,1.961045,102.642264,"Lot 241, Jalan Muar ke Batu Pahat
83500, Sungai Balang
Johor","07-4164277","Johor"
"Klinik Kesihatan Sri Menanti",1,0,0,0,1.910041,102.687046,"Lot, 3692, Jalan Muar ke Batu Pahat
84160, Sri Menanti
Johor","06-9881059","Johor"
"Klinik Kesihatan Mahmoodiah",1,0,0,0,1.46247,103.74842,"JKR 6274, Jalan Mahmoodiah
80100, Johor Bahru
Johor","07-2266166","Johor"
"Klinik Kesihatan Tampoi",1,0,0,0,1.492824,103.705879,"JKR 3769-1, Batu 5, Jalan Skudai
81200, Johor Bahru
Johor","07-2361030","Johor"
"Klinik Kesihatan Kempas",1,0,0,0,1.508123,103.707381,"JKR 6044, Jalan Persiaran Tanjung
81200, Johor Bahru
Johor","07-2382060","Johor"
"Klinik Kesihatan Pasir Gudang",1,0,0,0,1.463943,103.906293,"JKR 5376, Jalan Kejiranan 8/1
81700, Pasir Gudang
Johor","07-2510594","Johor"
"Klinik Kesihatan Masai",1,0,0,0,1.489205,103.885109,"Lot 2188, Jalan Pekeliling
81750, Masai
Johor","07-2511882","Johor"
"Klinik Kesihatan Tebrau",1,0,0,0,1.48875,103.77123,"JKR 5409,5410,5413, Jalan Kerambit
80050, Johor Bahru
Johor","07-3342067","Johor"
"Klinik Kesihatan Sultan Ismail",1,0,0,0,1.547898,103.790287,"Jalan Persiaran Mutiara Emas Utama, Taman Mount Austin
81100, Johor Bahru
Johor","07-3577121","Johor"
"Klinik Kesihatan Parit Yusof",1,0,0,0,1.896308,102.760324,"Lot 24, Jalan Temenggung Ahmad
84150, Parit Jawa
Johor","06-4161277","Johor"
"Klinik Kesihatan Air Hitam",1,0,0,0,2.02758,102.76519,"Bt. 27
84540, Lenga
Johor","07-4212512","Johor"
"Klinik Kesihatan Pagoh",1,0,0,0,2.151526,102.774849,"Batu 15, Jalan Muar ke Parit Sulong
86100, Air Hitam
Johor","07-4212512","Johor"
"Klinik Kesihatan Rengit",1,0,0,0,1.350095,104.223969,"TLO 52, Jalan Besar Rengit
83500, Rengit
Johor","07-4241224","Johor"
"Klinik Kesihatan Senggarang",1,0,0,0,1.749411,103.045797,"Lot 6700, Jalan Besar Senggarang
83200, Minyak Beku
Johor","07-4291015","Johor"
"Klinik Kesihatan Batu Pahat",1,0,0,0,1.8501,102.942,"PTD 6625, Jalan Kluang
83000, Simpang Kanan
Johor","07-4343355","Johor"
"Klinik Kesihatan Parit Raja",1,0,0,0,1.863694,103.10959,"MLO 261, Jalan Besar Air Hitam
86400, Sri Gading
Johor","07-4541237","Johor"
"Klinik Kesihatan Gelang Patah",1,0,0,0,1.447719,103.590287,"JKR 4176 Jalan Besar
81550, Gelang Patah
Johor","07-5101252","Johor"
"Klinik Kesihatan Taman Ungku Tun Aminah",1,0,0,0,1.525611,103.666933,"Lot 9, 11, 15, 17 Jln Sri Orkid 36. Taman Sri Orkid
81300, Johor Bahru
Johor","07-5113727","Johor"
"Klinik Kesihatan Taman Universiti",1,0,0,0,1.537953,103.626726,"Jalan Kebudayaan 28, Taman Universiti
81300, Johor Bahru
Johor","07-5216800","Johor"
"Klinik Kesihatan Kulai Besar",1,0,0,0,1.655536,103.607151,"Lot 6221, Batu 19 Jalan Air Hitam
81000, Senai
Johor","07-6622403","Johor"
"Klinik Kesihatan Kulai",1,0,0,0,1.64089,103.621652,"Lot 5264, Jalan Pejabat Kesihatan
81000, Senai
Johor","07-6625255","Johor"
"Klinik Kesihatan Pontian",1,0,0,0,1.50111,103.383333,"Lot 8695, Jalan Alsagoff
82000, Pontian
Johor","07-6868211","Johor"
"Klinik Kesihatan Benut",1,0,0,0,1.6457,103.25844,"Jalan Jaafar
82200, Benut
Johor","07-6903633","Johor"
"Klinik Kesihatan Pekan Nanas",1,0,0,0,1.5083,103.51215,"Jalan Pekan Nanas
81500, Pengkalan Raja
Johor","07-6994352","Johor"
"Klinik Kesihatan Bagan Serai",1,0,0,0,5.008047,100.540692,"Jalan Taiping
34300, Bagan Serai
Perak","05-7215355","Perak"
"Klinik Kesihatan Simpang Renggam",1,0,0,0,1.82613,103.30522,"Lot 1794, Jln Rambutan
86200, Simpang Renggam
Johor","07-7554143","Johor"
"Klinik Kesihatan Ayer Hitam",1,0,0,0,1.925772,103.17746,"PTD 5728, Jln Besar ke Yong Peng
83000, Sri Gading
Johor","07-7581966","Johor"
"Klinik Kesihatan Mengkibol",1,0,0,0,2.00698,103.32225,"Lot 18993, Jln Mengkibol
86000, Kluang
Johor","07-7765343","Johor"
"Klinik Kesihatan Endau",1,0,0,0,2.6498,103.62331,"Lot 427, Jalan Sekolah
86900, Endau
Johor","07-7943214","Johor"
"Klinik Kesihatan Tenggaroh Ii (Felda)",1,0,0,0,2.15435,103.907318,"JKR 839-P
86800, Tenggaroh
Johor","07-7911267","Johor"
"Klinik Kesihatan Nitar 1 (Felda)",1,0,0,0,2.386458,103.712455,"Jalan Merbah
86800, Mersing
Johor","07-7961633","Johor"
"Klinik Kesihatan Bandar Mas",1,0,0,0,1.611851,104.153978,"Lot 4106, Jalan Tun Habab
81900, Tanjung Surat
Johor","07-8236155","Johor"
"Klinik Kesihatan Bekok",1,0,0,0,2.29801,103.13418,"Jalan Gunung
86500, Bekok
Johor","07-9221241","Johor"
"Klinik Kesihatan Labis",1,0,0,0,2.38043,103.0189,"Jalan Muar, Jementah
85300, Labis
Johor","07-9251500","Johor"
"Klinik Kesihatan Chaah",1,0,0,0,2.24736,103.04128,"Chaah
85400, Segamat
Johor","07-9261236","Johor"
"Klinik Kesihatan Pekan Air Panas",1,0,0,0,2.47231,103.05798,"Felda Pemanis
85300, Pekan Air Panas
Johor","07-9287009","Johor"
"Klinik Kesihatan Segamat",1,0,0,0,2.50516,102.81534,"Jalan Muar
85000, Segamat
Johor","07-7931334","Johor"
"Klinik Kesihatan Bandar Putra",1,0,0,0,2.49426,102.86282,"Jalan Genuang, Bandar Putra
85000, Bandar Putra
Johor","07-9436099","Johor"
"Klinik Kesihatan Buloh Kasap",1,0,0,0,2.544737,102.770492,"Pekan Air Panas, Labis
85010, Buluh Kasap
Johor","07-9441241","Johor"
"Klinik Kesihatan Pemanis",1,0,0,0,2.59987,102.90162,"Felda Pemanis, Jalan Tasik Alai, Buluh Kasap
85009, Pemanis
Johor","07-9456673","Johor"
"Klinik Kesihatan Jementah",1,0,0,0,2.43948,102.68464,"Jalan Muar
85200, Jementah
Johor","07-9471321","Johor"
"Klinik Kesihatan Gemas",1,0,0,0,2.58425,102.60462,"Gemas
73400, Gemas
Negeri Sembilan","07-9482352","Negeri Sembilan"
"Klinik Kesihatan Batu Anam",1,0,0,0,2.5752,102.70816,"Jalan Bukit Cantik, Jalan Muar
85100, Batu Anam
Johor","07-9499249","Johor"
"Klinik Kesihatan Payamas",1,0,0,0,2.27507,102.54559,"PT 1405, Klinik Kesihatan Payamas, Jalan Payamas
84900, Tangkak
Johor","06-9781861","Johor"
"Klinik Kesihatan Jalan Masjid",1,0,0,0,1.557219,110.342823,"Jalan Masjid
93400, Kuching
Sarawak","082-427110/ 082-4150","Sarawak"
"Klinik Kesihatan Tanah Puteh",1,0,0,0,1.551387,110.380385,"Tanah Puteh, Jalan Pending, Kuching (Pegawai Perubatan Y/M, KK Tanah Puteh, Jln Pending, Kuching)
93450, Kuching
Sarawak","082-344011/ 082-4825","Sarawak"
"Klinik Kesihatan Teng Bukap",1,0,0,0,1.207677,110.369081,"Teng Bukap, KM 15 Jln Padawan
93150, Kuching
Sarawak","082-750530/ 011-2171","Sarawak"
"Klinik Kesihatan Bunuk",1,0,0,0,1.316243,110.286048,"Jalan Puncak Borneo
93250, Kuching
Sarawak","082-765963","Sarawak"
"Klinik Kesihatan Telaga Air",1,0,0,0,1.67426,110.20859,"Jalan Matang, Kampung Telaga Air (D/A Peg. Kesihatan Bahagian Kuching, Jln Tun Ahmad Zaidi Adruce, Kuching)
93150, Kuching
Sarawak","082-843200","Sarawak"
"Klinik Kesihatan Sambir",1,0,0,0,1.572737,110.543587,"Kampung Sambir
94300, Kota Samarahan
Sarawak","082-436384","Sarawak"
"Klinik Kesihatan Sebuyau",1,0,0,0,1.520665,110.934435,"Pekan Sebuyau (D/A Pegawai Kesihatan Bahagian Samarahan, Jalan Datuk Muhamad Musa)
94300, Kota Samarahan
Sarawak","083-467126","Sarawak"
"Klinik Kesihatan Kota Sentosa",1,0,0,0,1.46426,110.3338,"Kota Sentosa, Jalan Stakan
93250, Kuching
Sarawak","082-626080/ 082-6260","Sarawak"
"Klinik Kesihatan Kota Samarahan",1,0,0,0,1.45788,110.48915,"Jalan Datuk Muhamad Musa
94300, Kota Samarahan
Sarawak","082-673626","Sarawak"
"Klinik Kesihatan Batu Kawa",1,0,0,0,1.51102,110.27061,"Jalan Eng Sing, Off Jalan Stapok
93250, Batu Kawa
Sarawak","082-688518","Sarawak"
"Klinik Kesihatan Sematan",1,0,0,0,1.808979,109.776255,"Jalan Sungai Kilang, Sematan
94100, Lundu
Sarawak","082-711340","Sarawak"
"Klinik Kesihatan Gedong",1,0,0,0,1.235412,110.691324,"Kampung Gedong
94300, Kota Samarahan
Sarawak","082-781499","Sarawak"
"Klinik Kesihatan Tebedu",1,0,0,0,1.02201,110.36091,"Pekan Tebedu
94750, Tebedu
Sarawak","082-797219","Sarawak"
"Klinik Kesihatan Sadong Jaya",1,0,0,0,1.515457,110.740089,"Kampung Sadong Jaya
94600, Asajaya
Sarawak","082-821248","Sarawak"
"Klinik Kesihatan Semera",1,0,0,0,1.551736,110.672908,"Kampunga Samera
94600, Asajaya
Sarawak","082-826372","Sarawak"
"Klinik Kesihatan Asajaya",1,0,0,0,1.54415,110.60733,"Kampung Asajaya
94600, Asajaya
Sarawak","082-827080","Sarawak"
"Klinik Kesihatan Jemukan",1,0,0,0,1.551713,110.691588,"Kampung Jemukan
94600, Asajaya
Sarawak","082-827604","Sarawak"
"Klinik Kesihatan Siburan",1,0,0,0,1.36084,110.40474,"KM 27, Jalan Kuching/Serian
93250, Kuching
Sarawak","082-864202","Sarawak"
"Klinik Kesihatan Triboh",1,0,0,0,1.12457,110.62587,"Kampung Triboh
94700, Serian
Sarawak","082-870321","Sarawak"
"Klinik Kesihatan Tarat",1,0,0,0,1.209143,110.530882,"Pekan Tarat
94700, Serian
Sarawak","082-876591","Sarawak"
"Klinik Kesihatan Balai Ringin",1,0,0,0,1.0512,110.7531,"Kampung Ringin
94700, Serian
Sarawak","082-877329","Sarawak"
"Klinik Kesihatan Ensengei",1,0,0,0,1.34533,110.538549,"Kampung Ensengei
94700, Serian
Sarawak","082-895401","Sarawak"
"Klinik Kesihatan Bunan Gega",1,0,0,0,0.919361,110.540904,"Kampung Bunan Gega
94750, Tebakang
Sarawak","082-895497","Sarawak"
"Klinik Kesihatan Munggu Lallang",1,0,0,0,1.237969,110.910386,"Kampung Munggu Lallang
94300, Kota Samarahan
Sarawak","082-895498","Sarawak"
"Klinik Kesihatan Tebakang",1,0,0,0,1.097088,110.502663,"Kampung Tekabang
94750, Tekabang
Sarawak","082-875625","Sarawak"
"Klinik Kesihatan Kesindu",1,0,0,0,1.159501,110.896675,"Kampung Kesindu
94800, Kota Samarahan
Sarawak","082-896939","Sarawak"
"Klinik Kesihatan Skrang",1,0,0,0,1.280156,111.62453,"Kampung Skrang (D/A Peg. Kesihatan Bahagian Sri Aman, Jalan Hospital)
95007, Sri Aman
Sarawak","011-9384832","Sarawak"
"Klinik Kesihatan Tanjung Bijat",1,0,0,0,1.303778,111.392637,"Kampung Tanjung Bilat, (D/A Peg. Kesihatan Bahagian Sri Aman, Jalan Hospital)
95007, Sri Aman
Sarawak","083-309476","Sarawak"
"Klinik Kesihatan Nanga Delok",1,0,0,0,1.224768,112.01844,"Nanga Delok
95007, Sri Aman
Sarawak","083-322176/ 083-3220","Sarawak"
"Klinik Kesihatan Batu Lintang",1,0,0,0,1.018313,111.554108,"Kampung Batu Lintang (D/A Peg. Kesihatan Bahagian Sri Aman, Jalan Hospital)
95007, Sri Aman
Sarawak","083-418347","Sarawak"
"Klinik Kesihatan Sri Aman",1,0,0,0,1.23323,111.46255,"Sri Aman, Jalan Hospital (D/A Peg. Kesihatan Bahagian Sri Aman, Jalan Hospital)
95007, Sri Aman
Sarawak","083-327769","Sarawak"
"Klinik Kesihatan Kabong",1,0,0,0,1.80833,111.11864,"Kabong
94650, Betong
Sarawak","083-411211","Sarawak"
"Klinik Kesihatan Roban",1,0,0,0,1.88128,111.30968,"Pekan Kechil Roban
95300, Kalaka
Sarawak","083-427244","Sarawak"
"Klinik Kesihatan Debak",1,0,0,0,1.5644,111.42377,"Debak, Saribas
95500, Debak
Sarawak","083-464570","Sarawak"
"Klinik Kesihatan Pusa",1,0,0,0,1.61096,111.28986,"Pekan Pusa
94950, Pusa
Sarawak","083-465155","Sarawak"
"Klinik Kesihatan Sebangan",1,0,0,0,1.557734,110.77419,"Pekan Sebangan
94300, Kota Samarahan
Sarawak","083-468337","Sarawak"
"Klinik Kesihatan Mid Layar
1.463383, 111.566646",1,0,0,0,"","","Betong
95700, Betong
Sarawak","083-472704","Sarawak"
"Klinik Kesihatan Spaoh",1,0,0,0,1.453404,111.481332,"Kampung Spaoh
95600, Spaoh
Sarawak","083-473339","Sarawak"
"Klinik Kesihatan Meludam",1,0,0,0,1.659799,111.03473,"Meludam
94850, Saribas
Sarawak","083-408212","Sarawak"
"Klinik Kesihatan Engkilili",1,0,0,0,1.137979,111.638972,"Pekan Engkilili (D/A Peg. Kesihatan Bahagian Sri Aman, Jalan Hospital)
95007, Sri Aman
Sarawak","083-563004","Sarawak"
"Klinik Kesihatan Lubok Antu",1,0,0,0,1.04178,111.8361,"Pekan Lubok Antu (D/A Peg. Kesihatan Bahagian Sri Aman, Jalan Hospital)
95007, Sri Aman
Sarawak","083-584105","Sarawak"
"Klinik Kesihatan Jalan Lanang",1,0,0,0,2.24642,111.84177,"Poliklinik Lanang, Jln Ulu Lanang
96000, Sibu
Sarawak","084-210433","Sarawak"
"Klinik Kesihatan Jalan Oya",1,0,0,0,2.300717,111.83537,"Oya, Jalan Oya
96000, Sibu
Sarawak","084-323355","Sarawak"
"Klinik Kesihatan Sarikei",1,0,0,0,2.12231,111.5193,"Sarikei, Jalan Hospital Lama
96100, Sarikei
Sarawak","084-658652","Sarawak"
"Klinik Kesihatan Balai (Bakam)",1,0,0,0,4.367197,113.968928,"Balai (Peg. Kesihatan Bahagian Sarikei, Wisma Persekutuan, Sarikei)
96100, Sarikei
Sarawak","084-651077","Sarawak"
"Klinik Kesihatan Bintangor",1,0,0,0,2.16439,111.63714,"Pekan Bintagor
96500, Bintangor
Sarawak","084-693333","Sarawak"
"Klinik Kesihatan Pakan",1,0,0,0,1.88636,111.6765,"Pekan Pakan
96150, Pakan
Sarawak","084-719226","Sarawak"
"Klinik Kesihatan Julau",1,0,0,0,2.02596,111.91293,"Pekan Julau
96600, Julau
Sarawak","084-734253","Sarawak"
"Klinik Kesihatan Nanga Jagau",1,0,0,0,1.8596,112.30601,"Kampung Nanga Jagau (D/A Peg. Kesihatan Daerah Kanowit)
96700, Kanowit
Sarawak","013-2865112","Sarawak"
"Klinik Kesihatan Song",1,0,0,0,2.008428,112.549778,"Pekan Kecil Song
96850, Song
Sarawak","084-777333","Sarawak"
"Klinik Kesihatan Nanga Bangkit",1,0,0,0,1.77072,112.63817,"Kampung Nanga Bangkit
96850, Song
Sarawak","084-777333","Sarawak"
"Klinik Kesihatan Nanga Engkuah",1,0,0,0,1.710363,112.552909,"Kampung Engkuah
96850, Song
Sarawak","084-777333","Sarawak"
"Klinik Kesihatan Nanga Bena",1,0,0,0,1.98176,113.1057,"Jalan Sungai Bena, Rumah Panjang (D/A Peg. Kesihatan Bahagian Kapit, Wisma Persekutuan)
96800, Kapit
Sarawak","084-796404","Sarawak"
"Klinik Kesihatan Nanga Gaat",1,0,0,0,1.883587,113.448278,"Kampung Nanga Gaat (D/A Peg. Kesihatan Bahagian Kapit, Wisma Persekutuan)
96800, Kapit
Sarawak","084-796404","Sarawak"
"Klinik Kesihatan Nanga Melinau",1,0,0,0,1.975441,112.929397,"Nanga Melinau, Sungai Mujong (D/A Peg. Kesihatan Bahagian Kapit, Wisma Persekutuan)
96800, Kapit
Sarawak","084-796404","Sarawak"
"Klinik Kesihatan Nanga Merirai",1,0,0,0,1.84839,113.57477,"Kampung Nanga Merirai (D/A Peg. Kesihatan Bahagian Kapit, Wisma Persekutuan)
96800, Kapit
Sarawak","084-796404","Sarawak"
"Klinik Kesihatan Nanga Mujong",1,0,0,0,2.02839,113.1715,"Kampung Nanga Mujong, Sungai Mujong
96800, Kapit
Sarawak","084-796404","Sarawak"
"Klinik Kesihatan Tunoh Scheme",1,0,0,0,2.050537,113.670679,"Kampung Tunoh Scheme (D/A Peg. Kesihatan Bahagian Kapit, Wisma Persekutuan)
96800, Kapit
Sarawak","084-796404","Sarawak"
"Klinik Kesihatan Kapit",1,0,0,0,2.01164,112.92896,"Jalan Bleteh
96800, Kapit
Sarawak","084-799661","Sarawak"
"Klinik Kesihatan Lassi",1,0,0,0,1.96053,111.78273,"Kampung Lassi
96600, Julau
Sarawak","084-734253","Sarawak"
"Klinik Kesihatan Daro",1,0,0,0,2.51202,111.43349,"Daro
96200, Daro
Sarawak","084-823333","Sarawak"
"Klinik Kesihatan Matu",1,0,0,0,2.675341,111.532523,"Pekan Matu
96000, Matu
Sarawak","084-832236","Sarawak"
"Klinik Kesihatan Tian",1,0,0,0,2.638119,111.515198,"Kampung Tian
96250, Matu
Sarawak","084-832733","Sarawak"
"Klinik Kesihatan Kuala Oya",1,0,0,0,2.858519,111.877221,"Kampung Kuala Oya
96300, Dalat
Sarawak","084-865231","Sarawak"
"Klinik Kesihatan Kuala Lawas",1,0,0,0,4.952106,115.424752,"Bandar Kuala Lawas
98850, Lawas
Sarawak","085-284870","Sarawak"
"Klinik Kesihatan Trusan",1,0,0,0,4.78556,115.27621,"Pekan Trusan
98850, Lawas
Sarawak","011-295404","Sarawak"
"Klinik Kesihatan Ba Kelalan",1,0,0,0,3.986524,115.622922,"Pekan Ba Kelalan(D/A Peg. Kesihatan Daerah Lawas, Jalan Hospital)
98850, Lawas
Sarawak","085-283781","Sarawak"
"Klinik Kesihatan Long Semadoh",1,0,0,0,4.215724,115.589957,"Long Semandoh (D/A Peg. Kesihatan Daerah Lawas, Jalan Hospital)
98850, Lawas
Sarawak","085-283781","Sarawak"
"Klinik Kesihatan Tang Lapadan",1,0,0,0,3.568967,115.553083,"Tang Lapadan (D/A Peg. KesihatanDaerah Lawas, Jalan Hospital)
98850, Lawas
Sarawak","085-283781","Sarawak"
"Klinik Kesihatan Bandar Miri",1,0,0,0,4.39561,113.99164,"Bandar Miri, Jalan Merbau
98000, Miri
Sarawak","085-412322","Sarawak"
"Klinik Kesihatan Tun Haji Openg",1,0,0,0,4.092792,113.960184,"Jalan Tun Haji Openg (D/A Pej. Kesihatan Bahagian Miri, Jalan Temenggong Oyong Lawai Jau)
98000, Sibuti
Sarawak","085-424722","Sarawak"
"Klinik Kesihatan Long Seridan",1,0,0,0,3.973911,115.069158,"Kampung Long Seridan (Pej. Kesihatan Bahagian, Bahagian Miri)
98000, Baram
Sarawak","085-474722","Sarawak"
"Klinik Kesihatan Jambatan Suai",1,0,0,0,3.792727,113.632791,"Jambatan Suai (Pej. Kesihatan Bahagian  Miri)
98000, Miri
Sarawak","085-474722","Sarawak"
"Klinik Kesihatan Long Moh",1,0,0,0,3.056713,115.076194,"Kampung Long Moh (Pej. Kesihatan Bahagian Miri)
98050, Baram
Sarawak","085-474722","Sarawak"
"Klinik Kesihatan Ladang Tiga",1,0,0,0,3.87391,113.888696,"Pekan Ladang Tiga (D/A Peg. Kesihatan Bahagian Miri, Jalan Temenggong Oyong Lawai Jau)
98000, Subis
Sarawak","085-496001","Sarawak"
"Klinik Kesihatan Long Lellang",1,0,0,0,3.420979,115.153885,"Kampung Long Lellang (D/A Peg. Kesihatan Daerah Baram, Jalan Hospital)
98050, Baram
Sarawak","085-755511","Sarawak"
"Klinik Kesihatan Pa'Dalih",1,0,0,0,3.567309,115.553627,"Jalan Kayu Balak (D/A  Peg. Kesihatan Daerah Baram, Jalan Hospital)
98050, Baram
Sarawak","085-755511","Sarawak"
"Klinik Kesihatan Tudan",1,0,0,0,4.48284,114.02371,"Jalan Tudan Permyjaya
98100, Lutong
Sarawak","085-654404","Sarawak"
"Klinik Kesihatan Bintulu",1,0,0,0,3.17359,113.03704,"Lebuh Raya Abang Galau
97000, Bintulu
Sarawak","086-331455","Sarawak"
"Klinik Kesihatan Sebauh",1,0,0,0,3.11049,113.26816,"Pekan Sebauh (D/A Peg. Kesihatan Bahagian Bintulu, Lebuh Raya Abang Galau)
97000, Bintulu
Sarawak","086-422233","Sarawak"
"Klinik Kesihatan Sungai Asap",1,0,0,0,3.04448,113.915865,"Pekan Sungai Asap
96800, Belaga
Sarawak","013-8657739","Sarawak"
"Klinik Kesihatan Belaga",1,0,0,0,2.70662,113.78298,"Pekan Kecil Belaga
96800, Belaga
Sarawak","086-461323","Sarawak"
"Klinik Kesihatan Lusong Laku",1,0,0,0,2.463398,114.250335,"Kampung Lusong  Laku
96800, Belaga
Sarawak","086-464147","Sarawak"
"Klinik Kesihatan Tatau",1,0,0,0,2.88134,112.85431,"Pekan Tatau
97000, Bintulu
Sarawak","086-584619","Sarawak"
"Klinik Kesihatan Batu Niah",1,0,0,0,3.79474,113.74769,"Batu Niah
98200, Batu Niah
Sarawak","085-737710","Sarawak"
"Klinik Kesihatan Kerukan, Kuala Penyu
5.477001, 115.523999",1,0,0,0,"","","Kampung Kerukan Sipitang
89760, Kuala Penyu
Sabah","087-897260","Sabah"
"Klinik Kesihatan Melalap, Tenom",1,0,0,0,5.263499,116.002748,"Pekan Melalap
89007, Tenom
Sabah","087-302409","Sabah"
"Klinik Kesihatan Sook, Keningau",1,0,0,0,5.148216,116.308656,"Jalan Tulid-Mansiat
89007, Sook
Sabah","087-724003","Sabah"
"Klinik Kesihatan Kemabong, Tenom",1,0,0,0,4.91639,115.93333,"Pekan Kembong
89907, Kemabong
Sabah","087-736896","Sabah"
"Klinik Kesihatan Kuala Tomani, Tenom",1,0,0,0,4.85213,115.88863,"Kampung Kuala Tonomi
89907, Tenom
Sabah","087-741004","Sabah"
"Klinik Kesihatan Patau, Tambunan
5.760235, 116.441984",1,0,0,0,"","","Jalan Tambunan-Ranau, KM 12
89657, Tambunan
Sabah","087-773318","Sabah"
"Klinik Kesihatan Sunsuron, Tambunan",1,0,0,0,5.744544,116.375559,"Jalan Tambunan-Kota Kinabalu, Simpang Kanan, SK Sunsuron
89657, Tambunan
Sabah","087-773318","Sabah"
"Klinik Kesihatan Nabawan",1,0,0,0,5.34108,116.159728,"Pekan Nabawan
89957, Pesiangan
Sabah","087-366199","Sabah"
"Klinik Kesihatan Wp Labuan",1,0,0,0,5.28696,115.26441,"Peti Surat 81736
87027, Labuan
WP Labuan","087-411702","WP Labuan"
"Klinik Kesihatan Long Pasia, Sipitang
4.416669, 115.766669",1,0,0,0,"","","Kampung Long Pasia, Long Pasia
89857, Sipitang
Sabah","087-821066/ 087-8215","Sabah"
"Klinik Kesihatan Menumbok, Kuala Penyu",1,0,0,0,5.30298,115.36962,"Pekan Menumbok
89807, Menumbok
Sabah","087-831066","Sabah"
"Klinik Kesihatan Bongawan",1,0,0,0,5.539394,115.854097,"Jln. Besar Pekan Bongawan
89700, Bongawan
Sabah","087-861771","Sabah"
"Klinik Kesihatan Inanam",1,0,0,0,5.98787,116.14261,"Jalan Kionsom, Pekan Inanam
88300, Inanam
Sabah","088-421694","Sabah"
"Klinik Kesihatan Menggatal",1,0,0,0,6.029743,116.158043,"Jalan Tuaran Lama, Pekan Menggatal
88300, Kota Kinabalu
Sabah","088-493915","Sabah"
"Klinik Kesihatan Telipok",1,0,0,0,6.089103,116.19778,"Jalan Tuaran, Pekan Telipok
88300, Telipok
Sabah","088-492057","Sabah"
"Klinik Kesihatan Nangoh Rumedi, Beluran",1,0,0,0,5.95015,117.3284,"Kampung Nangoh Rumedi
90108, Nangoh
Sabah","089-502003","Sabah"
"Klinik Kesihatan Tandek, Kota Marudu",1,0,0,0,6.533609,116.851851,"Pekan Tandek, Tandek
89108, Kota Marudu
Sabah","088-661533/ 088-6618","Sabah"
"Klinik Kesihatan Luyang",1,0,0,0,5.946239,116.090914,"Jalan Lintas, Luyang
88300, Kota Kinabalu
Sabah","088-715000","Sabah"
"Klinik Kesihatan Penampang",1,0,0,0,5.915743,116.117597,"KM 12, Jalan Tambunan, WDT 29
89500, Donggongon
Sabah","088-717978","Sabah"
"Klinik Kesihatan Likas
6.004151, 116.115999",1,0,0,0,"","","Jalan Haiwan, Kampung Likas
88400, Likas
Sabah","088-433357","Sabah"
"Klinik Kesihatan Kinarut",1,0,0,0,5.830504,116.036865,"Jalan Spur, Pekan Kinarut
89608, Kinarut
Sabah","088-754039","Sabah"
"Klinik Kesihatan Putatan",1,0,0,0,5.898883,116.046601,"KM 11 Jalan Putatan
89500, Donggongong
Sabah","088-765704","Sabah"
"Klinik Kesihatan Tamparuli, Tuaran",1,0,0,0,6.1356,116.26818,"W.D.T 59
89275, Tamparuli
Sabah","088-782349","Sabah"
"Klinik Kesihatan Bundu Tuhan, Ranau",1,0,0,0,5.98222,116.53139,"Jalan Keranau, Kg Bundu Tuhan
89308, Ranau
Sabah","088-889505","Sabah"
"Klinik Kesihatan Kundasang, Ranau",1,0,0,0,5.990717,116.579356,"Jalan Kampung Lembah Permai
89307, Ranau
Sabah","088-889722","Sabah"
"Klinik Kesihatan Padas Damit, Beaufort",1,0,0,0,5.343742,115.745043,"Kampung Padas Damit
89807, Beaufort
Sabah","087-209653","Sabah"
"Klinik Kesihatan Ulu Kimanis, Papar
5.568890, 115.955999",1,0,0,0,"","","Kampung Ulu Kimanis, Kimanis
89700, Papar
Sabah","087-730204","Sabah"
"Klinik Kesihatan Sandakan",1,0,0,0,5.861339,118.102097,"Kilometer 3.2, Jalan Utara
90500, Sandakan
Sabah","089-225800","Sabah"
"Klinik Kesihatan Paitan, Beluran",1,0,0,0,6.41083,117.39583,"Pekan Paitan
90108, Paitan
Sabah","089-262005","Sabah"
"Klinik Kesihatan Telupid, Beluran",1,0,0,0,5.63,117.120457,"Pekan Telupid
89300, Telupid
Sabah","089-521733","Sabah"
"Klinik Kesihatan Tongod",1,0,0,0,5.274559,116.975082,"Pekan Tongod
90200, Tongod
Sabah","087-719004","Sabah"
"Klinik Kesihatan Minusoh, Tongod
5.260303, 116.985242",1,0,0,0,"","","Kampung Minusoh, Kinabatangan
90200, Tongod
Sabah","087-721923","Sabah"
"Klinik Kesihatan Entilidon, Tongod
5.559950, 117.222748",1,0,0,0,"","","Jalan Tongod, Kampung Entilibon, Kinabatangan
90200, Tongod
Sabah","089-561975","Sabah"
"Klinik Kesihatan Ulu Dusun, Sandakan",1,0,0,0,5.78526,117.76872,"Kampung Ulu Dusun, Ulu Dusun
90500, Tongod
Sabah","089-568826","Sabah"
"Klinik Kesihatan Pulau Nunuyan
5.914822, 118.105999",1,0,0,0,"","","Kg Pulau Nunuyun
90500, Sandakan
Sabah","089-239600","Sabah"
"Klinik Kesihatan Batu 10, Sandakan
5.901971, 118.001773",1,0,0,0,"","","Batu 10
90500, Sandakan
Sabah","089-537649","Sabah"
"Klinik Kesihatan Pulau Libaran, Sandakan
6.110540, 118.018000",1,0,0,0,"","","Kg Pulau Libaran
90500, Sandakan
Sabah","089-668493","Sabah"
"Klinik Kesihatan Semporna",1,0,0,0,4.48124,118.60605,"Kg Semporna (Pejabat Kesihatan Semporna, Peti Surat no 395)
91308, Semporna
Sabah","089-781695","Sabah"
"Klinik Kesihatan Bukit Belacon, Lahad Datu
5.095951, 118.229999",1,0,0,0,"","","Bukit Belacan, Segama
91120, Lahad Datu
Sabah","089-845001","Sabah"
"Klinik Kesihatan Lahad Datu",1,0,0,0,5.027745,118.316356,"Jalam Silam, Bandar Lahad Datu
91120, Lahad Datu
Sabah","089-885110","Sabah"
"Klinik Kesihatan Merotai Besar",1,0,0,0,4.41361,117.77778,"Jalan SMK Merotai
91008, Tawau
Sabah","089-902601","Sabah"
"Klinik Kesihatan Apas Balung",1,0,0,0,4.32262,118.09317,"Jalan Apas Balung
91008, Tawau
Sabah","089-951029","Sabah"
"Klinik Kesihatan Karak",1,0,0,0,3.41801,102.0305,"Jalan Besar
28600, Karak
Pahang","09-2311245","Pahang"
"Klinik Kesihatan Mempaga",1,0,0,0,3.536348,101.960443,"Felda Mempaga
28600, Karak
Pahang","09-2377954","Pahang"
"Klinik Kesihatan Bukit Mendi",1,0,0,0,3.20475,102.30604,"Bukit Mendi
28320, Triang
Pahang","09-2450161","Pahang"
"Klinik Kesihatan Simpang Pelangai",1,0,0,0,3.177132,102.192914,"Simpang Pelangai
28740, Bentong
Pahang","09-2480755","Pahang"
"Klinik Kesihatan Bandar Bera 32",1,0,0,0,3.263953,102.606729,"Bandar Bera 32
28300, Triang
Pahang","09-2461988","Pahang"
"Klinik Kesihatan Purun",1,0,0,0,3.374969,102.631531,"Purun
28200, Bera
Pahang","09-2481585","Pahang"
"Klinik Kesihatan Triang",1,0,0,0,3.245324,102.423391,"Triang
28300, Triang
Pahang","09-2555333","Pahang"
"Klinik Kesihatan Temerloh",1,0,0,0,3.44604,102.423713,"Temerloh
28000, Temerloh
Pahang","09-2961275","Pahang"
"Klinik Kesihatan Bandar Mentakab",1,0,0,0,3.48071,102.34205,"Bandar Mentakab
28400, Mentakab
Pahang","09-2771845","Pahang"
"Klinik Kesihatan Lanchang",1,0,0,0,3.49942,102.18489,"Lanchang
28500, Lanchang
Pahang","09-2803233","Pahang"
"Klinik Kesihatan Sanggang",1,0,0,0,3.52681,102.42243,"Sanggang
28020, Temerloh
Pahang","09-2846333","Pahang"
"Klinik Kesihatan Kuala Krau",1,0,0,0,3.70952,102.36537,"Kuala Krau
28050, Temerloh
Pahang","09-2861242","Pahang"
"Klinik Kesihatan Tanjung Lalang (Simpang Songsang)
3.520296, 102.396701",1,0,0,0,"","","Simpang Songsang
28000, Temerloh
Pahang","09-2961142","Pahang"
"Klinik Kesihatan Pekan Awah",1,0,0,0,3.493259,102.531304,"Pekan Awah
28000, Maran
Pahang","09-2986333","Pahang"
"Klinik Kesihatan Chenor",1,0,0,0,3.47943,102.5922,"Chenor
28100, Maran
Pahang","09-2995391","Pahang"
"Klinik Kesihatan Mela",1,0,0,0,4.07371,102.26917,"Mela
27200, Kuala Lipis
Pahang","09-3129424","Pahang"
"Klinik Kesihatan Jeruas",1,0,0,0,3.981466,101.904628,"Jeruas
27660, Raub
Pahang","09-3657333","Pahang"
"Klinik Kesihatan Tanjung Gemok",1,0,0,0,2.67073,103.61386,"Tanjung Gemok
26800, Kuala Rompin
Pahang","09-4132510","Pahang"
"Klinik Kesihatan Rompin",1,0,0,0,2.80147,103.48048,"Rompin
26800, Kuala Rompin
Pahang","09-4145333","Pahang"
"Klinik Kesihatan Tekek",1,0,0,0,2.81716,104.15831,"Tekek, Pulau Tioman
86800, Tioman
Pahang","09-4191880","Pahang"
"Klinik Kesihatan Bandar Pekan",1,0,0,0,3.489294,103.393428,"Bandar Pekan
26600, Pekan
Pahang","09-4227291","Pahang"
"Klinik Kesihatan Perwira Jaya",1,0,0,0,2.687101,102.949297,"Wakil Pos, Bandar 19
85070, Segamat
Pahang","09-4371176","Pahang"
"Klinik Kesihatan Perantau Damai",1,0,0,0,2.963784,102.981827,"Perantau Damai
26700, Muadzam Shah
Pahang","09-4431333","Pahang"
"Klinik Kesihatan Bandar Tun Abdul Razak",1,0,0,0,2.9041,102.89988,"Bandar Tun Razak
26900, Bandar Tun Razak
Pahang","09-4457297","Pahang"
"Klinik Kesihatan Chanis",1,0,0,0,2.857706,102.984424,"Chanis
26700, Muadzam Shah
Pahang","09-4471106","Pahang"
"Klinik Kesihatan Bukit Ibam",1,0,0,0,3.164705,102.976785,"Bukit Ibam
26700, Rompin
Pahang","09-4585231","Pahang"
"Klinik Kesihatan Jengka 2",1,0,0,0,3.715155,102.612708,"Felda Jengka
26400, Bandar Jengka
Pahang","09-4674320","Pahang"
"Klinik Kesihatan Maran",1,0,0,0,3.58474,102.77425,"Maran
26500, Maran
Pahang","09-4771333","Pahang"
"Klinik Kesihatan Pekan Tajau",1,0,0,0,3.56058,102.69084,"Pekan Tajau
28000, Maran
Pahang","09-4774782","Pahang"
"Klinik Kesihatan Bandar Jengka",1,0,0,0,3.76578,102.54261,"Bandar Jengka
26400, Maran
Pahang","09-4677198","Pahang"
"Klinik Kesihatan Jengka 22",1,0,0,0,3.71853,102.4756,"Felda Jengka 22
26400, Bandar Jengka
Pahang","09-4864423","Pahang"
"Klinik Kesihatan Manir",1,0,0,0,5.321639,103.081583,"Lot 8085, Jalan Kelantan
21200, Manir
Terengganu","09-6151447","Terengganu"
"Klinik Kesihatan Kurnia",1,0,0,0,3.779994,103.283223,"Batu 3, Jalan Gambang
25150, Kuantan
Pahang","09-5361333","Pahang"
"Klinik Kesihatan Sungai Lembing",1,0,0,0,3.92532,103.07251,"Kampung Sungai Lembing
26070, Kuantan
Pahang","09-5411598","Pahang"
"Klinik Kesihatan Bandar Permaisuri",1,0,0,0,5.52985,102.7386,"Lot 800, Jalan Kuala Terengganu, Bandar Permaisuri
22100, Tasek
Terengganu","09-6097633","Terengganu"
"Klinik Kesihatan Kampung Rahmat",1,0,0,0,5.4653,102.801267,"Lot 6155, Jalan Kuala Terengganu
24150, Chalok
Terengganu","09-8240833","Terengganu"
"Klinik Kesihatan Bukit Payong",1,0,0,0,5.235867,103.0998,"Jalan Kuala Terengganu Kuala Berang
21400, Marang
Terengganu","09-6195805","Terengganu"
"Klinik Kesihatan Hiliran",1,0,0,0,5.313722,103.134472,"Lot 3056, Jalan Kemajuan, Padang Hiliran
21100, Cabang Tiga
Terengganu","09-6232732","Terengganu"
"Klinik Kesihatan Kuala Terengganu
5.319412, 103.153279",1,0,0,0,"","","Jalan Sultan Mahmud
20400, Kuala Terengganu
Terengganu","09-6227857/ 09-62260","Terengganu"
"Klinik Kesihatan Sri Langkap",1,0,0,0,5.360917,102.880667,"Lot 10494, Jalan Kuala Terengganu
21500, Besut
Terengganu","09-6571997","Terengganu"
"Klinik Kesihatan Seberang Takir",1,0,0,0,5.375722,103.116944,"Lot 15623, Jalan Telok Ketapang, Seberang Takir
21300, Kuala Nerus
Terengganu","09-6663333","Terengganu"
"Klinik Kesihatan Bukit Tunggal",1,0,0,0,5.344222,103.107889,"Lot 6859, Jalan Bukit Datu, Kg Bukit Tunggal
21200, Kuala Nerus
Terengganu","09-6626275","Terengganu"
"Klinik Kesihatan Batu Rakit",1,0,0,0,5.42602,103.05901,"Lot 8064, Jalan Batu Rakit
21300, Kuala Nerus
Terengganu","09-6696133","Terengganu"
"Klinik Kesihatan Wakaf Tapai",1,0,0,0,5.137667,103.084267,"PT 3000, Jalan Kuala Terengganu, Kuala Berang
21040, Alor Limbat
Terengganu","09-6801533","Terengganu"
"Klinik Kesihatan Telemong",1,0,0,0,5.21905,103.030697,"Karak, Bentong, Pahang
28620, Karak
Terengganu","09-2399972","Terengganu"
"Klinik Kesihatan Kuala Berang",1,0,0,0,5.075211,103.011944,"Lot 3893, Jalan Kuala Berang
21700, Kuala Berang
Terengganu","09-6811597","Terengganu"
"Klinik Kesihatan Tengkawang",1,0,0,0,5.153064,102.936161,"Lot 3814, 2825 & 3330, Jalan Kuala Berang Sungai Tong
21700, Hulu Telemong
Terengganu","09-6818710","Terengganu"
"Klinik Kesihatan Ajil",1,0,0,0,5.116775,103.048703,"Lot 4048, Jalan Kuala Terengganu-Kuala Berang
21800, Ajil
Terengganu","09-6861633","Terengganu"
"Klinik Kesihatan Felda Mengkawang",1,0,0,0,4.862723,103.030944,"Lot 5442, Jalan Kg Tanjong Ajil
21800, Kuala Berang
Terengganu","09-6881896","Terengganu"
"Klinik Kesihatan Kuala Besut",1,0,0,0,5.83377,102.54075,"Lot 1415, Jalan Semarak
22300, Kuala Besut
Terengganu","09-6919333","Terengganu"
"Klinik Kesihatan Sri Medang",1,0,0,0,5.76239,102.59756,"Lot 2017, Jalan Tembila
22200, Tembila
Terengganu","09-6958386","Terengganu"
"Klinik Kesihatan Tendong",1,0,0,0,6.069967,102.207637,"Tedong
17030, Pasir Mas
Kelantan","09-7198333","Kelantan"
"Klinik Kesihatan Wakaf Bharu",1,0,0,0,6.12243,102.20248,"Wakaf Baru
16250, Tumpat
Kelantan","09-7196333","Kelantan"
"Klinik Kesihatan Bunohan",1,0,0,0,6.182428,102.116375,"Jalan Pengkalan Kubur
16200, Tumpat
Kelantan","09-7211033","Kelantan"
"Klinik Kesihatan Pengkalan Kubor",1,0,0,0,6.215414,102.111172,"Pengkalan Kubor
16200, Tumpat
Kelantan","09-7211570","Kelantan"
"Klinik Kesihatan Bandar Tumpat",1,0,0,0,6.19397,102.17041,"Bandar Tumpat
16200, Tumpat
Kelantan","09-7255500","Kelantan"
"Klinik Kesihatan Sungai Pinang",1,0,0,0,6.177484,102.232982,"Sungai Pinang, Palekbang
16040, Tumpat
Kelantan","09-7255133","Kelantan"
"Klinik Kesihatan Wakaf Che Yeh",1,0,0,0,6.084371,102.236489,"Jalan Pasir Mas Salor
15100, Kota Bharu
Kelantan","09-7446333","Kelantan"
"Klinik Kesihatan Bandar Kota Bharu",1,0,0,0,6.125518,102.242912,"Jalan Hospital
15586, Kota Bharu
Kelantan","09-7475770","Kelantan"
"Klinik Kesihatan Pintu Geng
6.101671, 102.230999",1,0,0,0,"","","Jalan Pintu Geng
15000, Kota Bharu
Kelantan","09-7416732","Kelantan"
"Klinik Kesihatan Bendang Kerian
6.160611, 102.165999",1,0,0,0,"","","Bendang Kerian
16200, Tumpat
Kelantan","09-7416732","Kelantan"
"Klinik Kesihatan Telok Renjuna
6.195621, 102.224999",1,0,0,0,"","","Telok Rejuna
16200, Tumpat
Kelantan","09-7416732","Kelantan"
"Klinik Kesihatan Kandis
5.949721, 102.444999",1,0,0,0,"","","Kandis
16300, Bachok
Kelantan","09-7416732","Kelantan"
"Klinik Kesihatan Banggol Pa' Esah",1,0,0,0,5.863541,102.338114,"Kampung Banggul Pa'Esah
16800, Pasir Puteh
Kelantan","09-7416732","Kelantan"
"Klinik Kesihatan Kual
5.969170, 102.015999",1,0,0,0,"","","Kubang Kual
17000, Pasir Mas
Kelantan","09-7416732","Kelantan"
"Klinik Kesihatan Gual Periok",1,0,0,0,6.029609,102.018306,"Gual Periok
17200, Pasir Mas
Kelantan","09-7416732","Kelantan"
"Klinik Kesihatan Batu Melintang",1,0,0,0,5.704542,101.733728,"Kampung Batu Melintang
17520, Batu Melintang
Kelantan","09-7416732","Kelantan"
"Klinik Kesihatan Lubok Bongor",1,0,0,0,5.559569,101.88383,"Lubok Bongor
17600, Kuala Balah
Kelantan","09-7416732","Kelantan"
"Klinik Kesihatan Biak
5.553553, 102.198813",1,0,0,0,"","","Biak
18000, Kuala Krai
Kelantan","09-7416732","Kelantan"
"Klinik Kesihatan Mengkebang
5.518061, 102.274999",1,0,0,0,"","","Mengkebang
18000, Kuala Krai
Kelantan","09-7416732","Kelantan"
"Klinik Kesihatan Kuala Betis",1,0,0,0,4.900583,101.787778,"Kuala Betis
18300, Gua Musang
Kelantan","09-7416732","Kelantan"
"Klinik Kesihatan Lebir",1,0,0,0,5.152521,102.33991,"Lebir
18300, Gua Musang
Kelantan","09-7416732","Kelantan"
"Klinik Kesihatan Belukar
5.761051, 102.219248",1,0,0,0,"","","Jalan Machang-Pasir Puteh
18500, Machang
Kelantan","09-7416732","Kelantan"
"Klinik Kesihatan Penambang",1,0,0,0,6.147089,102.238427,"Lot No 348-A Jalan Pantai Cahaya Bulan, Kg Penambang
15350, Kota Bharu
Kelantan","09-7442760","Kelantan"
"Klinik Kesihatan Pengkalan Chepa",1,0,0,0,6.16232,102.28063,"Pengkalan Chepa
16100, Kota Bharu
Kelantan","09-7714030","Kelantan"
"Klinik Kesihatan Beris Panchor",1,0,0,0,6.128631,102.350877,"Beris Panchor
16020, Tawar
Kelantan","09-7788633","Kelantan"
"Klinik Kesihatan Beris",1,0,0,0,6.07368,102.36485,"Kubor Besar
16300, Bachok
Kelantan","09-7788633","Kelantan"
"Klinik Kesihatan Bachok",1,0,0,0,6.05617,102.39908,"Bachok
16300, Bachok
Kelantan","09-7789333","Kelantan"
"Klinik Kesihatan Gunong",1,0,0,0,5.98927,102.34769,"Gunong
16390, Bachok
Kelantan","09-7834333","Kelantan"
"Klinik Kesihatan Jeram",1,0,0,0,5.79962,102.37161,"Jeram
16800, Pasir Puteh
Kelantan","09-7867033","Kelantan"
"Klinik Kesihatan Selising",1,0,0,0,5.896667,102.332778,"Selising
16410, Pasir Puteh
Kelantan","09-7891433","Kelantan"
"Klinik Kesihatan Bandar Pasir Mas",1,0,0,0,6.04557,102.14015,"Bandar Pasir Mas
17000, Pasir Mas
Kelantan","09-7901333","Kelantan"
"Klinik Kesihatan Kedai Lalat",1,0,0,0,6.11402,102.30685,"Bandar Kota Jembal, Kedai Lalat
16150, Kota Bharu
Kelantan","09-7666733","Kelantan"
"Klinik Kesihatan To'Uban",1,0,0,0,5.965611,102.150903,"To`Uban
17050, Pasir Mas
Kelantan","09-7941333","Kelantan"
"Klinik Kesihatan Chekok",1,0,0,0,5.919025,102.187647,"Chekok
17060, Pasir Mas
Kelantan","09-7942333","Kelantan"
"Klinik Kesihatan Kangkong",1,0,0,0,5.994649,102.188054,"Jalan Pasir Mas Tanah Merah
17040, Pasir Mas
Kelantan","09-7943155","Kelantan"
"Klinik Kesihatan Rantau Panjang",1,0,0,0,6.013674,101.97289,"Jalan Lubok Stol
17200, Rantau Panjang
Kelantan","09-7950333","Kelantan"
"Klinik Kesihatan Meranti",1,0,0,0,6.096198,102.101019,"Jalan Bonggol Che Wan, Meranti
17000, Pasir Mas
Kelantan","09-7975057","Kelantan"
"Klinik Kesihatan Ketengah Jaya",1,0,0,0,4.571389,103.311389,"Lot 2124, Jalan Ketengah Jaya
23300, Dungun
Terengganu","09-8200233","Terengganu"
"Klinik Kesihatan Almuktafi Billah Shah",1,0,0,0,4.625,103.206944,"Lot 467, Jalan Almuktafi Billah Shah
23400, Jengai
Terengganu","09-8221333","Terengganu"
"Klinik Kesihatan Kerteh",1,0,0,0,4.503642,103.440789,"Lot 455, Jalan Bandar Baru Kerteh
24300, Kerteh
Terengganu","09-8261333","Terengganu"
"Klinik Kesihatan Paka",1,0,0,0,4.631389,103.4375,"Lot 7736 & 2166, Jalan Dungun Kuantan
23100, Paka
Terengganu","09-8271333","Terengganu"
"Klinik Kesihatan Merchang",1,0,0,0,5.020217,103.302217,"Lot 2943, Jalan Kuala Terengganu-Dungun
21600, Marang
Terengganu","09-8321233","Terengganu"
"Klinik Kesihatan Jerangau",1,0,0,0,4.905,103.19,"Lot 1462, Jalan Jerangau
21820, Jerangau
Terengganu","09-8384333","Terengganu"
"Klinik Kesihatan Bukit Besi",1,0,0,0,4.755278,103.185556,"Lot 6528, Jalan Bukit Besi
23200, Besut
Terengganu","09-8337236","Terengganu"
"Klinik Kesihatan Kuala Abang",1,0,0,0,4.816944,103.420556,"Lot 65, Jalan Klinik Kuala Abang
23050, Kuala Abang
Terengganu","09-8442333","Terengganu"
"Klinik Kesihatan Kuala Dungun",1,0,0,0,4.761389,103.413889,"Lot 9783, Jalan Alor Tembesu
23000, Kuala Dungun
Terengganu","09-8458820","Terengganu"
"Klinik Kesihatan Batu 2 ?",1,0,0,0,4.239574,103.398465,"Jalan Air Putih
24000, Chukai
Terengganu","09-8581540","Terengganu"
"Klinik Kesihatan Chukai",1,0,0,0,4.239422,103.418272,"Lot 3115, Jalan Sentosa
24000, Chukai
Terengganu","09-8591619","Terengganu"
"Klinik Kesihatan Kijal",1,0,0,0,4.333181,103.486136,"Lot 2187, Jalan Pantai Penunjuk
24100, Kijal
Terengganu","09-8633204","Terengganu"
"Klinik Kesihatan Air Puteh",1,0,0,0,4.271064,103.212217,"Lot 2583, Jalan Air Puteh
24050, Mukim Tebak
Terengganu","09-8593355","Terengganu"
"Klinik Kesihatan Kemasik",1,0,0,0,4.427736,103.452517,"Lot 68, Jalan Kuala Terengganu-Kemaman
24200, Kemasik
Terengganu","09-8640033","Terengganu"
"Klinik Kesihatan Sri Bandi",1,0,0,0,4.380972,103.323822,"Lot 2658, Jalan Bunga Raya
24200, Hulu Chukai
Terengganu","09-8676254","Terengganu"
"Klinik Kesihatan Kuala Kemaman",1,0,0,0,4.215717,103.436028,"Lot 7259, Jalan Kuala Kemaman
24000, Chukai
Terengganu","09-8683659","Terengganu"
"Klinik Kesihatan Cheneh",1,0,0,0,4.12425,103.243264,"Lot 168, Jalan Masjid Cheneh
24000, Mukim Bandi
Terengganu","09-8730100","Terengganu"
"Klinik Kesihatan Bertam Baru",1,0,0,0,5.14255,102.04844,"Bertam Baru
18300, Gua Musang
Kelantan","09-9126626","Kelantan"
"Klinik Kesihatan Chiku 3",1,0,0,0,4.97249,102.20688,"Chiku 3
18300, Gua Musang
Kelantan","09-9285333","Kelantan"
"Klinik Kesihatan Aring",1,0,0,0,4.95389,102.29969,"Aring
18300, Gua Musang
Kelantan","09-9286333","Kelantan"
"Klinik Kesihatan Kuala Balah",1,0,0,0,5.445019,101.913192,"Kuala Balah
17600, Kuala Balah
Kelantan","09-9361233","Kelantan"
"Klinik Kesihatan Jeli",1,0,0,0,5.71663,101.747139,"Jeli
17600, Jeli
Kelantan","09-9440733","Kelantan"
"Klinik Kesihatan Ayer Lanas",1,0,0,0,5.77885,101.8865,"Ayer Lanas
17700, Jeli
Kelantan","09-9468333","Kelantan"
"Klinik Kesihatan Batu Gajah",1,0,0,0,5.81099,101.982327,"Batu 13, Jalan Tanah Merah- Jeli
17510, Tanah Merah
Kelantan","09-9581033","Kelantan"
"Klinik Kesihatan Manik Urai",1,0,0,0,5.38148,102.24283,"Manek Urai
18050, Kuala Krai
Kelantan","09-9665133","Kelantan"
"Klinik Kesihatan Dabong",1,0,0,0,5.37517,102.01022,"Dadong
18200, Kuala Krai
Kelantan","09-9602221","Kelantan"
"Klinik Kesihatan Pahi",1,0,0,0,5.48589,102.22268,"Pahi
18000, Kuala Krai
Kelantan","09-9609343","Kelantan"
"Klinik Kesihatan Bandar Kuala Krai",1,0,0,0,5.538634,102.204046,"Jalan Pintas
18000, Kuala Krai
Kelantan","09-9605667","Kelantan"
"Klinik Kesihatan Rassau",1,0,0,0,2.60135,111.83704,"Batang Air, Kampung Rasau (D/A Peg. Kesihatan Bahagian Sibu, Wisma Persekutuan, Persiaran Brooke)
96000, Matu
Sarawak","010-8771382","Sarawak"
"Klinik Kesihatan Nanga Merit",1,0,0,0,4.53472,114.94472,"Kampung Nanga Merit (Peg. Kesihatan Bahagian Limbang, Jalan Pandaruan, Limbang)
98700, Limbang
Sarawak","011-212039","Sarawak"
"Klinik Kesihatan Nanga Kesit",1,0,0,0,1.229621,111.783169,"Nangka Kesit (D/A Peg. Kesihatan Bahagian Sri Aman Jalan Hospital)
95007, Sri Aman
Sarawak","011-221154","Sarawak"
"Klinik Kesihatan Mentu",1,0,0,0,1.266167,111.027694,"Kampung Mentu
94300, Kota Samarahan
Sarawak","011-221276","Sarawak"
"Klinik Kesihatan Nanga Taroh",1,0,0,0,2.619,112.26699,"Kampung Nanga Taroh (D/A Peg. Kesihatan Bahagian Mukah)
96400, Ng. Baoh
Sarawak","011-257484","Sarawak"
"Klinik Kesihatan Nanga Baoh",1,0,0,0,2.583694,112.049524,"Kampung Nanga Baoh
96300, Dalat
Sarawak","011-257494","Sarawak"
"Klinik Kesihatan Long Loyang",1,0,0,0,3.448402,114.116675,"Kampung Long Loyang (D/A Peg. Kesihatan Daerah Baram, Jalan Hospital)
98050, Baram
Sarawak","011-295191","Sarawak"
"Klinik Kesihatan Long Bedian",1,0,0,0,3.794918,114.732075,"Rumah Panjang Long Bedian (D/A Peg. Kesihatan Daerah Baram, Jalan Hospital)
98050, Baram
Sarawak","011-295192","Sarawak"
"Klinik Kesihatan Long Sukang",1,0,0,0,4.552892,115.48812,"Long Sukang (D/A Peg. Kesihatan Daerah Lawas, Jalan Hospital)
98850, Lawas
Sarawak","011-295400","Sarawak"
"Klinik Kesihatan Pos Betau",1,0,0,0,4.285551,101.805265,"Kampung Pos Betau
27200, Kuala Lipis
Pahang","012-9869205","Pahang"
"Klinik Kesihatan Pangkalan Amo",1,0,0,0,1.176364,110.564067,"Kampung Pengkalan Amo (D/A Pen. Peg. Perubatan Kanan, Hospital Serian, Jalan Serian Bypass)
94700, Serian
Sarawak","013-2680129","Sarawak"
"Klinik Kesihatan Ngungun",1,0,0,0,1.98503,112.40318,"Kampung Ngungun (D/A Peg. Kesihatan Daerah Kanowit)
96700, Kanowit
Sarawak","013-2865113","Sarawak"
"Klinik Kesihatan Nanga Poi (Menalun)",1,0,0,0,2.033117,112.261047,"Kampung Nanga Poi (D/A Peg. Kesihatan Daerah Kanowit)
96700, Kanowit
Sarawak","013-2865114","Sarawak"
"Klinik Kesihatan Long Jeeh",1,0,0,0,2.98311,114.95786,"Kampung Long Jeeh (D/A Peg. Kesihatan Daerah Baram, Jalan Hospital)
98050, Baram
Sarawak","013-2865602","Sarawak"
"Klinik Kesihatan Long Naah",1,0,0,0,3.32891,114.596903,"Kampung Long Naah (D/A Peg. Kesihatan Daerah Baram, Jalan Hospital)
98050, Baram
Sarawak","013-2865604","Sarawak"
"Klinik Kesihatan Long Pillah",1,0,0,0,3.48435,114.42913,"Kampung Long Pilah (D/A Peg. Kesihatan Daerah, Daerah Baram, Jalan Hospital, Baram)
98050, Baram
Sarawak","013-2865605","Sarawak"
"Klinik Kesihatan Long Miri",1,0,0,0,3.58801,114.427199,"Kampung Long Miri (D/A Peg. Kesihatan Daerah Baram, Jalan Hospital)
98050, Baram
Sarawak","013-2865606","Sarawak"
"Klinik Kesihatan Ulu Teru",1,0,0,0,1.581368,111.464852,"Ulu Teru (D/A Peg. Kesihatan Daerah Baram, Jalan Hospital)
98050, Baram
Sarawak","013-2865607","Sarawak"
"Klinik Kesihatan Long Kevok",1,0,0,0,3.802,114.907333,"Kampung Long Kevok (D/A Peg. Kesihatan Daerah Baram, Jalan Hospital)
98050, Baram
Sarawak","013-2865608","Sarawak"
"Klinik Kesihatan Long San",1,0,0,0,3.29568,114.78221,"Kampung Long San (D/A Peg. Kesihatan Daerah Baram, Jalan Hospital, Baram)
98050, Baram
Sarawak","013-2865610","Sarawak"
"Klinik Kesihatan Bruit",1,0,0,0,2.709031,111.369778,"Bruit
96200, Mukah
Sarawak","017-2100000","Sarawak"
"Klinik Kesihatan Nanga Passin",1,0,0,0,2.635692,111.709433,"Kampung Nanga Passin (D/A Peg. Kesihatan Bahagian Sibu, Wisma Persekutuan, Persiaran Brooke, Sibu)
96000, Matu
Sarawak","017-2100009/ 011-213","Sarawak"
"Klinik Kesihatan Singai",1,0,0,0,1.492666,110.170873,"Jalan Kawah, Kampung Singai (D/A  Peg. Kesihatan Bahagian Kuching, Jalan Tun Ahmad Zaidi Adruce)
93250, Bau
Sarawak","018-2110499","Sarawak"
"Klinik Kesihatan Nanga Semah",1,0,0,0,2.36002,111.51261,"Nanga Semah
96200, Daro
Sarawak","019-210006","Sarawak"
"Klinik Kesihatan Kampong Betong",1,0,0,0,5.93592,100.682836,"Kampong Betong
8200, Mukim Jeneri
Kedah","019-4776363","Kedah"
"Klinik Kesihatan Tekajong",1,0,0,0,2.739262,111.304668,"Kampung Tekajong
96200, Daro
Sarawak","019-8364561","Sarawak"
"Klinik Kesihatan Betanak",1,0,0,0,2.633915,111.295032,"Betanak
96200, Daro
Sarawak","019-8367446","Sarawak"
"Klinik Kesihatan Gagatau
2.937337, 112.893964",1,0,0,0,"","","Gagatau
97200, Tatau
Sarawak","019-8548807","Sarawak"
"Klinik Kesihatan Bukit Naga",1,0,0,0,3.013068,101.530713,"PT 93/65, Batu 6, Jalan Klinik
42450, Klang
Selangor","03-31422785","Selangor"
"Klinik Kesihatan Sepang",1,0,0,0,2.68943,101.75014,"Sepang
43900, Sepang
Selangor","03-31422785","Selangor"
"Klinik Kesihatan Sungai Lang",1,0,0,0,2.79086,101.52174,"Kampung Sungai Lang
42700, Banting
Selangor","03-31803739","Selangor"
"Klinik Kesihatan Bukit Cherakah",1,0,0,0,3.27239,101.365,"Jalan Rizab Masjid, Kg Bukit Cherakah
45800, Jeram
Selangor","03-32640014","Selangor"
"Klinik Kesihatan Sungai Tengi Kanan
 3.439210, 101.192085",1,0,0,0,"","","Jalan Kiai Mohd, Kampung Sungai Tengi Kanan
45500, Tanjong Karang
Selangor","03-32694357","Selangor"
"Klinik Kesihatan Tanjung Karang",1,0,0,0,3.42113,101.17378,"Jalan Sungai Kajang
45500, Tanjung Karang
Selangor","03-32698355","Selangor"
"Klinik Kesihatan Ijok",1,0,0,0,3.31761,101.41471,"JKR 1087 Jalan Simpang Tiga
45600, Ijok
Selangor","03-32791167","Selangor"
"Klinik Kesihatan Kuala Selangor",1,0,0,0,3.33684,101.25,"Jalan Klinik
45000, Kuala Selangor
Selangor","03-32891142","Selangor"
"Klinik Kesihatan Rantau Panjang",1,0,0,0,3.06897,101.41154,"Jalan Rantau Panjang
41400, Klang
Selangor","03-32916930","Selangor"
"Klinik Kesihatan Bandar Botanik",1,0,0,0,2.989883,101.445698,"Blok B, Jalan Langat Bandar Botanik
41200, Klang
Selangor","03-33244260","Selangor"
"Klinik Kesihatan Soeharto",1,0,0,0,3.680846,101.386751,"Soeharto
44101, Kuala Kubu Baru
Selangor","03-60461003","Selangor"
"Klinik Kesihatan Ulu Yam Bharu",1,0,0,0,3.435175,101.656971,"Jalan Besar
44300, Hulu Yam Bharu
Selangor","03-6064257","Selangor"
"Klinik Kesihatan Paya Jaras",1,0,0,0,3.20089,101.544751,"Batu 15, Sungai Buloh
47000, Petaling
Selangor","03-61579135","Selangor"
"Klinik Kesihatan Gombak Setia",1,0,0,0,3.21825,101.71474,"No 5A/6A, Jln Kenangan Utama, Taman Kenangan
53000, Gombak Setia
Selangor","03-61873039","Selangor"
"Klinik Kesihatan Batu 8 Gombak",1,0,0,0,3.2461,101.72245,"Batu 8, Gombak Utara
53000, Gombak
Selangor","03-61889704","Selangor"
"Klinik Kesihatan Batu 13 ? Puchong",1,0,0,0,3.02086,101.59251,"Batu 13, Jalan Klang Lama
47100, Puchong
Selangor","03-80623984","Selangor"
"Klinik Kesihatan Beranang",1,0,0,0,2.887998,101.871355,"Jalan Seremban
43700, Beranang
Selangor","03-87667577","Selangor"
"Klinik Kesihatan Cheras",1,0,0,0,3.122382,101.730201,"No. 14, Jalan Yaakob Latiff
56000, Bandar Tun Razak
WP Kuala Lumpur","03-91309022","WP Kuala Lumpur"
"Klinik Kesihatan Prai",1,0,0,0,5.383767,100.388187,"Lot 329, Mukim 1, Jalan Baru Perai
13600, Perai
Pulau Pinang","04-3901477","Pulau Pinang"
"Klinik Kesihatan Mahang",1,0,0,0,5.32243,100.74928,"Lot 919, Jalan Mahang
9800, Serdang
Kedah","04-4041333","Kedah"
"Klinik Kesihatan Malau",1,0,0,0,5.50261,100.7216,"Malau
9020, Baling
Kedah","04-4061700","Kedah"
"Klinik Kesihatan Permatang Buloh",1,0,0,0,5.960015,100.362205,"Permatang Buluh
6800, Kota Sarang Semut
Kedah","04-4471451","Kedah"
"Klinik Kesihatan Lunas",1,0,0,0,5.43012,100.5305,"Jalan Ara Kuda
9600, Lunas
Kedah","04-4844355","Kedah"
"Klinik Kesihatan Taman Selasih",1,0,0,0,5.37832,100.53767,"Lot 3302, Taman Selasih
9000, Kulim
Kedah","04-4917377","Kedah"
"Klinik Kesihatan Machang Bubok
5.330929, 100.503197",1,0,0,0,"","","No FR 30, Lot 585 Mukim 16, Perkampungan Machang Bubok
14000, Bukit Mertajam
Pulau Pinang","04-5515985","Pulau Pinang"
"Klinik Kesihatan Tasek Gelugor",1,0,0,0,5.483562,100.491544,"Lot 1944, Mukim 12
13300, Tasek Gelugor
Pulau Pinang","04-5735025","Pulau Pinang"
"Klinik Kesihatan Kuala Muda",1,0,0,0,5.570465,100.359467,"Lot 1794, Mukim 1, Jalan Kuala Muda
13110, Penaga
Pulau Pinang","04-5793405","Pulau Pinang"
"Klinik Kesihatan Jalan Putra",1,0,0,0,6.202778,100.477778,"Merong
5150, Alor Setar
Kedah","04-7355161","Kedah"
"Klinik Kesihatan Sungai Tiang",1,0,0,0,3.90843,100.71738,"Sungai Tiang
36100, Bagan Datoh
Perak","04-7596412","Perak"
"Klinik Kesihatan Simpang Empat",1,0,0,0,6.02598,100.3859,"Simpang Empat, Mukim Kangkong
6600, Alor Setar
Kedah","04-7621526","Kedah"
"Klinik Kesihatan Kota Sarang Semut",1,0,0,0,5.97459,100.40313,"Jalan Pendang, Kota Sarang Semut
6800, Alor Setar
Kedah","04-7691333","Kedah"
"Klinik Kesihatan Pedu",1,0,0,0,6.224971,100.654984,"Pedu
6300, Kuala Nerang
Kedah","04-7868717","Kedah"
"Klinik Kesihatan Tanjung Bungah",1,0,0,0,5.461979,100.27955,"Lot 1835, Jalan Lembah Permai
11200, Tanjung Bungah
Pulau Pinang","04-8990953","Pulau Pinang"
"Klinik Kesihatan Temonyong",1,0,0,0,6.294814,99.737645,"Padang Maksirat
7100, Langkawi
Kedah","04-9531133","Kedah"
"Klinik Kesihatan Padang Matsirat",1,0,0,0,6.35012,99.73174,"Padang Mat Sirat
7100, Langkawi
Kedah","04-9551355","Kedah"
"Klinik Kesihatan Air Hangat",1,0,0,0,6.422483,99.80381,"Mukim Air Hangat
7000, Langkawi
Kedah","04-9591959","Kedah"
"Klinik Desa Felcra Nasarudin",1,0,0,0,4.32221,100.952508,"Bota
32600, Bota
Perak","05-3711603","Perak"
"Klinik Kesihatan Tapah Road",1,0,0,0,4.193621,101.263601,"Pekan Tapah
35000, Batang Padang
Perak","05-4180370","Perak"
"Klinik Kesihatan Sungai Selisek",1,0,0,0,3.73235,101.44514,"Sungai Selisek
44020, Kuala Kubu Baru
Selangor","05-4541352","Selangor"
"Klinik Kesihatan Kampung Raja
4.567121, 101.408000",1,0,0,0,"","","Kampung Raja
39010, Cameron Highlands
Pahang","05-4982372","Pahang"
"Klinik Kesihatan Sungai Siput",1,0,0,0,4.815825,101.080558,"Jalan Ipoh, Pekan Sungai Siput
31100, Sungai Siput
Perak","05-5982355","Perak"
"Klinik Kesihatan Telok Intan",1,0,0,0,4.028198,101.018123,"Jalan Bandar
36000, Telok Intan
Perak","05-6214020","Perak"
"Klinik Kesihatan Hutan Melintang",1,0,0,0,3.876417,100.93425,"Jalan Hutan Melintang
36400, Hutan Melintang
Perak","05-6411475","Perak"
"Klinik Kesihatan Selekoh",1,0,0,0,3.902028,100.78911,"Jalan Bagan Datoh
36100, Selekoh
Perak","05-6489333","Perak"
"Klinik Kesihatan Sungai Sumun",1,0,0,0,3.890583,100.854306,"Kampung Sungai Sumun
36300, Sungai Sumun
Perak","05-6489355","Perak"
"Klinik Kesihatan Chenderong Balai",1,0,0,0,4.132556,101.102778,"Chenderong Balai
36600, Chenderong Balai
Perak","05-6511652","Perak"
"Klinik Kesihatan Langkap",1,0,0,0,4.079833,101.149667,"Langkap
36700, Langkap
Perak","05-6591473","Perak"
"Klinik Kesihatan Changkat Keruing",1,0,0,0,4.381654,100.69129,"Kampung Changkat Kruing
32500, Changkat Kruing
Perak","05-6751553","Perak"
"Klinik Kesihatan Pengkalan Baru",1,0,0,0,4.48093,100.63815,"Kampung Pengkalan Baru
34900, Pantai Remis
Perak","05-6774350","Perak"
"Klinik Kesihatan Bekor",1,0,0,0,4.577897,100.926631,"Bekor
33800, Manong
Perak","05-74311575","Perak"
"Klinik Kesihatan Ijok (Felda)",1,0,0,0,5.16557,100.76786,"Felda Ijok
34120, Redang Panjang
Perak","05-8803048","Perak"
"Klinik Kesihatan Selinsing",1,0,0,0,4.925012,100.624255,"Kampung Selinsing, Simpang Ampat
34400, Semanggol
Perak","05-8904542","Perak"
"Klinik Kesihatan Kuala Gula",1,0,0,0,4.951086,100.619814,"Kuala Gula
34350, Kuala Gula
Perak","05-8908657","Perak"
"Klinik Kesihatan Umbai",1,0,0,0,2.16005,102.342941,"Jalan Muar
77300, Merlimau
Melaka","06-2615610","Melaka"
"Klinik Kesihatan Ayer Molek",1,0,0,0,2.20416,102.31568,"Jalan Air Molek
75460, Ayer Molek
Melaka","06-2680333","Melaka"
"Klinik Kesihatan Jalan Gereja",1,0,0,0,2.19449,102.25008,"Jalan Gereja
75500, Melaka
Melaka","06-2824452","Melaka"
"Klinik Kesihatan Klebang Besar",1,0,0,0,2.21827,102.20053,"Jalan Klebang Besar
75200, Klebang Besar
Melaka","06-3154144","Melaka"
"Klinik Kesihatan Tanjung Kling",1,0,0,0,2.223334,102.16333,"Batu 7 Pekan Tanjung Kling
76400, Tanjung Kling
Melaka","06-3511333","Melaka"
"Klinik Kesihatan Bukit Rambai",1,0,0,0,2.254529,102.179914,"Jalan Bukit Rambai, Bukit Rambai
75250, Bukit Rambai
Melaka","06-3512464","Melaka"
"Klinik Kesihatan Sungai Udang",1,0,0,0,2.280279,102.131551,"Batu 11 1/2
76300, Sungai Udang
Melaka","06-3531333","Melaka"
"Klinik Kesihatan Kota",1,0,0,0,2.52177,102.157145,"JKR 108, Lot 2157, Mukim Pekan Kota
71350, Rembau
Negeri Sembilan","06-4382251","Negeri Sembilan"
"Klinik Kesihatan Astana Raja",1,0,0,0,2.50684,102.11858,"JKR 401, Lot 1428 & 1429, Mukim Legong Hilir
71350, Kota
Negeri Sembilan","06-4382401","Negeri Sembilan"
"Klinik Kesihatan Bukit Rokan Utara",1,0,0,0,2.663542,102.415984,"Bukit Rokan Utara
73200, Gemencheh
Negeri Sembilan","06-4512600","Negeri Sembilan"
"Klinik Kesihatan Senaling",1,0,0,0,2.70577,102.25318,"Klinik Kesihatan Senaling
72000, Kuala Pilah
Negeri Sembilan","06-4814479","Negeri Sembilan"
"Klinik Kesihatan Pasoh 1",1,0,0,0,3.024181,102.26604,"Klinik Kesihatan Pasoh 1, Simpang Pertang
72300, Jelebu
Negeri Sembilan","06-4951272","Negeri Sembilan"
"Klinik Kesihatan Felda Bukit Senggeh",1,0,0,0,2.38044,102.392938,"Felda Bukit Senggeh, Asahan
77100, Jasin
Melaka","06-5228305","Melaka"
"Klinik Kesihatan Nyalas",1,0,0,0,2.437446,102.468998,"Kampung Nyalas
77100, Jasin
Melaka","06-5228306","Melaka"
"Klinik Kesihatan Simpang Bekoh",1,0,0,0,2.35861,102.51171,"Kampung Simpang Bekoh, Jalan Besar
77100, Asahan
Melaka","06-5236033","Melaka"
"Klinik Kesihatan Macap Baru",1,0,0,0,2.37667,102.33814,"KM 17, Kampung Macap Baru
78000, Alor Gajah
Melaka","06-5252333","Melaka"
"Klinik Kesihatan Kemendor",1,0,0,0,2.35116,102.40417,"Jalan Bunga Kertas
77000, Jasin
Melaka","06-5293330","Melaka"
"Klinik Kesihatan Simpang Ampat",1,0,0,0,6.33658,100.19145,"Batu 22, Kampung Simpang Empat
78000, Alor Gajah
Melaka","06-5529497","Melaka"
"Klinik Kesihatan Padang Sebang",1,0,0,0,2.42607,102.24916,"Batu 19 1/2, Kampung Padang Sebang
78000, Alor Gajah
Melaka","06-5547932","Melaka"
"Klinik Kesihatan Hutan Percha",1,0,0,0,2.442639,102.300906,"KM 35, Felda Tun Ghafar Baba
78000, Alor Gajah
Melaka","06-5548224","Melaka"
"Klinik Kesihatan Seremban 2",1,0,0,0,2.706119,101.907688,"Jalan S2 A2
70300, Seremban 2
Negeri Sembilan","06-6033700","Negeri Sembilan"
"Klinik Kesihatan Lukut",1,0,0,0,2.57617,101.8376,"KM 10, Jalan Seremban
71010, Lukut
Negeri Sembilan","06-6511951","Negeri Sembilan"
"Klinik Kesihatan Lubok China",1,0,0,0,2.46534,102.0681,"Pekan Lubok China
78100, Lubok China
Melaka","06-6966475","Melaka"
"Klinik Kesihatan Desa Rhu",1,0,0,0,2.745346,101.961609,"Desa Rhu
70400, Seremban
Negeri Sembilan","06-7645561","Negeri Sembilan"
"Klinik Kesihatan Sagil",1,0,0,0,2.303595,102.611964,"PT 8814, Klinik Kesihatan Sagil, Jalan Segamat
84020, Tangkak
Johor","06-9772244","Johor"
"Klinik Kesihatan Larkin",1,0,0,0,1.496965,103.748751,"PTD 4999, Jalan Sentosa
80350, Johor Bahru
Johor","07-2233249","Johor"
"Klinik Kesihatan Cahaya Baru",1,0,0,0,1.530564,103.931425,"JKR 2116 Jalan Perak, Felda Cahaya Baru
81750, Masai
Johor","07-2612346","Johor"
"Klinik Kesihatan Majidee",1,0,0,0,1.51435,103.7575,"JKR 5909/D Jln Sekolah Kg Melayu Majidee
81100, Johor Bahru
Johor","07-3323535","Johor"
"Klinik Kesihatan Bagan",1,0,0,0,1.849188,102.855339,"MLO 091, Pekan Parit Besar Bagan
83000, Bagan
Johor","07-4138107","Johor"
"Klinik Kesihatan Tongkang Pecah",1,0,0,0,1.909484,102.952112,"PTD 1921, Jalan Besar Tongkang Pecah
97000, Linau
Johor","07-4152091","Johor"
"Klinik Kesihatan Semerah",1,0,0,0,1.88143,102.78493,"Jalan Muar Semerah
83000, Mukim 1 Lubok
Johor","07-4162685","Johor"
"Klinik Kesihatan Parit Sulong",1,0,0,0,1.977011,102.881409,"Lot 608, Pekan Parit Sulong
83500, Simpang Kiri
Johor","07-4186204","Johor"
"Klinik Kesihatan Sri Merlong",1,0,0,0,1.733468,103.188941,"Lot 5086, Kampung Sri Merlong
83100, Sungai Kluang
Johor","07-4258511","Johor"
"Klinik Kesihatan Pesta",1,0,0,0,1.85602,102.94301,"PTD 13591, Kampung Kenang-Kenangan Dato' Onn, Jalan Perak
83000, Simpang Kanan
Johor","07-4343355","Johor"
"Klinik Kesihatan Sri Gading",1,0,0,0,1.854231,103.027944,"Lot 5360, Sri Gading, Jalan Kluang
83000, Simpang Kanan
Johor","07-4558216","Johor"
"Klinik Kesihatan Yong Peng",1,0,0,0,2.008469,103.054958,"Lot 8905, Jalan Besar Yong Peng
87000, Semerong
Johor","07-4671361","Johor"
"Klinik Kesihatan Parit Yaani",1,0,0,0,1.957593,103.027664,"Lot 9167, Pekan Parit Yaani
83710, Mukim 7
Johor","07-4846521","Johor"
"Klinik Kesihatan Sri Medan",1,0,0,0,1.9878,102.96149,"Lot 5660, Pekan Sri Medan
83400, Mukim 18
Johor","07-4850272","Johor"
"Klinik Kesihatan Paya Mengkuang",1,0,0,0,1.379188,103.589448,"JKR 4091 Jln Kelasi, Desa Paya Mengkuang
81560, Gelang Patah
Johor","07-5080015","Johor"
"Klinik Kesihatan Parit Ismail",1,0,0,0,1.70056,103.28805,"Jln Parit Ismail
82200, Benut
Johor","07-6903671","Johor"
"Klinik Kesihatan Ayer Baloi",1,0,0,0,1.59209,103.33129,"Jalan Ayer Baloi
82100, Pontian
Johor","07-6931213","Johor"
"Klinik Kesihatan Kayu Ara Pasong",1,0,0,0,1.55899,103.40154,"Jln Kayu Ara Pasong
82010, Api-Api
Johor","07-6951355","Johor"
"Klinik Kesihatan Penerok",1,0,0,0,1.3793,103.44175,"Jln Kukup
82300, Air Masin
Johor","07-6960311","Johor"
"Klinik Kesihatan Serkat",1,0,0,0,1.303094,103.488896,"Jalan Serkat
82030, Pontian
Johor","07-6960359","Johor"
"Klinik Kesihatan Layang-Layang",1,0,0,0,1.818464,103.473491,"PTD 3578, Jalan Pejabat Pos, 81850 Layang-layang
81850, Kluang
Johor","07-7527233","Johor"
"Klinik Kesihatan Renggam",1,0,0,0,1.88333,103.39639,"PTD 2495, Jalan Simpang Renggam
86300, Renggam
Johor","07-7535255","Johor"
"Klinik Kesihatan Paloh",1,0,0,0,2.187405,103.195591,"Lot 120, Jalan Klinik
86600, Paloh
Johor","07-7811059","Johor"
"Klinik Kesihatan Ulu Belitong",1,0,0,0,1.94728,103.47502,"Jalan Cemara
86007, Simpang Renggam
Johor","07-7863333","Johor"
"Klinik Kesihatan Kahang Timur",1,0,0,0,2.08501,103.49439,"PTD 14726, Jalan Merak
86007, Kahang
Johor","07-7866633","Johor"
"Klinik Kesihatan Kahang Batu 22",1,0,0,0,2.21587,103.54075,"Lot 96, Jalan Mersing Batu 22
86700, Kahang
Johor","07-7881229","Johor"
"Klinik Kesihatan Jemaluang",1,0,0,0,2.26769,103.85453,"JKR 673, Jalan Kota Tinggi
86800, Jemaluang
Johor","07-7921271","Johor"
"Klinik Kesihatan Tenglu",1,0,0,0,2.494703,103.800974,"Lot 213, Jalan Endau
86800, Tenglu
Johor","07-7991276","Johor"
"Klinik Kesihatan Mersing Kanan",1,0,0,0,2.436755,103.834298,"Lot 2464, Jalan Endau
86800, Mersing
Johor","07-7992005","Johor"
"Klinik Kesihatan Bandar Penawar",1,0,0,0,1.555327,104.240174,"Lot 758, Jalan Ar-Raudah
81900, Tanjung Surat
Johor","07-8221064","Johor"
"Klinik Kesihatan Pengerang",1,0,0,0,1.365,104.10944,"Felda Lok Heng
81900, Tanjung Surat
Johor","07-8252455","Johor"
"Klinik Kesihatan Sungai Rengit",1,0,0,0,1.3501,104.22397,"Felda Bukit Waha
81900, Tanjung Surat
Johor","07-826 3285","Johor"
"Klinik Kesihatan Sening",1,0,0,0,1.479973,104.181573,"Felda Sg Mas
81900, Tanjung Surat
Johor","07-8277398","Johor"
"Klinik Kesihatan Ulu Tiram",1,0,0,0,1.596701,103.820655,"JKR 2156, Jln Besar Ulu Tiram
81800, Johor Bahru
Johor","07-8611902","Johor"
"Klinik Kesihatan Sedili Besar",1,0,0,0,1.926,104.12123,"Lot 218, Jalan Hj Md Lazim
81900, Kambu
Johor","07-8899870","Johor"
"Klinik Kesihatan Tanjong Sedili",1,0,0,0,1.92539,104.10883,"Felda Sening
81900, Kambu
Johor","07-8918370","Johor"
"Klinik Kesihatan Bukit Waha",1,0,0,0,1.75213,104.07389,"PTD 206, Jalan Pembangunan, Bandar Penawar
81900, Ulu Sungai Johor
Johor","07-8925598","Johor"
"Klinik Kesihatan Air Tawar 2",1,0,0,0,1.678369,104.021627,"Lot 1046, Jalan Pasar, Sg Rengit
81900, Kota Tinggi
Johor","07-8932207","Johor"
"Klinik Kesihatan Lok Heng",1,0,0,0,1.74112,103.89785,"Lot 2548, Felda Air Tawar 2
81900, Ulu Sungai Johor
Johor","07-8947188","Johor"
"Klinik Kesihatan Air Tawar 5 (Felda)",1,0,0,0,1.606242,104.088237,"Felda Air Tawar 5
81900, Tanjung Surat
Johor","07-8952872","Johor"
"Klinik Kesihatan Bandar Tenggara",1,0,0,0,1.8633,103.62292,"PTB 496, Jln Tun Abd Majid
81900, Panti
Johor","07-8966178","Johor"
"Klinik Kesihatan Bukit Besar",1,0,0,0,1.76828,103.70677,"PTD 568, Felda Bukit Besar, Jalan Depan Sekolah
81900, Ulu Sungai Johor
Johor","07-8977255","Johor"
"Klinik Kesihatan Tg. Embang",1,0,0,0,1.536026,110.336573,"Kampung Tanjung Embang (D/A Peg. Kesihatan Bahagian Kuching, Jln Tun Ahmad Zaidi Adruce)
93150, Kuching
Sarawak","082-257867","Sarawak"
"Klinik Kesihatan Biawak",1,0,0,0,1.61896,109.68134,"Kampung Biawak (D/A Pegawai Kesihatan Daerah Lundu, Jalan Lundu/ Sekambal)
94500, Lundu
Sarawak","082-322977","Sarawak"
"Klinik Kesihatan Serasot",1,0,0,0,1.3781,110.04572,"Kampung Serasot (D/A Peg. Kesihatan Bahagian Kuching Jalan Tun Ahmad Zaidi Adruce)
93250, Bau
Sarawak","082-371036","Sarawak"
"Klinik Kesihatan Sampadi",1,0,0,0,1.68672,110.01399,"Kampung Sampadi (D/A Peg. Kesihatan Daerah Lundu, Jln Lundu/Sekambal)
94500, Lundu
Sarawak","082-378300","Sarawak"
"Klinik Kesihatan Bako",1,0,0,0,1.65902,110.43789,"Jalan Bako, Kampung Bako (D/A Peg. Kesihatan Bahagian Kuching, Jalan Tun Ahmad Zaidi Adruce)
93150, Bako
Sarawak","082-475967/ 082-4313","Sarawak"
"Klinik Kesihatan Padawan",1,0,0,0,1.1626,110.25954,"Jalan Puncak Borneo
93250, Kuching
Sarawak","082-617687/ 011-2108","Sarawak"
"Klinik Kesihatan Stoh Rambungan",1,0,0,0,1.692052,110.099584,"Kampung Rambungan (D/A  Peg. Kesihatan Bahagian Lundu, Jalan Lundu/ Sekambal)
94500, Lundu
Sarawak","082-657407","Sarawak"
"Klinik Kesihatan Krokong",1,0,0,0,1.365973,110.117797,"Jalan Bau Serikin, Kampung Krokong (D/A Pejabat Kesihatan Bahagian Kuching, Jln Tun Ahmad Zaidi Adruce)
94000, Bau
Sarawak","082-763116","Sarawak"
"Klinik Kesihatan Santubong",1,0,0,0,1.718688,110.315037,"Jalan Sultan Tengah
93050, Kuching
Sarawak","082-846439","Sarawak"
"Klinik Kesihatan Buntal",1,0,0,0,1.70172,110.37032,"Jalan Tengah
93050, Kuching
Sarawak","082-846493","Sarawak"
"Klinik Kesihatan Batang Ai",1,0,0,0,1.125829,111.861593,"Batang Ai (D/A Peg. Kesihatan Bahagian Sri Aman Jalan Hospital)
95007, Sri Aman
Sarawak","083-322072","Sarawak"
"Klinik Kesihatan Nanga Stamang",1,0,0,0,1.31299,111.94352,"Nanga Stamang (D/A Peg. Kesihatan Bahagian Sri Aman, Tingkat 3 Wisma Persekutuan, Jalan Hospital)
95007, Sri Aman
Sarawak","083-322176","Sarawak"
"Klinik Kesihatan Beladin",1,0,0,0,1.63837,111.20425,"Beladin, Saribas
94950, Pusa
Sarawak","083-406448","Sarawak"
"Klinik Kesihatan Nyabor",1,0,0,0,1.93695,111.1819,"Kampung Nyabor, Roban
95300, Kalaka
Sarawak","083-411068/ 083-3263","Sarawak"
"Klinik Kesihatan Nanga Patoh",1,0,0,0,1.335922,111.83277,"Nanga Patoh (D/A Peg. Kesihatan Bahagian Sri Aman, Jalan Hospital)
95007, Sri Aman
Sarawak","083-432006","Sarawak"
"Klinik Kesihatan Nanga Entalau",1,0,0,0,1.4565,111.790157,"Kampung Nanga Entalau (D/A Peg. Kesihatan Bahagian Sri Aman Jalan Hospital)
95007, Sri Aman
Sarawak","083-432009/ 083-3221","Sarawak"
"Klinik Kesihatan Nanga Wak",1,0,0,0,1.83552,111.61593,"Kampung Wak
96150, Pakan
Sarawak","083-434008","Sarawak"
"Klinik Kesihatan Semarang",1,0,0,0,1.681967,111.102466,"Pekan Semarang
94950, Pusa
Sarawak","083-468007","Sarawak"
"Klinik Kesihatan Lingga",1,0,0,0,1.35271,111.1676,"Kampung Lingga (D/A Peg. Kesihatan Bahagian, Bahagian Sri Aman Jalan Hospital, Sri Aman)
95007, Sri Aman
Sarawak","083-496223","Sarawak"
"Klinik Kesihatan Pantu",1,0,0,0,1.142232,111.117207,"Pekan Pantu (D/A Peg. Kesihatan Bahagian Sri Aman, Jalan Hospital)
95007, Sri Aman
Sarawak","083-545228","Sarawak"
"Klinik Kesihatan Merindun",1,0,0,0,1.17878,111.751213,"Merindun (D/A Peg. Kesihatan Bahagian Sri Aman, Jalan Hospital)
95007, Sri Aman
Sarawak","083-563474","Sarawak"
"Klinik Kesihatan Nanga Atoi",1,0,0,0,1.842088,111.413911,"Kampung Nanga Atoi
95400, Kalaka
Sarawak","083-567400","Sarawak"
"Klinik Kesihatan Tuie",1,0,0,0,1.54011,111.34764,"Kampung Tuie, Pusa, Saribas
95500, Debak
Sarawak","083-569508","Sarawak"
"Klinik Kesihatan Nanga Budu",1,0,0,0,1.76135,111.50743,"Kampung Nanga Budu
95400, Kalaka
Sarawak","083-589300","Sarawak"
"Klinik Kesihatan Nanga Lawih (Mujau)",1,0,0,0,1.32955,111.65411,"Nanga Lawih (D/A Pegawai Kesihatan Bahagian Betong)
95700, Betong
Sarawak","083-775503","Sarawak"
"Klinik Kesihatan Tepus",1,0,0,0,2.34083,112.32474,"Pekan Tepus (Batu 12, Jalan Sibu-Bintulu)
96000, Sibu
Sarawak","084-315494","Sarawak"
"Klinik Kesihatan Punan Bah",1,0,0,0,2.3826,113.349866,"Kampung Punan Bah
96800, Belaga
Sarawak","084-461323","Sarawak"
"Klinik Kesihatan Chemenong",1,0,0,0,1.706113,112.380855,"Kampung Chemenong
96850, Song
Sarawak","084-4774100","Sarawak"
"Klinik Kesihatan Balingian",1,0,0,0,2.931568,112.541108,"Balingan (D/A Peg. Kesihatan Bahagian Mukah)
96400, Mukah
Sarawak","084-484146","Sarawak"
"Klinik Kesihatan Kuala Balingian",1,0,0,0,3.012981,112.58683,"Kampung Kuala Balingan
96400, Mukah
Sarawak","084-484265","Sarawak"
"Klinik Kesihatan Kuala Rejang",1,0,0,0,2.15494,111.255492,"Kuala Rajang
96250, Daro
Sarawak","084-612368","Sarawak"
"Klinik Kesihatan Tanjung Manis",1,0,0,0,2.151349,111.360155,"Pekan Tanjung Manis
96200, Daro
Sarawak","084-613236","Sarawak"
"Klinik Kesihatan Nanga Entabai",1,0,0,0,1.792228,111.921208,"Kampung Nanga Entabai
96600, Julau
Sarawak","084-721005","Sarawak"
"Klinik Kesihatan Maong (Mujok)",1,0,0,0,1.73997,112.03309,"Kampung Maong
96600, Julau
Sarawak","084-734253","Sarawak"
"Klinik Kesihatan Durin",1,0,0,0,2.136788,111.971916,"Jln Durin
96000, Sibu
Sarawak","084-736108","Sarawak"
"Klinik Kesihatan Machan",1,0,0,0,2.01494,112.02013,"Pekan Machan (D/A Peg. Kesihatan Daerah Kanowit)
96700, Kanowit
Sarawak","084-738116","Sarawak"
"Klinik Kesihatan Sekalong",1,0,0,0,1.90385,111.85042,"Kampung Sekalong
96600, Julau
Sarawak","084-738900","Sarawak"
"Klinik Kesihatan Nanga Tekalit",1,0,0,0,1.901057,112.573331,"Nanga Tekalit
96850, Kapit
Sarawak","084-772001","Sarawak"
"Klinik Kesihatan Nanga Entaih",1,0,0,0,1.68977,111.76232,"Kampung Entaih
96510, Pakan
Sarawak","084-775501","Sarawak"
"Klinik Kesihatan Nanga Kara",1,0,0,0,1.91616,111.73739,"Kampung Nanga Kara
96150, Pakan
Sarawak","084-775502","Sarawak"
"Klinik Kesihatan Nanga Tiga",1,0,0,0,1.60815,111.69755,"Kampung Ng Tiga
95700, Betong
Sarawak","084-775504","Sarawak"
"Klinik Kesihatan Nanga Ensiring",1,0,0,0,1.66321,112.03503,"Kampung Ensiring (Pen. Peg. Perubatan Y/M, KK Julau, Julau)
96600, Julau
Sarawak","084-775505","Sarawak"
"Klinik Kesihatan Nanga Entawau",1,0,0,0,1.822061,113.680009,"Kampung Entawau (D/A Peg. Kesihatan Bahagian Kapit, Wisma Persekutuan)
96800, Kapit
Sarawak","084-796404","Sarawak"
"Klinik Kesihatan Nanga Ibau",1,0,0,0,2.011244,112.705028,"Kampung Nanga Ibau, Sungai Batang Rajang (D/A Peg. Kesihatan Bahagian, Bahaigan Kapit, Wisma Persekutuan, Kapit)
96800, Kapit
Sarawak","084-796454","Sarawak"
"Klinik Kesihatan Bawang Assan",1,0,0,0,2.302766,111.685774,"Bawang Assan
96000, Sibu
Sarawak","084-801044","Sarawak"
"Klinik Kesihatan Ladang Sawit",1,0,0,0,2.534248,112.316249,"Kampung Ladang Sawit (D/A Pegawai Kesihatan Bahagian Mukah)
96400, Mukah
Sarawak","084-805166","Sarawak"
"Klinik Kesihatan Sekuau",1,0,0,0,2.351784,112.128064,"Kampung Sekau (D/A Peg. Kesihatan Bahagian Sibu, Wisma Persekutuan, Persiaran Brooke)
96000, Sibu
Sarawak","084-805193","Sarawak"
"Klinik Kesihatan Kampung Teh
2.823046, 111.889702",1,0,0,0,"","","Kampung Teh
96300, Dalat
Sarawak","084-805733","Sarawak"
"Klinik Kesihatan Kuala Matu",1,0,0,0,2.71047,111.4633,"Kampung Kuala Matu
96250, Matu
Sarawak","084-807618","Sarawak"
"Klinik Kesihatan Belawai",1,0,0,0,2.23056,111.214776,"Belawai
96200, Daro
Sarawak","084-815219","Sarawak"
"Klinik Kesihatan Kuala Igan",1,0,0,0,2.82203,111.71003,"Kampung Igan
96300, Daro
Sarawak","084-848306","Sarawak"
"Klinik Kesihatan Passai Siong",1,0,0,0,2.46449,111.95494,"Passai Siong (D/A Peg. Kesihatan Bahagian Sibu, Wisma Persekutuan, Persiaran Brooke)
96000, Sibu
Sarawak","084-861200","Sarawak"
"Klinik Kesihatan Medong",1,0,0,0,2.687318,111.934802,"Desa Medong
96300, Dalat
Sarawak","084-866236","Sarawak"
"Klinik Kesihatan Paloh",1,0,0,0,2.41842,111.25285,"Kampung Paloh
96200, Daro
Sarawak","084-8663409","Sarawak"
"Klinik Kesihatan Kuala Medalam",1,0,0,0,4.388,114.90052,"Pekan Kuala Mendalam (Peg. Kesihatan Bahagian Limbang, Jalan Pandaruan)
98700, Limbang
Sarawak","085-211166","Sarawak"
"Klinik Kesihatan Batu Danau",1,0,0,0,4.659445,114.827844,"Batu Danau (d/a Pejabat Kesihatan Bahagian Limbang)
98700, Limbang
Sarawak","085-240010","Sarawak"
"Klinik Kesihatan Nanga Medamit",1,0,0,0,4.469025,114.914934,"Pekan Nanga Mendamit (Peg. Kesihatan Bahagian Limbang, Jalan Pandaruan)
98700, Limbang
Sarawak","085-240012","Sarawak"
"Klinik Kesihatan Penganan",1,0,0,0,4.55589,115.06604,"Penganan (Peg. Kesihatan Bahagian Limbang, Jalan Pandaruan)
98700, Limbang
Sarawak","085-240015","Sarawak"
"Klinik Kesihatan Sundar",1,0,0,0,4.892264,115.206373,"Pekan Sundar
98800, Lawas
Sarawak","085-264233","Sarawak"
"Klinik Kesihatan Lawas",1,0,0,0,4.85454,115.4047,"Jalan Hospital
98850, Lawas
Sarawak","085-283781","Sarawak"
"Klinik Kesihatan Bekenu",1,0,0,0,4.0581,113.84737,"Kampung Bekenu
98150, Miri
Sarawak","085-719003","Sarawak"
"Klinik Kesihatan Suai Tegageng",1,0,0,0,3.71265,113.62535,"Kampung Suai Tegageng (D/A Pej. Kesihatan Bahagian Miri, Jalan Temenggong Oyong Lawai Jau)
98000, Niah
Sarawak","085-740047/ 011-2182","Sarawak"
"Klinik Kesihatan Beluru",1,0,0,0,3.977317,114.094704,"Beluru (D/A Peg. Kesihatan Daerah Baram, Jalan Hospital)
98050, Baram
Sarawak","085-743216","Sarawak"
"Klinik Kesihatan Long Lama",1,0,0,0,3.762499,114.405176,"Kampung Long Lama (D/A Peg. Kesihatan Daerah Baram, Jalan Hospital)
98050, Baram
Sarawak","085-755511","Sarawak"
"Klinik Kesihatan Long Panai",1,0,0,0,3.948748,114.541716,"Kampung Long Panai (D/A Peg. Kesihatan Daerah Baram, Jalan Hospital)
98050, Baram
Sarawak","085-770100","Sarawak"
"Klinik Kesihatan Long Bemang",1,0,0,0,3.85925,114.59178,"Rumah Panjang Long Bemang (D/A Peg. Kesihatan Daerah Baram, Jalan Hospital)
98050, Baram
Sarawak","085-773005/ 019-8386","Sarawak"
"Klinik Kesihatan Long Teru",1,0,0,0,3.863783,114.244486,"Kampung Long Teru (D/A Peg. Kesihatan Daerah Baram, Jalan Hospital)
98050, Baram
Sarawak","085-775100","Sarawak"
"Klinik Kesihatan Nyalau",1,0,0,0,3.63825,113.37932,"Kampung Tengah Nyalau
97000, Bintulu
Sarawak","085-776002","Sarawak"
"Klinik Kesihatan Lio Mato",1,0,0,0,3.169665,115.221629,"Kampung Lio Mato (D/A Peg. Kesihatan Daerah Baram, Jalan Hospital)
98050, Baram
Sarawak","085-776003","Sarawak"
"Klinik Kesihatan Long Banga",1,0,0,0,3.20551,115.39137,"Rumah Panjang Long Banga (D/A Peg. Kesihatan Daerah Baram, Jalan Hospital)
98050, Baram
Sarawak","085-776008/ 013-2865","Sarawak"
"Klinik Kesihatan Bario",1,0,0,0,3.74052,115.46723,"Pekan Bario (D/A Peg. Kesihatan Daerah Baram, Jalan Hospital)
98050, Baram
Sarawak","085-791047","Sarawak"
"Klinik Kesihatan Taman Negara Mulu",1,0,0,0,4.032355,114.797241,"Taman Negara Mulu (D/A Peg. Kesihatan Daerah, Daerah Baram, Jalan Hospital, Baram)
98050, Baram
Sarawak","085-792115/ 011-2212","Sarawak"
"Klinik Kesihatan Jepak
3.190571, 113.090110",1,0,0,0,"","","Jalan Jepak, Kuala Tatau
97000, Bintulu
Sarawak","086-201089","Sarawak"
"Klinik Kesihatan Kuala Tatau",1,0,0,0,3.078361,112.800944,"Kampung Kuala Tatau
97200, Tatau
Sarawak","086-326287","Sarawak"
"Klinik Kesihatan Sekeroh",1,0,0,0,2.08447,113.23704,"Sungai Sekeroh (D/A Peg. Kesihatan Bahagian Kapit, Wisma Persekutuan)
96800, Kapit
Sarawak","086-429704","Sarawak"
"Klinik Kesihatan Lubok Tapang",1,0,0,0,3.15108,113.37012,"Lubok Tapang (D/A Peg. Kesihatan Bahagian Bintulu, Lebuh Raya Abang Galau)
97000, Bintulu
Sarawak","086-469003","Sarawak"
"Klinik Kesihatan Sungai Arip",1,0,0,0,2.73619,112.662,"Kampung Sungai Arip (D/A Peg. Kesihatan Bahagian Sibu, Wisma Persekutuan, Persiaran Brooke)
96000, Sibu
Sarawak","086-469603","Sarawak"
"Klinik Kesihatan Tubau",1,0,0,0,3.160199,113.701678,"Pekan Tubau, Bintulu (D/A Peg. Kesihatan Bahagian Bintulu, Lebuh Raya Abang Galau)
97000, Bintulu
Sarawak","086-472104","Sarawak"
"Klinik Kesihatan Kakus",1,0,0,0,2.634457,113.151526,"Kakus (Pej. Kesihatan Bahagian Bintulu, Lebuh Raya Abang Galau)
97000, Tatau
Sarawak","086-474302","Sarawak"
"Klinik Kesihatan Nanga Tau",1,0,0,0,2.543024,113.032138,"Nanga Tau (Pej. Kesihatan Bahagian Bintulu , Lebuh Raya Abang Galau)
97000, Bintulu
Sarawak","086-479707","Sarawak"
"Klinik Kesihatan Uma Sambop",1,0,0,0,2.91826,113.91595,"Kampung Uma Sambop
96800, Belaga
Sarawak","086-485165","Sarawak"
"Klinik Kesihatan Sangan",1,0,0,0,2.765567,112.975837,"Sangan (Pen. Peg. Perubatan Kanan, Pej. Kesihatan Bahagian Bintulu, Lebuh Raya Abang Galau)
97000, Tatau
Sarawak","086-581047/ 086-3262","Sarawak"
"Klinik Kesihatan Mendulong",1,0,0,0,5.343696,115.744953,"Kampung Mendulong
89857, Mendulong
Sabah","087 -721163","Sabah"
"Klinik Kesihatan Apin-Apin, Keningau",1,0,0,0,5.4625,116.26214,"Jalan Apin-Apin-Kota Kinabalu, Kg Kikiran
89007, Apin-Apin
Sabah","087-337 371","Sabah"
"Klinik Kesihatan Tulid, Keningau",1,0,0,0,5.326288,116.422398,"Jalan Tulid, Kg. Tulid
89007, Sook
Sabah","087-345002","Sabah"
"Klinik Kesihatan Pensiangan, Nabawan",1,0,0,0,5.341078,116.160092,"Pekan Pesiangan
89957, Pesiangan
Sabah","087-366220","Sabah"
"Klinik Kesihatan Bingkor",1,0,0,0,5.40444,116.19278,"Jalan Bunsit
89007, Pekan Bingkor
Sabah","087-391158","Sabah"
"Klinik Kesihatan Mansiat, Keningau",1,0,0,0,5.340861,116.159749,"Kg Manisat
89007, Sook
Sabah","087-391158","Sabah"
"Klinik Kesihatan Penangah, Tongod",1,0,0,0,5.21028,116.835,"Pekan Penangah
90200, Kinabatangan
Sabah","087-721917","Sabah"
"Klinik Kesihatan Mengkawagu, Tongod
5.156916, 117.082521",1,0,0,0,"","","Jalan Tongod, Kampung Mengkawagu
90200, Tongod
Sabah","087-721918","Sabah"
"Klinik Kesihatan Pagalungan, Nabawan",1,0,0,0,5.340885,116.159457,"Simpang Tiga Sungai Pensiangan Lolongan, Kampung Pagalungan
89957, Pensiangan
Sabah","087-743001","Sabah"
"Klinik Kesihatan Sepulot, Nabawan",1,0,0,0,4.705061,116.485402,"Pekan Sepulot
89957, Pensiangan
Sabah","087-773005","Sabah"
"Klinik Kesihatan Merapok",1,0,0,0,4.96237,115.50564,"Merapok, Jalan Sindumin
98850, Lawas
Sarawak","087-811090","Sarawak"
"Klinik Kesihatan Sindumin, Sipitang",1,0,0,0,4.962366,115.505641,"Pekan Sindumin
89857, Sindumin
Sabah","087-811134","Sabah"
"Klinik Kesihatan Meligan, Sipitang",1,0,0,0,4.679,115.71016,"Kampung Meligan
89857, Meligan
Sabah","087-821066","Sabah"
"Klinik Kesihatan Weston, Beaufort",1,0,0,0,5.214622,115.602629,"Pekan Weston, Beaufort (d/a Pejabat Kesihatan Kawasan Beaufort, Peti Surat 101)
89807, Beaufort
Sabah","087-871201","Sabah"
"Klinik Kesihatan Kota Klias, Beaufort",1,0,0,0,5.44751,115.62711,"Kampung Kilas
89807, Beaufort
Sabah","087-881143","Sabah"
"Klinik Kesihatan Membakut, Beaufort",1,0,0,0,5.526393,115.691497,"Pekan Membakut
89728, Membakut
Sabah","087-887541","Sabah"
"Klinik Kesihatan Kuala Sapi, Beluran",1,0,0,0,5.82722,117.44194,"Kampung Kuala Sapi
90107, Sapi
Sabah","088-552602","Sabah"
"Klinik Kesihatan Sikuati, Kudat",1,0,0,0,6.890101,116.711776,"Pekan Sikuati
89059, Sikuati
Sabah","088-612381","Sabah"
"Klinik Kesihatan Tinangol, Kudat",1,0,0,0,6.77222,116.70306,"Kampung Tinangol
89059, Tinangol
Sabah","088-613702","Sabah"
"Klinik Kesihatan Matunggong, Kudat",1,0,0,0,6.902079,116.848849,"Kg. Matunggong
89059, Matunggong
Sabah","088-621897","Sabah"
"Klinik Kesihatan Nangka Lotong, Kudat",1,0,0,0,6.73583,116.8,"Kg Lotong
89059, Lotong
Sabah","088-637014","Sabah"
"Klinik Kesihatan Telaga, Pitas",1,0,0,0,6.840427,117.073789,"Kampung Telaga, Telaga, Pitas
89059, Kudat
Sabah","088-638005","Sabah"
"Klinik Kesihatan Perancangan, Ranau",1,0,0,0,6.07318,116.80058,"Kg Perancangan
89307, Ranau
Sabah","088-666102","Sabah"
"Klinik Kesihatan Langkon, Kota Marudu",1,0,0,0,6.533017,116.704327,"Kampung Langkon
89108, Kudat
Sabah","088-667320","Sabah"
"Klinik Kesihatan Karakit, Kudat",1,0,0,0,6.901885,116.849227,"Kampung Karakit, Pulau Banggi
89059, Banggi
Sabah","088-671526","Sabah"
"Klinik Kesihatan Pantai, Pitas",1,0,0,0,6.901932,116.849094,"Kampung Pantai, Pantai
89059, Kudat
Sabah","088-675008","Sabah"
"Klinik Kesihatan Bongkol, Pitas",1,0,0,0,6.82839,117.16471,"Kampung Bongkol, Bongkol
89059, Kudat
Sabah","088-684940","Sabah"
"Klinik Kesihatan Dandun, Pitas",1,0,0,0,6.708837,117.031531,"Kampung Dandun, Dandun
89059, Kudat
Sabah","088-687849","Sabah"
"Klinik Kesihatan Kiulu, Tuaran",1,0,0,0,6.050403,116.280839,"Jalan Keluk
89207, Tamparuli
Sabah","088-782830","Sabah"
"Klinik Kesihatan Serusop, Tuaran
6.247561, 116.240001",1,0,0,0,"","","Jalan SRK Serusop, Kampung Serusop
89208, Tuaran
Sabah","088-794311","Sabah"
"Klinik Kesihatan Tangkarason, Beluran",1,0,0,0,5.716767,117.437474,"Kampung Tangkarason
90108, Tangkarason
Sabah","088-892001","Sabah"
"Klinik Kesihatan Sungai-Sungai",1,0,0,0,6.25,117.36667,"Kampung Sungai-Sungai
90107, Sungai Sungai
Sabah","088-892002","Sabah"
"Klinik Kesihatan Kaingaran, Ranau",1,0,0,0,6.09083,116.975,"Kampung Kaingaran
89307, Ranau
Sabah","088-894000","Sabah"
"Klinik Kesihatan Narandang, Kudat",1,0,0,0,6.774409,116.754545,"Kampung Garau, Narandang
89059, Kudat
Sabah","088-896524","Sabah"
"Klinik Kesihatan Suangpai, Kudat
6.997891, 116.764999",1,0,0,0,"","","Kg Suangpai
89059, Kudat
Sabah","088-896609","Sabah"
"Klinik Kesihatan Paginatan, Ranau",1,0,0,0,5.772412,116.822082,"Kampung Paginatan
89307, Ranau
Sabah","088-897203","Sabah"
"Klinik Kesihatan Kuala Papar
5.746671, 115.908999",1,0,0,0,"","","Kampung Kuala Papar
89700, Papar
Sabah","088-911028","Sabah"
"Klinik Kesihatan Timbua, Ranau",1,0,0,0,6.10528,116.83028,"Kampung Timbua (Pejabat Kesihatan Ranau, Peti Surat 32)
89307, Ranau
Sabah","088-959027","Sabah"
"Klinik Kesihatan Jawi-Jawi, Kota Belud",1,0,0,0,6.40086,116.438669,"Kg Jawi-Jawi, Jalan Bypass Kudat
89150, Kota Belud
Sabah","088-976001","Sabah"
"Klinik Kesihatan Taginambur, Kota Belud",1,0,0,0,6.22611,116.44889,"Batu 10, Jalan Ranau Bypass
89158, Kota Belud
Sabah","088-976437","Sabah"
"Klinik Kesihatan Tenghilan, Tuaran",1,0,0,0,6.255727,116.335881,"Jalan Kampung Tenghilan Tuaran
89208, Tuaran
Sabah","088-981249","Sabah"
"Klinik Kesihatan Kuamut, Tongod",1,0,0,0,5.22167,117.49,"Pekan Kuamut
90200, Tongod
Sabah","089-232669","Sabah"
"Klinik Kesihatan Jambongan, Beluran
6.668010, 117.442000",1,0,0,0,"","","Pulau  Jambongan, Jambongan
90108, Beluran
Sabah","089-239304","Sabah"
"Klinik Kesihatan Tagas-Tagas
5.991773, 117.395598",1,0,0,0,"","","Kampung Tagas-Tagas,Tagas-tagas
90108, Beluran
Sabah","089-239700","Sabah"
"Klinik Kesihatan Suan Lamba, Sandakan",1,0,0,0,5.599239,118.122193,"Kampung Suan Lamba
90500, Suan Lamba
Sabah","089-258009","Sabah"
"Klinik Kesihatan Sungai Manila, Sandakan",1,0,0,0,5.96651,117.98228,"Kampung Sungai Manila
90500, Sungai Manila
Sabah","089-531377","Sabah"
"Klinik Kesihatan Batu Putih
5.916131, 118.037999",1,0,0,0,"","","Kampung Batu Putih, Jalan Kinabatangan Lahad Datu, Batu Putih
90200, Sandakan
Sabah","089-561975","Sabah"
"Klinik Kesihatan Bukit Garam, Kinabatangan",1,0,0,0,5.59242,117.83387,"Bukit Garam
90200, Sandakan
Sabah","089-562151","Sabah"
"Klinik Kesihatan Pulau Bum-Bum, Semporna",1,0,0,0,4.46389,118.66861,"Kg Pulau Bum-Bum
91308, Semporna
Sabah","089-792003","Sabah"
"Klinik Kesihatan Sungai Tamang, Tawau",1,0,0,0,4.25,117.667,"Kampung Sungai Tamang
91008, Tawau
Sabah","089-797100","Sabah"
"Klinik Kesihatan Felda Sahabat, Lahad Datu",1,0,0,0,5.07722,119.0725,"Desa Kencana,Felda Sahabat 16
91120, Lahad Datu
Sabah","089-811912","Sabah"
"Klinik Kesihatan Pulau Tambisan, Lahad Datu",1,0,0,0,5.446408,119.149733,"Pekan Tambisan
91120, Tambisan
Sabah","089-816001","Sabah"
"Klinik Kesihatan Sukau, Kinabatangan",1,0,0,0,5.50932,118.29139,"Pekan Sukau
90200, Sukau
Sabah","089-816513","Sabah"
"Klinik Kesihatan Silabukan Scheme, Lahad Datu",1,0,0,0,5.00851,118.479169,"Kampung Silabukan
91120, Silabukan
Sabah","089-821510","Sabah"
"Klinik Kesihatan Tungku, Lahad Datu",1,0,0,0,5.025387,118.883722,"Pekan Tungku
91120, Tungku
Sabah","089-871125","Sabah"
"Klinik Kesihatan Lingkabau, Beluran",1,0,0,0,6.21536,117.25767,"Kampung Lingkabau, Lingkabau
90108, Beluran
Sabah","089-886603","Sabah"
"Klinik Kesihatan Felda Umas Umas, Tawau",1,0,0,0,4.47472,117.66306,"Tingkat 7, Bangunan Persekutuan, Peti Surat 990
91008, Tawau
Sabah","089-926540","Sabah"
"Klinik Kesihatan Jengka 8",1,0,0,0,3.85485,102.49193,"Felda Jengka 8
26400, Jerantut
Pahang","09-2081555","Pahang"
"Klinik Kesihatan Bentong",1,0,0,0,3.53981,101.90216,"Batu Satu Jalan Tras
28700, Bentong
Pahang","09-2220134","Pahang"
"Klinik Kesihatan Lurah Bilut (Felda)",1,0,0,0,3.66061,101.89109,"Lurah Bilut
28800, Bentong
Pahang","09-2377333","Pahang"
"Klinik Kesihatan Telemong",1,0,0,0,3.357817,102.064753,"Telemong
28620, Karak
Pahang","09-2399972","Pahang"
"Klinik Kesihatan Padang Luas",1,0,0,0,3.2956,102.46167,"Padang Luas
28200, Bera
Pahang","09-2409715","Pahang"
"Klinik Kesihatan Kemayan",1,0,0,0,3.13866,102.37524,"Kemayan
28320, Triang
Pahang","09-2409715","Pahang"
"Klinik Kesihatan Chemomoi",1,0,0,0,3.255115,102.243764,"Felda Chemomoi
28310, Triang
Pahang","09-2450926","Pahang"
"Klinik Kesihatan Kampung Bantal",1,0,0,0,4.501045,102.64668,"Kampung Bantal
27020, Hulu Tembeling
Pahang","09-2661905","Pahang"
"Klinik Kesihatan Kuala Tahan",1,0,0,0,4.382527,102.402105,"Kuala Tahan
27020, Jerantut
Pahang","09-2667468","Pahang"
"Klinik Kesihatan Sungai Lekok
3.901111, 102.330999",1,0,0,0,"","","Kampung Sungai Lekok
27000, Lekok
Pahang","09-2667608","Pahang"
"Klinik Kesihatan Padang Piol",1,0,0,0,4.038843,102.380858,"Padang Piol
27040, Jerantut
Pahang","09-2668448","Pahang"
"Klinik Kesihatan Damak",1,0,0,0,3.949779,102.212344,"Damak
27300, Jerantut
Pahang","09-2681488","Pahang"
"Klinik Kesihatan Kerdau",1,0,0,0,3.579173,102.382642,"Kerdau
28020, Temerloh
Pahang","09-2847003","Pahang"
"Klinik Kesihatan Kuala Tembeling",1,0,0,0,4.0664,102.31799,"Kuala Tembeling
27020, Jerantut
Pahang","09-3086033","Pahang"
"Klinik Kesihatan Benta",1,0,0,0,4.01321,101.96057,"Benta
27310, Benta
Pahang","09-3239211","Pahang"
"Klinik Kesihatan Jerkoh",1,0,0,0,4.040373,101.954873,"Jerkoh
27300, Benta
Pahang","09-3239440","Pahang"
"Klinik Kesihatan Bukit Betong",1,0,0,0,4.256537,101.920825,"Bukit Betong
27200, Lipis
Pahang","09-3291212","Pahang"
"Klinik Kesihatan Padang Tengku",1,0,0,0,4.234362,101.988972,"Padang Tengku
27100, Lipis
Pahang","09-3291533","Pahang"
"Klinik Kesihatan Sungai Koyan",1,0,0,0,4.21757,101.79781,"Kampung Sungai Koyan
27200, Lipis
Pahang","09-3401533","Pahang"
"Klinik Kesihatan Sungai Koyan",1,0,0,0,3.103531,113.924488,"Kampung Sungai Koyan
96800, Belaga
Sarawak","09-3401533","Sarawak"
"Klinik Kesihatan Tersang",1,0,0,0,3.98459,101.782565,"Tersang
27610, Raub
Pahang","09-3403086","Pahang"
"Klinik Kesihatan Bukit Fraser",1,0,0,0,3.711193,101.753769,"Bukit Fraser
49000, Bukit Fraser
Pahang","09-3622333","Pahang"
"Klinik Kesihatan Dong",1,0,0,0,3.90105,101.89547,"Ulu Dong
27400, Raub
Pahang","09-3658355","Pahang"
"Klinik Kesihatan Ulu Gali",1,0,0,0,3.823146,101.933624,"Kampung Ulu Gali
27600, Raub
Pahang","09-3686355","Pahang"
"Klinik Kesihatan Lembah Klau",1,0,0,0,3.689875,102.004253,"Lembah Klau
27600, Raub
Pahang","09-3688333","Pahang"
"Klinik Kesihatan Cheroh",1,0,0,0,3.911918,101.811647,"Cheroh
27600, Raub
Pahang","09-3697228","Pahang"
"Klinik Kesihatan Leban Chondong
2.889781, 103.427999",1,0,0,0,"","","Jalan Rompin, Pekan Leban Chondong
26800, Rompin
Pahang","09-4149237","Pahang"
"Klinik Kesihatan Nenasi",1,0,0,0,3.140533,103.441185,"Kampong Nenasi
26680, Pekan
Pahang","09-4181233","Pahang"
"Klinik Kesihatan Pekan",1,0,0,0,3.489294,103.393428,"Pekan
26600, Pekan
Pahang","09-4221044","Pahang"
"Klinik Kesihatan Peramu Jaya",1,0,0,0,3.54629,103.383,"Peramu Jaya
26600, Pekan
Pahang","09-4269609","Pahang"
"Klinik Kesihatan Padang Rumbia",1,0,0,0,3.530563,103.202001,"Kampung Padang Rumbia
26650, Pekan
Pahang","09-4281205","Pahang"
"Klinik Kesihatan Rps Runchang",1,0,0,0,3.354456,103.032088,"RPS Runchang
26690, Pekan
Pahang","09-4530791","Pahang"
"Klinik Kesihatan Chini",1,0,0,0,3.37456,102.94578,"Felda Chini 1
26690, Pekan
Pahang","09-4566333","Pahang"
"Klinik Kesihatan Jengka 7
3.616461, 102.614999",1,0,0,0,"","","Felda Jengka 7
26410, Bandar Jengka
Pahang","09-4671566","Pahang"
"Klinik Kesihatan Lepar Utara 4",1,0,0,0,3.905966,102.795799,"Lepar Utara 4
26400, Jengka
Pahang","09-4741523","Pahang"
"Klinik Kesihatan Sungai Tekam Utara",1,0,0,0,3.890387,102.596993,"Kampung Sungai Tekam Utara
27060, Jerantut
Pahang","09-4811526","Pahang"
"Klinik Kesihatan Bandar Kuantan",1,0,0,0,3.821784,103.324946,"Jalan Lim Hoe Lek
25200, Kuantan
Pahang","09-5132055","Pahang"
"Klinik Kesihatan Permatang Badak",1,0,0,0,3.788912,103.268922,"Permatang Badak
25150, Kuantan
Pahang","09-5364626","Pahang"
"Klinik Kesihatan Jaya Gading",1,0,0,0,3.75325,103.20386,"Jaya Gading
26070, Kuantan
Pahang","09-5384252","Pahang"
"Klinik Kesihatan Paya Besar",1,0,0,0,3.777211,103.27567,"Jalan Pintasan Kuantan-Gambang, Paya Besar
25100, Kuantan
Pahang","09-5395436","Pahang"
"Klinik Kesihatan Beserah",1,0,0,0,3.85006,103.362594,"Berserah
26100, Kuantan
Pahang","09-5445633","Pahang"
"Klinik Kesihatan Bukit Goh (Felda)",1,0,0,0,3.880825,103.263502,"Bukit Goh
26050, Kuantan
Pahang","09-5478355","Pahang"
"Klinik Kesihatan Gambang",1,0,0,0,3.70778,103.10862,"Gambang
26300, Kuantan
Pahang","09-54846111","Pahang"
"Klinik Kesihatan Indera Mahkota
3.823311, 103.290999",1,0,0,0,"","","Jln A IM 4
25582, Indera Mahkota
Pahang","09-5736572","Pahang"
"Klinik Kesihatan Balok",1,0,0,0,3.932889,103.372207,"Balok
26100, Kuantan
Pahang","09-5834533","Pahang"
"Klinik Kesihatan Pengkalan Berangan",1,0,0,0,5.10926,103.13878,"PT 1998, Jalan Marang, Wakaf Tapai
21040, Jerong
Terengganu","09-6120073","Terengganu"
"Klinik Kesihatan Marang",1,0,0,0,5.204433,103.20565,"Lot 2012, Jalan Terengganu-Dungun
21600, Rusila
Terengganu","09-6182216/ 09-61820","Terengganu"
"Klinik Kesihatan Binjai Rendah",1,0,0,0,5.20047,103.199078,"Lot 4521/LOT6155, Jalan Kuala Berang
21040, Bukit Payong
Terengganu","09-6192050","Terengganu"
"Klinik Kesihatan Pulau Redang",1,0,0,0,5.779326,103.010782,"Kampung Baru Pulau Redang
21090, Kuala Terengganu
Terengganu","09-6307823","Terengganu"
"Klinik Kesihatan Pulau Perhentian",1,0,0,0,5.827006,102.567877,"Lot 162, Kg Pulau Perhentian
22300, Besut
Terengganu","09-6911733","Terengganu"
"Klinik Kesihatan Cherang Ruku",1,0,0,0,5.868321,102.486734,"Semerak
16700, Pasir Puteh
Kelantan","09-6912333","Kelantan"
"Klinik Kesihatan Jabi",1,0,0,0,5.67253,102.58673,"PT 2066, Jerteh, Jalan Kuala Terengganu
22020, Jabi
Terengganu","09-6941288","Terengganu"
"Klinik Kesihatan Kampung Raja",1,0,0,0,5.79694,102.56469,"Lot 763, Jalan Jerteh
22200, Besut
Terengganu","09-6956341","Terengganu"
"Klinik Kesihatan Jerteh",1,0,0,0,5.737004,102.493242,"Lot 43, Jalan Pasir Akar
22000, Jerteh
Terengganu","09-6971433","Terengganu"
"Klinik Kesihatan Pasir Akar",1,0,0,0,5.638028,102.504586,"PT 2345, Jalan Pasir Akar
22010, Pasir Akar
Terengganu","09-6975373","Terengganu"
"Klinik Kesihatan Cabang 3 Perol",1,0,0,0,6.01711,102.242478,"Cabang 3 Perol
16010, Kota Bharu
Kelantan","09-7123335","Kelantan"
"Klinik Kesihatan Peringat",1,0,0,0,6.02012,102.28514,"Jalan Melor
16400, Kota Bharu
Kelantan","09-7127433","Kelantan"
"Klinik Kesihatan Kubang Kerian",1,0,0,0,6.091269,102.27243,"Jalan Istana Mahkota
16150, Kota Bharu
Kelantan","09-7667330","Kelantan"
"Klinik Kesihatan Badang",1,0,0,0,6.1878,102.26742,"Jalan Pantai Cahaya Bulan
15350, Kota Bharu
Kelantan","09-7730333","Kelantan"
"Klinik Kesihatan Balai",1,0,0,0,6.10605,102.37294,"Balai
16300, Bachok
Kelantan","09-7767206","Kelantan"
"Klinik Kesihatan Mahligai",1,0,0,0,5.95622,102.30102,"Mahligai
16400, Bachok
Kelantan","09-7834213","Kelantan"
"Klinik Kesihatan Gaal",1,0,0,0,5.788889,102.416944,"Gaal
16800, Pasir Puteh
Kelantan","09-7867199","Kelantan"
"Klinik Kesihatan Pulai Chondong",1,0,0,0,5.872973,102.23224,"Pulau Chondong
16600, Machang
Kelantan","09-7878333","Kelantan"
"Klinik Kesihatan Labok",1,0,0,0,5.830814,102.225228,"Labok
18500, Machang
Kelantan","09-7878533","Kelantan"
"Klinik Kesihatan Kok Lanas",1,0,0,0,5.91478,102.244047,"Km 25, Jalan Kuala Krai
16450, Kota Bharu
Kelantan","09-7880900","Kelantan"
"Klinik Kesihatan Ketereh",1,0,0,0,5.957736,102.254891,"Ketereh
16450, Kota Bharu
Kelantan","09-7886055","Kelantan"
"Klinik Kesihatan Lundang Paku",1,0,0,0,5.994381,102.200672,"Jalan Dewa Beta
15100, Kota Bharu
Kelantan","09-7964277","Kelantan"
"Klinik Kesihatan Terusan Sugut
5.716771, 117.412776",1,0,0,0,"","","Kampung Terusan Sugut
90108, Beluran
Sabah","098-239006","Sabah"
"Klinik Kesihatan Sungai Tong",1,0,0,0,5.307317,102.907417,"Lot 9679, Jalan Kuala Terengganu, Sungai Tong
21500, Hulu Nerus
Terengganu","09-8240833","Terengganu"
"Klinik Kesihatan Cherul",1,0,0,0,4.123192,103.17559,"Lot 1539,Felda Cherul
24000, Mukim Bandi
Terengganu","09-8730895","Terengganu"
"Klinik Kesihatan Gua Musang",1,0,0,0,4.87997,101.96533,"Gua Musang
18300, Gua Musang
Kelantan","09-9121333","Kelantan"
"Klinik Kesihatan Merapoh",1,0,0,0,4.690787,102.00434,"Merapoh
27210, Kuala Lipis
Pahang","09-9122377","Pahang"
"Klinik Kesihatan Jeram Tekoh",1,0,0,0,4.99824,102.07455,"Jeram Tekoh
18300, Gua Musang
Kelantan","09-9126308","Kelantan"
"Klinik Kesihatan Lojing
4.860046, 101.963387",1,0,0,0,"","","Lojing
18300, Gua Musang
Kelantan","09-9221406","Kelantan"
"Klinik Kesihatan Gual Ipoh",1,0,0,0,5.74327,102.05192,"Kg Gual Ipoh
17500, Tanah Merah
Kelantan","09-9551949","Kelantan"
"Klinik Kesihatan Kemahang",1,0,0,0,5.855361,102.005575,"Felda Kemahang
17500, Tanah Merah
Kelantan","09-9581192","Kelantan"
"Klinik Kesihatan Laloh",1,0,0,0,5.309497,102.271411,"Laloh
18000, Kuala Krai
Kelantan","09-9668826","Kelantan"
"Klinik Kesihatan Batu 30",1,0,0,0,5.710186,102.210601,"Jalan Kuala Krai
18500, Machang
Kelantan","09-9752355","Kelantan"
"Klinik Kesihatan Temangan",1,0,0,0,5.71594,102.15521,"Temangan
18400, Machang
Kelantan","09-9752633","Kelantan"
"Klinik Kesihatan Abuan
5.284325, 115.227421",1,0,0,0,"","","Kampung Abuan
90108, Beluran
Sabah","-","Sabah"
"Klinik Kesihatan Tawau
4.282458, 117.914786",1,0,0,0,"","","Pejabat Kesihatan Daerah Tawau, Tingkat 7, Wisma Persekutuan, Peti Surat 990
91008, Tawau
Sabah","-","Sabah"
"Klinik Kesihatan Long Jegan",1,0,0,0,3.587491,114.116242,"Kampung Long Jegan (D/A Peg. Kesihatan Daerah, Daerah Baram, Jalan Hospital, Baram)
98050, Baram
Sarawak","-","Sarawak"
"Klinik Kesihatan Long Teran",1,0,0,0,3.61364,114.15183,"Kampung Long Teran (D/A Peg. Kesihatan Daerah Baram, Jalan Hospital)
98050, Baram
Sarawak","-","Sarawak"
