"Name","Clinic","Hospital","ST","VAC","Latitude","Longitude","Address","Contact","State"
"Klinik Kesihatan Beseri",1,0,0,0,6.51487,100.23052,"Km 10, Jalan Kaki Bukit
2400, Kangar
Perlis","04-9381355","Perlis"
"Klinik Kesihatan Kampung Gial",1,0,0,0,6.4655,100.27354,"Kampung Gial, Mata Air
2500, Kangar
Perlis","04-9861177","Perlis"
"Klinik Kesihatan Kangar",1,0,0,0,6.43956,100.19059,"Jalan Kolam
1000, Kangar
Perlis","04-9778333","Perlis"
"Klinik Kesihatan Kuala Perlis",1,0,0,0,6.397391,100.134362,"Batu 7, Jalan Kuala Perlis, Kuala Perlis
2000, Kangar
Perlis","04-9854259","Perlis"
"Klinik Kesihatan Padang Besar",1,0,0,0,6.65689,100.31586,"Km 37, Jalan Padang Besar
2100, Kangar
Perlis","04-9490333","Perlis"
"Klinik Kesihatan Simpang Empat",1,0,0,0,6.33657,100.19147,"Simpang Empat
2700, Kangar
Perlis","04-9807214","Perlis"
"Klinik Kesihatan Arau",1,0,0,0,6.4327,100.27051,"Arau
2600, Kangar
Perlis","04-9861218","Perlis"
"Klinik Kesihatan Kuala Sanglang",1,0,0,0,6.262644,100.195881,"Kuala Sanglang
2800, Kangar
Perlis","04-7940216","Perlis"
"Klinik Kesihatan Kaki Bukit",1,0,0,0,6.64256,100.2116,"Kaki Bukit
2200, Kangar
Perlis","04-9456237","Perlis"
"Klinik Kesihatan Kampung Lalang",1,0,0,0,5.79484,100.898119,"Mukim Siong
9100, Baling
Kedah","04-4721497 / 04-4721613 / 04-4701131","Kedah"
"Klinik Kesihatan Kuala Ketil",1,0,0,0,5.60554,100.65335,"Kuala Ketil
9300, Baling
Kedah","04-4163355 / 04-4164557","Kedah"
"Klinik Kesihatan Kupang",1,0,0,0,5.63485,100.83376,"Poliklinik Kesihatan Kupang, Kupang Baling
9200, Baling
Kedah","04-4766355","Kedah"
"Klinik Kesihatan Malau",1,0,0,0,5.50261,100.7216,"Baling
9100, Baling
Kedah","04-4721095 / 04-4721203","Kedah"
"Klinik Kesihatan Parit Panjang",1,0,0,0,5.70405,100.74437,"Baling
9120, Baling
Kedah","04-4761246","Kedah"
"Klinik Kesihatan Tawar",1,0,0,0,5.59514,100.771,"Kuala Ketil
9310, Baling
Kedah","04-4766308","Kedah"
"Klinik Kesihatan Bandar Baharu",1,0,0,0,5.12626,100.51265,"Bandar Baharu
34950, Bandar Baharu
Kedah","04-7178232","Kedah"
"Klinik Kesihatan Lubuk Buntar",1,0,0,0,5.14409,100.59026,"Jln Serdang-Bandar Baharu
9800, Bandar Baharu
Kedah","04-4077320","Kedah"
"Klinik Kesihatan Serdang",1,0,0,0,5.212117,100.615617,"Serdang Kedah
9800, Bandar Baharu
Kedah","04-4077355","Kedah"
"Klinik Kesihatan Alor Janggus",1,0,0,0,6.17273,100.30784,"Jalan Alor Jaggus, Alor Jaggus
6200, Kota Setar
Kedah","04-7339043","Kedah"
"Klinik Kesihatan Bandar Alor Setar",1,0,0,0,6.1414,100.37105,"Lebuh Raya Darulaman
5100, Kota Setar
Kedah","04-7308353","Kedah"
"Klinik Kesihatan Jalan Putra",1,0,0,0,6.202778,100.477778,"Megong
5150, Kota Setar
Kedah","04-7301985 / 04-7355161","Kedah"
"Klinik Kesihatan Kota Sarang Semut",1,0,0,0,5.97459,100.40313,"Jalan Pendang, Kota Sarang Semut
6800, Kota Setar
Kedah","04-7691333","Kedah"
"Klinik Kesihatan Kuala Kedah",1,0,0,0,6.09872,100.30121,"Jalan Kuala Kedah, Kuala Kedah
6600, Kota Setar
Kedah","04-7621526","Kedah"
"Klinik Kesihatan Langgar",1,0,0,0,6.14762,100.42497,"Jalan Langgar
6500, Kota Setar
Kedah","04-7876648","Kedah"
"Klinik Kesihatan Pokok Sena",1,0,0,0,6.16801,100.51838,"Pokok Sena
6400, Kota Setar
Kedah","04-7821355","Kedah"
"Klinik Kesihatan Simpang Empat",1,0,0,0,6.02598,100.3859,"Jalan Tokai Kedah
6650, Kota Setar
Kedah","04-7641501","Kedah"
"Klinik Kesihatan Simpang Kuala",1,0,0,0,6.09694,100.36112,"Jalan Kuala Kedah
5400, Kota Setar
Kedah","04-7720853","Kedah"
"Klinik Kesihatan Dato' Kumbar",1,0,0,0,6.121003,100.399488,"Jalan Dato 'Kumbar
5300, Kota Setar
Kedah","04-7306319","Kedah"
"Klinik Kesihatan Taman Intan (Bakar Arang)",1,0,0,0,5.63491,100.47812,"Jalan Taman Intan, Sungai Petani
8000, Kuala Muda
Kedah","04-4220294","Kedah"
"Klinik Kesihatan Bandar Sg. Petani",1,0,0,0,5.64704,100.49774,"Pej.Kes. Daerah Kuala Muda, Jalan Badlishah, Sungai Petani
8000, Kuala Muda
Kedah","04-4213355","Kedah"
"Klinik Kesihatan Bedong",1,0,0,0,5.72292,100.50646,"Jalan Semeling, Bedong
8100, Kuala Muda
Kedah","04-4583333","Kedah"
"Klinik Kesihatan Bukit Selambau",1,0,0,0,5.6898,100.632722,"Sungai Petani
8010, Kuala Muda
Kedah","04-4193312","Kedah"
"Klinik Kesihatan Kota Kuala Muda",1,0,0,0,5.5875,100.37475,"Jalan Kampung Sungai Emas, Kota Kuala Muda
8500, Kuala Muda
Kedah","04-4374225","Kedah"
"Klinik Kesihatan Merbok",1,0,0,0,5.722667,100.409472,"Jalan Merbok-Tanjung Dawai, Merbok, Kuala Muda
8400, Kuala Muda
Kedah","04-4572214","Kedah"
"Klinik Kesihatan Sg. Lalang",1,0,0,0,5.715722,100.534861,"Lot 15&16, Taman Lembah Permai, Sungai Lalang, Bedong
8100, Kuala Muda
Kedah","04-4594127","Kedah"
"Klinik Kesihatan Ayer Hitam",1,0,0,0,6.24043,100.24638,"Ayer Hitam
6150, Kubang Pasu
Kedah","04-7942101","Kedah"
"Klinik Kesihatan Banai",1,0,0,0,6.220883,100.458138,"Jitra
6000, Kubang Pasu
Kedah","04-9171382","Kedah"
"Klinik Kesihatan Changloon",1,0,0,0,6.425149,100.429344,"Changlun
6010, Kubang Pasu
Kedah","04-9241277","Kedah"
"Klinik Kesihatan Kepala Batas",1,0,0,0,6.20393,100.41635,"Kepala Batas
6200, Kubang Pasu
Kedah","04-7144820","Kedah"
"Klinik Kesihatan Kodiang",1,0,0,0,6.396452,100.304901,"Kodiang
6100, Kubang Pasu
Kedah","04-9250178","Kedah"
"Klinik Kesihatan Laka Temin",1,0,0,0,6.50386,100.42044,"Bukit Kayu Hitam, Jitra
6050, Kubang Pasu
Kedah","04-9222561","Kedah"
"Klinik Kesihatan Tunjang",1,0,0,0,6.29783,100.36599,"Jalan Kodiang, Jitra
6000, Kubang Pasu
Kedah","04-9291524","Kedah"
"Klinik Kesihatan Karangan",1,0,0,0,5.42722,100.65826,"Jalan Mahang, Karangan
9700, Kulim
Kedah","04-4056261","Kedah"
"Klinik Kesihatan Kulim",1,0,0,0,5.36742,100.55765,"Jalan Hospital Lama
9000, Kulim
Kedah","04-4905533","Kedah"
"Klinik Kesihatan Lunas",1,0,0,0,5.43012,100.5305,"Jalan Ara Kuda, Lunas
9600, Kulim
Kedah","04-4844355","Kedah"
"Klinik Kesihatan Mahang",1,0,0,0,5.32243,100.74928,"Jalan Mahang
9500, Kulim
Kedah","04-4041333","Kedah"
"Klinik Kesihatan Merbau Pulas",1,0,0,0,5.5531,100.63492,"Jalan Kuala Ketil
9300, Kulim
Kedah","04-4163852","Kedah"
"Klinik Kesihatan Padang Serai",1,0,0,0,5.51039,100.55393,"Jalan Lunas, Padang Serai
9400, Kulim
Kedah","04-4855355","Kedah"
"Klinik Kesihatan Taman Selasih",1,0,0,0,5.37832,100.53767,"Lot 3302, Taman Selasih
9000, Kulim
Kedah","04-4917377","Kedah"
"Klinik Kesihatan Air Hangat",1,0,0,0,6.422483,99.80381,"Jalan Air Hangat
7000, Langkawi
Kedah","04-9591959","Kedah"
"Klinik Kesihatan Kuah",1,0,0,0,6.32289,99.84751,"Kuah
7000, Langkawi
Kedah","04-9663490","Kedah"
"Klinik Kesihatan Padang Matsirat",1,0,0,0,6.35012,99.73174,"Langkawi
7100, Langkawi
Kedah","04-9551355","Kedah"
"Klinik Kesihatan Temoyong",1,0,0,0,6.294814,99.737645,"Mukim Kedawang
7000, Langkawi
Kedah","04-9531133","Kedah"
"Klinik Kesihatan Lubuk Merbau",1,0,0,0,6.00064,100.72532,"Pendang
6710, Padang Terap
Kedah","04-7520129","Kedah"
"Klinik Kesihatan Naka",1,0,0,0,6.14058,100.66835,"Naka
6350, Padang Terap
Kedah","04-7851229","Kedah"
"Klinik Kesihatan Pedu",1,0,0,0,6.224971,100.654984,"Kuala Nerang
6300, Padang Terap
Kedah","04-7868717","Kedah"
"Klinik Kesihatan Kota Putra",1,0,0,0,6.25316,100.470475,"Kota Putra
6300, Padang Terap
Kedah","04-7860013","Kedah"
"Klinik Kesihatan Pendang",1,0,0,0,5.98549,100.47918,"Jalan Sungai Tiang
6700, Pendang
Kedah","04-7596412","Kedah"
"Klinik Kesihatan Sungai Tiang",1,0,0,0,5.99566,100.59588,"Sungai Tiang
6750, Pendang
Kedah","04-7541135","Kedah"
"Klinik Kesihatan Kubur Panjang",1,0,0,0,6.08913,100.5537,"Kubur Panjang
6700, Pendang
Kedah","04-7846355","Kedah"
"Klinik Kesihatan Jeniang",1,0,0,0,5.81344,100.64575,"Jalan Jeniang, Jeniang Sik
8200, Sik
Kedah","04-4641200","Kedah"
"Klinik Kesihatan Kampung Betong",1,0,0,0,5.93592,100.682836,"Kampung Betong, Mukim Jeneri
8200, Sik
Kedah","04-4620063 / 019-4776363","Kedah"
"Klinik Kesihatan Felda Teloi Timur",1,0,0,0,5.71553,100.67976,"Felda Teloi Timur
8200, Sik
Kedah","019-4608741","Kedah"
"Klinik Kesihatan Gulau",1,0,0,0,6.02782,100.811,"Jalan Gulau Nami
8210, Sik
Kedah","04-7522826","Kedah"
"Klinik Kesihatan Sungai Limau Dalam",1,0,0,0,5.90127,100.3815,"Yan
6910, Yan
Kedah","04-7696975","Kedah"
"Klinik Kesihatan Permatang Buluh",1,0,0,0,5.960015,100.362205,"Permatang Buluh, Kota Sarang Semut
6800, Yan
Kedah","04-4471451","Kedah"
"Klinik Kesihatan Guar Chempedak",1,0,0,0,5.85402,100.45989,"Jalan Alor Setar Gurun, Guar Campak
8200, Yan
Kedah","04-4682557 / 04-4683155 / 04-4684433","Kedah"
"Klinik Kesihatan Bayan Baru",1,0,0,0,5.319757,100.279744,"Poliklinik Komuniti Bayan Baru, Bayan Baru
11950, Barat Daya
Pulau Pinang","04-6425102","Pulau Pinang"
"Klinik Kesihatan Bayan Lepas",1,0,0,0,5.29947,100.26205,"Lot 1157, Mukim 12
11900, Barat Daya
Pulau Pinang","04-6435434","Pulau Pinang"
"Klinik Kesihatan Teluk Bahang",1,0,0,0,5.45561,100.21501,"Klinik Komuniti Kesihatan Teluk Bahang, Teluk Bahang Balik Pulau
11050, Barat Daya
Pulau Pinang","04-8851951","Pulau Pinang"
"Klinik Kesihatan Bukit Panchor",1,0,0,0,5.16748,100.49285,"Lot 1866, Mukim 7 Jalan Bukit Panchor
14300, Seberang Perai Selatan
Pulau Pinang","04-5931679","Pulau Pinang"
"Klinik Kesihatan Nibong Tebal",1,0,0,0,5.166602,100.49279,"Lot 320, Mukim 17
14300, Seberang Perai Selatan
Pulau Pinang","04-5931355","Pulau Pinang"
"Klinik Kesihatan Bandar Tasik Mutiara",1,0,0,0,5.2814,100.49214,"Lot 8767 Lorong Tasik Mutiara 19/Ss2 Bandar Tasik Mutiara
14120, Seberang Perai Selatan
Pulau Pinang","04-5079855","Pulau Pinang"
"Klinik Kesihatan Sungai Acheh",1,0,0,0,5.150278,100.422563,"Lot 1376, Mukim 10 Sungai Acheh, Seberang Perai Selatan
14310, Seberang Perai Selatan
Pulau Pinang","04-5981733","Pulau Pinang"
"Klinik Kesihatan Berapit",1,0,0,0,5.37946,100.47394,"Seberang Perai Tengah
14000, Seberang Perai Tengah
Pulau Pinang","04-5395400","Pulau Pinang"
"Klinik Kesihatan Bukit Minyak",1,0,0,0,5.326678,100.448307,"Lot 106, Mukim 14, Bukit Minyak
14000, Seberang Perai Tengah
Pulau Pinang","04-5071355","Pulau Pinang"
"Klinik Kesihatan Kubang Semang",1,0,0,0,5.39746,100.46431,"Lot 807, Mukim 5 Kubang Semang
14400, Seberang Perai Tengah
Pulau Pinang","04-5390654","Pulau Pinang"
"Klinik Kesihatan Prai",1,0,0,0,5.383767,100.388187,"Prai, Seberang Perai Tengah
13600, Seberang Perai Tengah
Pulau Pinang","04-3901477","Pulau Pinang"
"Klinik Kesihatan Seberang Jaya",1,0,0,0,5.39351,100.3985,"Jalan Perpustakaan
13700, Seberang Perai Tengah
Pulau Pinang","04-3900264 / 04-3901842","Pulau Pinang"
"Klinik Kesihatan Machang Bubuk",1,0,0,0,5.336387,100.508981,"No Fr 30, Lot 585 Mukim 16, Perkampungan Machang Bubok
14000, Seberang Perai Tengah
Pulau Pinang","04-5511930","Pulau Pinang"
"Klinik Kesihatan Permatang Pauh",1,0,0,0,5.41792,100.41218,"Jalan Sama Gagah, Permatang Pauh
13500, Seberang Perai Tengah
Pulau Pinang","04-3981380","Pulau Pinang"
"Klinik Kesihatan Butterworth",1,0,0,0,5.40678,100.36848,"Jalan Pantai Butterworth
12000, Seberang Perai Utara
Pulau Pinang","04-3233333","Pulau Pinang"
"Klinik Kesihatan Kepala Batas",1,0,0,0,5.51663,100.433045,"Lot 1466, Mukim 6, Jalan Sheikh Mohd Tahir
13200, Seberang Perai Utara
Pulau Pinang","04-5756755","Pulau Pinang"
"Klinik Kesihatan Mak Mandin",1,0,0,0,5.42132,100.38938,"Lot 2882, Seksyen 3, Jalan Mak Mandin
13400, Seberang Perai Utara
Pulau Pinang","04-3244685","Pulau Pinang"
"Klinik Kesihatan Penaga",1,0,0,0,5.53535,100.38056,"Penaga, Seberang Perai Utara
13100, Seberang Perai Utara
Pulau Pinang","04-5791718 / 04-5751032","Pulau Pinang"
"Klinik Kesihatan Sungai Dua",1,0,0,0,5.441806,100.430726,"Jalan Pengkalan Machang, Sungai Dua Butterworth
13800, Seberang Perai Utara
Pulau Pinang","04-3564355 / 04-3566840","Pulau Pinang"
"Klinik Kesihatan Tasek Gelugor",1,0,0,0,5.483562,100.491544,"Lot 1944, Mukim 12
13300, Seberang Perai Utara
Pulau Pinang","04-5735025 / 04-5735031 / 04-5735079","Pulau Pinang"
"Klinik Kesihatan Kuala Muda",1,0,0,0,5.570465,100.359467,"Penaga, Seberang Perai Utara
13110, Seberang Perai Utara
Pulau Pinang","04-5793405","Pulau Pinang"
"Klinik Kesihatan Air Itam",1,0,0,0,5.389701,100.285453,"Lot 322, Seksyen 3 Jalan Bukit Bendera, Timur Laut
11500, Timur Laut
Pulau Pinang","04-8283355","Pulau Pinang"
"Klinik Kesihatan Bukit Bendera",1,0,0,0,5.42448,100.26904,"Jalan Bukit Bendera
11300, Timur Laut
Pulau Pinang","04-8299406","Pulau Pinang"
"Klinik Kesihatan Bukit Jambul",1,0,0,0,5.336553,100.288166,"Blok D Taman Bukit Jambul, Bukit Jambul
11900, Timur Laut
Pulau Pinang","04-6448521","Pulau Pinang"
"Klinik Kesihatan Jalan Macalister",1,0,0,0,5.4151,100.326065,"Lot 1762, Jalan Macalister
10400, Timur Laut
Pulau Pinang","04-2289610","Pulau Pinang"
"Klinik Kesihatan Jalan Perak",1,0,0,0,5.402828,100.314595,"Jalan Perak
11600, Timur Laut
Pulau Pinang","04-2812033","Pulau Pinang"
"Klinik Kesihatan Lebuh Muntri",1,0,0,0,5.42012,100.3361,"Lebuh Muntri, Timur Laut
10200, Timur Laut
Pulau Pinang","04-2620024","Pulau Pinang"
"Klinik Kesihatan Sungai Dua",1,0,0,0,5.34418,100.29756,"Gelugur  (Belakang Stesen Bus Sungai Nibong)
11700, Timur Laut
Pulau Pinang","04-6422201","Pulau Pinang"
"Klinik Kesihatan Tanjung Bungah",1,0,0,0,5.461979,100.27955,"Tanjung Bungah
11200, Timur Laut
Pulau Pinang","04-8990953","Pulau Pinang"
"Klinik Kesihatan Bandar Baru Air Itam",1,0,0,0,5.40575,100.2823,"No 8 Jalan Angsana, Bandar Baru Air Itam
11500, Timur Laut
Pulau Pinang","04-8266267","Pulau Pinang"
"Klinik Kesihatan Bidor",1,0,0,0,4.114722,101.284833,"Jalan Besar Bidor, Pekan Bidor
35500, Batang Padang
Perak","05-4341480","Perak"
"Klinik Kesihatan Trolak (Felda)",1,0,0,0,3.89244,101.3763,"Jalan Besar Trolak Selatan, Felda Trolak Selatan
35600, Batang Padang
Perak","05-4323136","Perak"
"Klinik Kesihatan Gunung Besout",1,0,0,0,3.84331,101.29489,"Jalan Klinik, Gunung Besout
35600, Batang Padang
Perak","05-4311092","Perak"
"Klinik Kesihatan Slim River",1,0,0,0,3.83743,101.40143,"Jalan Indah
35800, Mualim
Perak","05-4527679 / 05-4323136","Perak"
"Klinik Kesihatan Sungkai",1,0,0,0,3.99848,101.30889,"Jalan Pekan Sungkai
35600, Batang Padang
Perak","05-4386355","Perak"
"Klinik Kesihatan Tanjung Malim",1,0,0,0,3.68813,101.524392,"Pekan Tanjung Malim
35950, Mualim
Perak","05-4596333","Perak"
"Klinik Kesihatan Tapah",1,0,0,0,4.18704,101.26554,"Jalan Damai
35000, Batang Padang
Perak","05-4010260","Perak"
"Klinik Kesihatan Tapah Road",1,0,0,0,4.193621,101.263601,"Pekan Tapah
35000, Batang Padang
Perak","05-4180370","Perak"
"Klinik Kesihatan Bagan Datoh",1,0,0,0,3.97823,100.78651,"Pekan Bagan Datoh
36100, Hilir Perak
Perak","05-6466233","Perak"
"Klinik Kesihatan Chenderong Balai",1,0,0,0,4.132556,101.102778,"Chenderong Balai
36600, Hilir Perak
Perak","05-7215355","Perak"
"Klinik Kesihatan Hutan Melintang",1,0,0,0,3.876417,100.93425,"Jalan Hutan Melintang
36400, Hilir Perak
Perak","05-8880333","Perak"
"Klinik Kesihatan Langkap",1,0,0,0,4.079833,101.149667,"Langkap
36700, Hilir Perak
Perak","05-4341480","Perak"
"Klinik Kesihatan Selekoh",1,0,0,0,3.902028,100.78911,"Jalan Bagan Datoh, Selekoh
36100, Hilir Perak
Perak","05-2548615","Perak"
"Klinik Kesihatan Sungai Sumun",1,0,0,0,3.890583,100.854306,"Kampung Sungai Sumun, Sungai Sumun
36300, Hilir Perak
Perak","05-3761355","Perak"
"Klinik Kesihatan Telok Intan",1,0,0,0,4.028198,101.018123,"Jalan Bandar
36000, Hilir Perak
Perak","05-8553013","Perak"
"Klinik Kesihatan Sungai Tiang",1,0,0,0,3.977372,100.795269,"Bagan Datoh
36100, Hilir Perak
Perak","05-6487380","Perak"
"Klinik Kesihatan Lawin",1,0,0,0,5.2936,101.05847,"Jalan Lenggong-Gerik, Lawin
33410, Hulu Perak
Perak","05-7911907","Perak"
"Klinik Kesihatan Lenggong",1,0,0,0,5.107533,100.968,"Jalan Gerik, Pekan Lenggong
33400, Hulu Perak
Perak","05-7677355","Perak"
"Klinik Kesihatan Pengkalan Hulu",1,0,0,0,5.70623,100.996154,"Jalan Pengkalan Hulu
33100, Hulu Perak
Perak","04-4778355","Perak"
"Klinik Kesihatan Plang",1,0,0,0,5.5666,101.107733,"Jalan Gerik-Pengkalan Hulu, Kampung Plang
33320, Hulu Perak
Perak","05-7917635","Perak"
"Klinik Kesihatan Pos Kemar",1,0,0,0,5.435927,101.130051,"Pejabat Kesihatan Hulu Perak, Aras 3 Wisma Persekutuan Persekutuan, Jln Intan, Grik
33300, Hulu Perak
Perak","05-7911335","Perak"
"Klinik Kesihatan Alor Pongsu",1,0,0,0,5.049533,100.587297,"Jalan Stesen Alor Pongsu, Alor Pongsu
34300, Kerian
Perak","05-7215855","Perak"
"Klinik Kesihatan Bagan Serai",1,0,0,0,5.008047,100.540692,"Jalan Taiping, Pekan Bagan Serai, Bagan Serai
34300, Kerian
Perak","05-7215355","Perak"
"Klinik Kesihatan Gunung Semanggol",1,0,0,0,4.965594,100.652394,"Jalan Kubu Gajah, Simpang Empat, Gunung Semanggol
34400, Kerian
Perak","05-8921304","Perak"
"Klinik Kesihatan Jalan Baru",1,0,0,0,5.07456,100.47813,"Jalan Tanah Kebun
34250, Kerian
Perak","05-7163355","Perak"
"Klinik Kesihatan Kedai Empat",1,0,0,0,5.108931,100.438456,"Kedai Empat, Tanjung Piandang
34250, Kerian
Perak","05-7165155","Perak"
"Klinik Kesihatan Kuala Gula",1,0,0,0,4.951086,100.619814,"Kuala Gula
34350, Kerian
Perak","05-8908657","Perak"
"Klinik Kesihatan Kuala Kurau",1,0,0,0,5.025519,100.435694,"Jalan Kuala Kurau
34350, Kerian
Perak","05-7277355","Perak"
"Klinik Kesihatan Teluk Medan",1,0,0,0,4.985617,100.582197,"Jalan Taiping, Kampung Teluk Medan
34300, Kerian
Perak","05-7215655","Perak"
"Klinik Kesihatan Tanjung Piandang",1,0,0,0,5.07191,100.38536,"Jalan Pantai, Tanjung Piandang
34250, Kerian
Perak","05-7256355","Perak"
"Klinik Kesihatan Selinsing",1,0,0,0,4.925012,100.624255,"Kampung Selinsing, Simpang Ampat, Semanggol
34400, Kerian
Perak","05-8904542","Perak"
"Klinik Kesihatan Gopeng",1,0,0,0,4.45373,101.16513,"Jalan Dr.Raja Nazrin, Pekan Gopeng
31600, Kampar
Perak","05-3593355","Perak"
"Klinik Kesihatan Kampar",1,0,0,0,4.298333,101.156944,"Jalan Degong
31900, Kampar
Perak","05-4667011","Perak"
"Klinik Kesihatan Malim Nawar",1,0,0,0,4.35765,101.12213,"Jalan Malim Nawar
31700, Kampar
Perak","05-4771818","Perak"
"Klinik Kesihatan Kota Bharu",1,0,0,0,4.39884,101.07933,"Jalan Kota Bharu
31610, Kampar
Perak","05-3594355","Perak"
"Klinik Kesihatan Bijih Timah",1,0,0,0,4.593889,101.078056,"Jalan Treacher
31350, Kinta
Perak","05-2548615","Perak"
"Klinik Kesihatan Chemor",1,0,0,0,4.731944,101.134444,"Jalan Tanah Hitam, Kampung Chemor
31200, Kinta
Perak","05-2011355","Perak"
"Klinik Kesihatan Greentown",1,0,0,0,4.602778,101.086944,"Jalan Raja Musa Aziz
30450, Kinta
Perak","05-2530801","Perak"
"Klinik Kesihatan Gunung Rapat",1,0,0,0,4.56289,101.11241,"Jalan Gunung Rapat
31350, Kinta
Perak","05-3115813","Perak"
"Klinik Kesihatan Jelapang",1,0,0,0,4.614167,101.056667,"Jalan Jelapang, Pekan Jelapang
30020, Kinta
Perak","05-5268566","Perak"
"Klinik Kesihatan Kampung Simee",1,0,0,0,4.616667,101.115278,"Jalan Kompleks Sukan, Kampung Simee
31400, Kinta
Perak","03-5474202","Perak"
"Klinik Kesihatan Manjoi",1,0,0,0,4.61808,101.07101,"Jalan Masjid
30100, Kinta
Perak","05-5263220","Perak"
"Klinik Kesihatan Menglembu",1,0,0,0,4.56272,101.05053,"Jalan Menglembu Timur 10, Pekan Mengelembu
31450, Kinta
Perak","05-2815882","Perak"
"Klinik Kesihatan Pasir Pinji",1,0,0,0,4.5751,101.08512,"Jalan Bunga Raya, Pasir Pinji
31650, Kinta
Perak","05-3214172","Perak"
"Klinik Kesihatan Tanjung Rambutan",1,0,0,0,4.66554,101.15743,"Jalan Tambun, Tanjung Rambutan
31250, Kinta
Perak","05-5331355","Perak"
"Klinik Kesihatan Tanjung Tualang",1,0,0,0,4.325278,101.055,"Pekan Tanjung Tualang
31800, Kinta
Perak","05-3609355","Perak"
"Klinik Kesihatan Tronoh",1,0,0,0,4.423056,100.993056,"Jalan Tronoh
31750, Kinta
Perak","05-3676355","Perak"
"Klinik Kesihatan Pusing",1,0,0,0,4.846365,101.031884,"Jalan Pusing
31000, Kinta
Perak","05-2884824","Perak"
"Klinik Kesihatan Buntung",1,0,0,0,4.58529,101.05064,"Lot 30943, Jalan Desa Rishah
30100, Kinta
Perak","05-2824421","Perak"
"Klinik Kesihatan Karai",1,0,0,0,4.832567,100.967117,"Jalan Besar, Kampung Karai
33600, Kuala Kangsar
Perak","05-7576355","Perak"
"Klinik Kesihatan Lintang",1,0,0,0,4.935269,101.099898,"Kampung Lintang, Sungai Siput Utara
31110, Kuala Kangsar
Perak","05-5912255","Perak"
"Klinik Kesihatan Manong",1,0,0,0,4.591333,100.879683,"Jalan Rumah Awam Ii
33800, Kuala Kangsar
Perak","05-7430355","Perak"
"Klinik Kesihatan Padang Rengas",1,0,0,0,4.7747,100.849983,"Pekan Padang Rengas
33700, Kuala Kangsar
Perak","05-7584355","Perak"
"Klinik Kesihatan Sauk",1,0,0,0,4.9317,100.92571,"Jalan Besar Lenggong
33500, Kuala Kangsar
Perak","05-7511355","Perak"
"Klinik Kesihatan Sungai Siput",1,0,0,0,4.815825,101.080558,"Jalan Ipoh, Pekan Sungai Siput
31100, Kuala Kangsar
Perak","05-5982355","Perak"
"Klinik Kesihatan Bekor",1,0,0,0,4.577897,100.926631,"Bekor, Manong
33800, Kuala Kangsar
Perak","05-74311575","Perak"
"Klinik Kesihatan Batu Kurau",1,0,0,0,4.977,100.80143,"Pekan Batu Kurau
34500, Larut Matang
Perak","05-8880333","Perak"
"Klinik Kesihatan Changkat Jering",1,0,0,0,4.78641,100.72433,"Pekan Changkat Jering, Jalan Kuala Kangsar, Larut, Malang & Selama
34850, Larut Matang
Perak","05-8553013","Perak"
"Klinik Kesihatan Kamunting",1,0,0,0,4.903262,100.723102,"Jalan Ekspo, Pekan Kemunting
34600, Larut Matang
Perak","05-8913751","Perak"
"Klinik Kesihatan Kuala Sepetang",1,0,0,0,4.83836,100.6329,"Kampung Kuala Sepetang
34600, Larut Matang
Perak","05-8581355","Perak"
"Klinik Kesihatan Pokok Assam",1,0,0,0,4.834167,100.741667,"Jalan Menteri Besar, Pekan Pokok Assam
34000, Larut Matang
Perak","05-8067177","Perak"
"Klinik Kesihatan Redang Panjang",1,0,0,0,5.11525,100.784442,"Jalan Batu Kurau, Ijok
34510, Larut Matang
Perak","05-8802264","Perak"
"Klinik Kesihatan Selama",1,0,0,0,5.21651,100.69474,"Pekan Selama, Larut, Matang & Selama
34100, Larut Matang
Perak","05-8394355","Perak"
"Klinik Kesihatan Sungai Bayor",1,0,0,0,5.259039,100.782123,"Pekan Sungai Bayor, Selama
34110, Larut Matang
Perak","05-8394155","Perak"
"Klinik Kesihatan Sungai Kerang",1,0,0,0,4.59819,100.68144,"Jalan Pantai Remis, Trong, Larut, Matang & Selama
34800, Larut Matang
Perak","05-8544255","Perak"
"Klinik Kesihatan Trong",1,0,0,0,4.70477,100.71845,"Trong, Larut, Matang & Selama
34800, Larut Matang
Perak","05-8577155","Perak"
"Klinik Kesihatan Ijok",1,0,0,0,5.165361,100.767696,"Felda Ijok
34120, Larut Matang
Perak","05-8803048","Perak"
"Klinik Kesihatan Taiping",1,0,0,0,4.8475,100.745556,"Jalan Tupai, Larut, Matang & Selama
34000, Larut Matang
Perak","05-8041555","Perak"
"Klinik Kesihatan Simpang",1,0,0,0,4.8476,100.74488,"Jalan Kuala Kangsar, Simpang
34700, Larut Matang
Perak","05-8491466","Perak"
"Klinik Kesihatan Ayer Tawar",1,0,0,0,4.289038,100.748947,"Jalan Besar, Pekan Ayer Tawar
32400, Manjung
Perak","05-6723333","Perak"
"Klinik Kesihatan Bruas",1,0,0,0,4.49729,100.78898,"Jalan Besar, Bruas
32700, Manjung
Perak","05-6743333","Perak"
"Klinik Kesihatan Changkat Kruing",1,0,0,0,4.381654,100.69129,"Kampung Changkat Kruing, Changkat Kruing
32500, Manjung
Perak","05-6751553","Perak"
"Klinik Kesihatan Lekir",1,0,0,0,4.13571,100.7306,"Batu 8, Lekir
32020, Manjung
Perak","05-6791415 / 05-6791527","Perak"
"Klinik Kesihatan Pulau Pangkor",1,0,0,0,4.21201,100.57144,"Jalan Pasir Bogak, Pekan Pulau Pangkor, Pulau Pangkor
32300, Manjung
Perak","05-6851234 / 05-6854048 / 05-6852136","Perak"
"Klinik Kesihatan Pantai Remis",1,0,0,0,4.44408,100.63073,"Jalan Besar, Pekan Pantai Remis
34900, Manjung
Perak","05-6771316","Perak"
"Klinik Kesihatan Sitiawan",1,0,0,0,4.22392,100.70281,"Jalan Dato' Ahmad Yunus, Pekan Sitiawan
32000, Manjung
Perak","05-6914355","Perak"
"Klinik Kesihatan Pengkalan Baru",1,0,0,0,4.48093,100.63851,"Kampung Pengkalan Baru
34900, Manjung
Perak","05-6774350","Perak"
"Klinik Kesihatan Bota Kiri",1,0,0,0,4.35685,100.873,"Jalan Bota Kiri, Bota Kiri
32600, Perak Tengah
Perak","05-3761355","Perak"
"Klinik Kesihatan Changkat Lada",1,0,0,0,4.144508,100.90083,"Jalan Sekolah Latihan Felcra Seberang Perak
36800, Perak Tengah
Perak","05-6551355 / 05-6551501","Perak"
"Klinik Kesihatan Kampung Gajah",1,0,0,0,4.18274,100.94215,"Pekan Kampung Gajah
36800, Perak Tengah
Perak","05-6311185","Perak"
"Klinik Kesihatan Lambor Kiri",1,0,0,0,4.279409,100.880362,"Jalan Teluk Sena, Lambor Kiri
32900, Perak Tengah
Perak","05-3761855","Perak"
"Klinik Kesihatan Parit",1,0,0,0,4.47648,100.90975,"Jalan Pejabat Pos
32800, Perak Tengah
Perak","05-3772689","Perak"
"Klinik Kesihatan Ulu Dedap",1,0,0,0,4.090167,100.94685,"Jalan Seberang Perak, Kampung Ulu Dedap
36000, Perak Tengah
Perak","05-6551384","Perak"
"Klinik Kesihatan Air Kuning",1,0,0,0,4.24629,101.031328,"Jalan Tanjung Tualang, Air Kuning, Kampung Gajah
36800, Perak Tengah
Perak","05-4780897","Perak"
"Klinik Kesihatan Felcra Nasaruddin",1,0,0,0,4.32221,100.952508,"Felcra Nasarudin
32600, Perak Tengah
Perak","05-3711603","Perak"
"Klinik Kesihatan Au2",1,0,0,0,3.174666,101.748503,"Jalan Au2, Taman Seri Keramat
54200, Gombak
Selangor","03-42579466","Selangor"
"Klinik Kesihatan Batu Arang",1,0,0,0,3.31992,101.472505,"Jkr G/1325
48100, Gombak
Selangor","03-60352287","Selangor"
"Klinik Kesihatan Gombak Setia",1,0,0,0,3.222995,101.713499,"Jkr G/922 Jln.Sekolah, Gombak
53000, Gombak
Selangor","03-61896927 / 03-61860248","Selangor"
"Klinik Kesihatan Kuang",1,0,0,0,3.259549,101.551652,"Batu 20, Kuang
48050, Gombak
Selangor","03-60371355","Selangor"
"Klinik Kesihatan Rawang",1,0,0,0,3.32154,101.57747,"Taman Rawang Perdana Rawang
48000, Gombak
Selangor","03-60919055 / 03-60919058","Selangor"
"Klinik Kesihatan Selayang Baru",1,0,0,0,3.24547,101.67403,"Jln Sg. Tua Mukim Batu
68100, Gombak
Selangor","03-61878564","Selangor"
"Klinik Kesihatan Sungai Buloh",1,0,0,0,3.22064,101.57731,"Lot, 1853, Kg Melayu Sg.Buloh
47000, Gombak
Selangor","03-61401293 / 03-61414544 / 03-61414533","Selangor"
"Klinik Kesihatan Taman Ehsan",1,0,0,0,3.224115,101.622655,"Jln. E4/16 Taman Ehsan
52100, Gombak
Selangor","03-62727471 / 03-62727472 (MCH)","Selangor"
"Klinik Kesihatan Batu 8 Gombak",1,0,0,0,3.24587,101.72253,"Batu 8, Jalan Gombak Utara Gombak
53100, Gombak
Selangor","03-61889704","Selangor"
"Klinik Kesihatan Hulu Kelang",1,0,0,0,3.145263,101.761374,"Jalan Datok Abu Samah Kampong Pasir, Ampang
68000, Gombak
Selangor","03-41056640","Selangor"
"Klinik Kesihatan Ampang",1,0,0,0,3.145315,101.761272,"Jalan Mewah 3, Pekan Ampang
68000, Hulu Langat
Selangor","03-42923332","Selangor"
"Klinik Kesihatan Bandar Baru Bangi",1,0,0,0,2.935412,101.773739,"Jalan Persiaran 3, Seksyen 3
43650, Hulu Langat
Selangor","03-89258707","Selangor"
"Klinik Kesihatan Bandar Seri Putra",1,0,0,0,2.88828,101.792413,"Jalan Seri Putra, Bandar Seri Putra Bangi
43000, Hulu Langat
Selangor","03-89258518","Selangor"
"Klinik Kesihatan Batu 14",1,0,0,0,3.1109,101.814825,"Batu 13 3/4
43100, Hulu Langat
Selangor","03-90211414","Selangor"
"Klinik Kesihatan Batu 9",1,0,0,0,3.06952,101.7742,"Batu 9
43200, Hulu Langat
Selangor","03-90758046","Selangor"
"Klinik Kesihatan Beranang",1,0,0,0,2.887998,101.871355,"Jalan Seremban
43700, Hulu Langat
Selangor","03-87667577","Selangor"
"Klinik Kesihatan Kajang",1,0,0,0,2.97865,101.82571,"Klinik Komuniti Kajang, Jalan Semenyih
43000, Hulu Langat
Selangor","03-87395764","Selangor"
"Klinik Kesihatan Semenyih",1,0,0,0,2.95187,101.840494,"Kg Baru Cina
43500, Hulu Langat
Selangor","03-87238355","Selangor"
"Klinik Kesihatan Sg Chua",1,0,0,0,2.984722,101.769962,"Kawasan Perindustrian Sungai Chua,Sungai Ramal Luar
43000, Hulu Langat
Selangor","03-87336775","Selangor"
"Klinik Kesihatan Sungai Sekamat",1,0,0,0,3.069505,101.774325,"Batu 12 Jalan Cheras
43000, Hulu Langat
Selangor","03-87336312","Selangor"
"Klinik Kesihatan Balakong",1,0,0,0,3.027585,101.711544,"Kampung Baru Balakong
43300, Hulu Langat
Selangor","03-89612040","Selangor"
"Klinik Kesihatan Rasa",1,0,0,0,3.49773,101.63613,"Jalan Besar, Hulu Selangor
44200, Hulu Selangor
Selangor","03-60573264","Selangor"
"Klinik Kesihatan Serendah",1,0,0,0,3.36231,101.60279,"Serendah, Hulu Selangor
48200, Hulu Selangor
Selangor","03-60812500","Selangor"
"Klinik Kesihatan Kalumpang",1,0,0,0,3.63678,101.57277,"Kerling, Hulu Selangor
44100, Hulu Selangor
Selangor","03-60491426","Selangor"
"Klinik Kesihatan Soeharto",1,0,0,0,3.680846,101.386751,"Kuala Kubu Baru Selangor
44010, Hulu Selangor
Selangor","03-60461003","Selangor"
"Klinik Kesihatan Sungai Selisek",1,0,0,0,3.73235,101.44514,"Hulu Selangor
44020, Hulu Selangor
Selangor","05-4541352","Selangor"
"Klinik Kesihatan Ulu Yam Bharu",1,0,0,0,3.435175,101.656971,"Batang Kali
44300, Hulu Selangor
Selangor","03-60751261","Selangor"
"Klinik Kesihatan Bandar Botanik",1,0,0,0,2.989883,101.445698,"Blok A, Jalan Langat Bandar Botanik
41200, Klang
Selangor","03-33244260","Selangor"
"Klinik Kesihatan Bukit Kuda",1,0,0,0,3.050556,101.458056,"Jalan Batu Tiga Lama
41300, Klang
Selangor","03-33488174","Selangor"
"Klinik Kesihatan Kapar",1,0,0,0,3.139444,101.372222,"Pt 7363, Batu 10, Jalan Kapar
42200, Klang
Selangor","03-32501821","Selangor"
"Klinik Kesihatan Anika Klang",1,0,0,0,3.037222,101.446667,"Jalan Pegawai, Off Tengku Kelana Klang
41000, Klang
Selangor","03-33748019","Selangor"
"Klinik Kesihatan Meru",1,0,0,0,3.136389,101.440833,"Pt 55/61, Jalan Kenangan, Bukit Raja
41050, Klang
Selangor","03-33929802","Selangor"
"Klinik Kesihatan Pandamaran",1,0,0,0,3.014444,101.412778,"Persiaran Raja Muda Musa, Pelabuhan Klang
42000, Klang
Selangor","03-31658769 / 03-31658770","Selangor"
"Klinik Kesihatan Pelabuhan Klang",1,0,0,0,3.000833,101.393889,"Jalan Limbungan, Pelabuhan Klang
42000, Klang
Selangor","03-31658459","Selangor"
"Klinik Kesihatan Pulau Indah",1,0,0,0,2.937778,101.324722,"Jalan Rahmat, Pelabuhan Klang
42920, Klang
Selangor","03-31012035","Selangor"
"Klinik Kesihatan Pulau Ketam",1,0,0,0,3.018889,101.253333,"Pt 14208, Jalan Merdeka, Klang
42940, Klang
Selangor","03-31104206","Selangor"
"Klinik Kesihatan Rantau Panjang",1,0,0,0,3.068974,101.411405,"Jalan Rantau Panjang
42100, Klang
Selangor","03-32916930","Selangor"
"Klinik Kesihatan Bukit Naga",1,0,0,0,3.013068,101.530713,"Seksyen 32, Shah Alam
40460, Klang
Selangor","03-51611685","Selangor"
"Klinik Kesihatan Bukit Changgang",1,0,0,0,2.82731,101.62049,"Jalan Labohan Dagang
42700, Kuala Langat
Selangor","03-31491355","Selangor"
"Klinik Kesihatan Jenjarom",1,0,0,0,2.877959,101.500299,"Jenjorom, Jalan Besar, Banting
42700, Kuala Langat
Selangor","03-31913066","Selangor"
"Klinik Kesihatan Kampung Bandar",1,0,0,0,2.842977,101.441292,"Jalan Kurau Selangor
42700, Kuala Langat
Selangor","03-31201333","Selangor"
"Klinik Kesihatan Sijangkang",1,0,0,0,2.941017,101.456183,"Jln Sekolah, Batu 1, Kg Sijangkang
42500, Kuala Langat
Selangor","03-31226686","Selangor"
"Klinik Kesihatan Tanjung Sepat",1,0,0,0,2.665583,101.551437,"Tanjung Sepat
42800, Kuala Langat
Selangor","03-31972044","Selangor"
"Klinik Kesihatan Telok Datok",1,0,0,0,2.819472,101.518006,"Jln Pegawai Selangor
42700, Kuala Langat
Selangor","03-31871117","Selangor"
"Klinik Kesihatan Kanchong Darat",1,0,0,0,2.788981,101.48845,"Jalan Durian, Kanchong Darat
42700, Kuala Langat
Selangor","03-31871934","Selangor"
"Klinik Kesihatan Telok Panglima Garang",1,0,0,0,2.90509,101.46769,"Teluk Panglima Garang
42500, Kuala Langat
Selangor","03-31227433","Selangor"
"Klinik Kesihatan Kampung Sungai Lang",1,0,0,0,2.790768,101.521852,"Banting
42700, Kuala Langat
Selangor","03-31803739","Selangor"
"Klinik Kesihatan Kebun Baru",1,0,0,0,2.932734,101.47477,"Jalan Dato Kasman, Kebun Baru, Teluk Panglima Garang
42500, Kuala Langat
Selangor","03-31220943","Selangor"
"Klinik Kesihatan Bestari Jaya",1,0,0,0,3.37941,101.40774,"Lot 1867 Jalan Kampong, Kuala Selangor
45600, Kuala Selangor
Selangor","03-32719151","Selangor"
"Klinik Kesihatan Ijok",1,0,0,0,3.31761,101.41471,"Jkr 1087 Jalan Simpang Tiga
45600, Kuala Selangor
Selangor","03-32791167","Selangor"
"Klinik Kesihatan Jeram",1,0,0,0,3.23381,101.3148,"Jeram
45800, Kuala Selangor
Selangor","03-32647075","Selangor"
"Klinik Kesihatan Kuala Selangor",1,0,0,0,3.33684,101.25,"Jalan Klinik
45000, Kuala Selangor
Selangor","03-32891142","Selangor"
"Klinik Kesihatan Tanjung Karang",1,0,0,0,3.42113,101.17378,"Jalan Sungai Kajang
45500, Kuala Selangor
Selangor","03-32698355","Selangor"
"Klinik Kesihatan Sungai Tengi Kanan",1,0,0,0,3.439142,101.201125,"Jalan Kiai Mohd, Kampung Sungai Tengi Kanan, Tanjong Karang
45500, Kuala Selangor
Selangor","03-32694357","Selangor"
"Klinik Kesihatan Bukit Cerakah",1,0,0,0,3.069505,101.774325,"Jalan Rizab Masjid, Kg Bukit Cherakah, Jeram
45800, Kuala Selangor
Selangor","03-32640014","Selangor"
"Klinik Kesihatan Kelana Jaya",1,0,0,0,3.09913,101.60064,"Lot.38294, Jln Ss6/3A Kelana Jaya
47301, Petaling
Selangor","03-78045001","Selangor"
"Klinik Kesihatan Puchong",1,0,0,0,2.99398,101.61975,"Batu 14, Jalan Puchong
47100, Petaling
Selangor","03-80611814","Selangor"
"Klinik Kesihatan Seksyen 19",1,0,0,0,3.049873,101.533226,"Jalan Gelora 19/46, Seksyen 19 Shah Alam
40300, Petaling
Selangor","03-55413570","Selangor"
"Klinik Kesihatan Seksyen 7 Shah Alam",1,0,0,0,3.07201,101.49118,"No.2 Persiaran Kayangan Seksyen 7
40000, Petaling
Selangor","03-55186531 / 03-55186534","Selangor"
"Klinik Kesihatan Seri Kembangan",1,0,0,0,3.0274,101.71134,"Jalan Besar
43300, Petaling
Selangor","03-89455929","Selangor"
"Klinik Kesihatan Batu 13 1/2 Puchong",1,0,0,0,2.993923,101.620063,"Batu 13, Jalan Klang Lama
47100, Petaling
Selangor","03-80623984","Selangor"
"Klinik Kesihatan Taman Medan",1,0,0,0,3.079,101.63474,"Jln Pjs 2C/5 Taman Dato Harun, Petaling
46000, Petaling
Selangor","03-77819001","Selangor"
"Klinik Kesihatan Paya Jaras",1,0,0,0,3.20089,101.544751,"Bt.15 Sungai Buloh, Sg Buloh
47000, Petaling
Selangor","03-61579135","Selangor"
"Klinik Kesihatan Bagan Terap",1,0,0,0,3.749379,101.056794,"Jalan Bagan Terap
45300, Sabak Bernam
Selangor","03-32162722","Selangor"
"Klinik Kesihatan Parit Baru",1,0,0,0,3.81659,100.8431,"Jalan Masjid, Sungai Air Tawar
45100, Sabak Bernam
Selangor","03-32136223","Selangor"
"Klinik Kesihatan Sekinchan",1,0,0,0,3.50985,101.10259,"Jalan Pekan, Sekincan Sabak Bernam
45100, Sabak Bernam
Selangor","03-32410331","Selangor"
"Klinik Kesihatan Sungai Besar",1,0,0,0,3.67598,100.98901,"Jalan Sungai Limau
45300, Sabak Bernam
Selangor","03-32241358","Selangor"
"Klinik Kesihatan Sungai Air Tawar",1,0,0,0,3.78833,100.88694,"Jln Sekolah, Sungai Air Tawar
45100, Sabak Bernam
Selangor","03-32136227","Selangor"
"Klinik Kesihatan Merbau Berdarah",1,0,0,0,3.71337,101.12659,"Jalan Sungai Panjang
45300, Sabak Bernam
Selangor","03-32161694","Selangor"
"Klinik Kesihatan Sabak Bernam",1,0,0,0,3.770613,100.985759,"Jalan Raja Chulan
45200, Selangor
Selangor","03-32161355","Selangor"
"Klinik Kesihatan Simpang Lima",1,0,0,0,3.626338,101.049432,"Sungai Besar
45300, Sabak Bernam
Selangor","","Selangor"
"Klinik Kesihatan Dengkil",1,0,0,0,2.859739,101.681697,"Jalan Besar Dengkil, Dengkil
43800, Sepang
Selangor","03-87686355","Selangor"
"Klinik Kesihatan Salak",1,0,0,0,2.789722,101.749167,"Jalan Salak
43900, Sepang
Selangor","03-87069001","Selangor"
"Klinik Kesihatan Sungai Pelek",1,0,0,0,2.644631,101.718489,"Jalan Sg Pelek
43950, Sepang
Selangor","03-31411242","Selangor"
"Klinik Kesihatan Sepang",1,0,0,0,2.691896,101.751848,"Jalan Kelap
43900, Sepang
Selangor","03-31422785","Selangor"
"Klinik Kesihatan Bandar Tun Razak",1,0,0,0,3.087158,101.720489,"No. 16 & 18 Jalan Jujur 3
56000, Wp Kuala Lumpur
Wp Kuala Lumpur","03-91713333","Wp Kuala Lumpur"
"Klinik Kesihatan Batu",1,0,0,0,3.200758,101.676703,"Lot 98 Tingkat 1, Batu 4 1/2, Jalan Ipoh
52100, Wp Kuala Lumpur
Wp Kuala Lumpur","03-62573355","Wp Kuala Lumpur"
"Klinik Kesihatan Cheras",1,0,0,0,3.10667,101.724693,"No. 14, Jalan Yaacob Latif
56000, Cheras
Wp Kuala Lumpur","03-91333322","Wp Kuala Lumpur"
"Klinik Kesihatan Cheras Baru",1,0,0,0,3.10626,101.74844,"Jalan 16 , Jalan Kuari, Kampung Cheras Baru
56100, Cheras
Wp Kuala Lumpur","03-42946114","Wp Kuala Lumpur"
"Klinik Kesihatan Dato' Keramat",1,0,0,0,3.166708,101.736419,"Jalan Jelatik
54200, Setiawangsa
Wp Kuala Lumpur","03-42573333","Wp Kuala Lumpur"
"Klinik Kesihatan Jinjang",1,0,0,0,3.219822,101.654214,"No.2, Jalan Jinjang Setia 3, Jinjang Utara Tambahan
52000, Kepong
Wp Kuala Lumpur","03-62583355","Wp Kuala Lumpur"
"Klinik Kesihatan Kampung Pandan",1,0,0,0,3.144239,101.732539,"Jalan Belangkas, Kampung Pandan
55100, Wp Kuala Lumpur
Wp Kuala Lumpur","03-92810272","Wp Kuala Lumpur"
"Klinik Kesihatan Petaling Bahagia",1,0,0,0,3.079358,101.665244,"Batu 6, Jalan Puchong
58200, Wp Kuala Lumpur
Wp Kuala Lumpur","03-77829355","Wp Kuala Lumpur"
"Klinik Kesihatan Sentul",1,0,0,0,3.18367,101.69134,"Tingkat 2, Kompleks Perniagaan & Komuniti, Jalan 3/48A, Bandar Baru Sentul
55100, Wp Kuala Lumpur
Wp Kuala Lumpur","03-40427557/ 03-40430398","Wp Kuala Lumpur"
"Klinik Kesihatan Setapak",1,0,0,0,3.197178,101.720417,"No. 26&28 Jln. 9/23A, Medan Makmur Off Jalan Usahawan
53300, Wp Kuala Lumpur
Wp Kuala Lumpur","03-41425429","Wp Kuala Lumpur"
"Klinik Kesihatan Sungai Besi",1,0,0,0,3.063225,101.710439,"No.80 & 80-1, Jalan Tasik Utama 5, Medan Niaga Tasik Damai
57000, Bandar Tun Razak
Wp Kuala Lumpur","03-90585464","Wp Kuala Lumpur"
"Klinik Kesihatan Tanglin",1,0,0,0,3.144953,101.691319,"Jalan Cenderasari
50590, Wp Kuala Lumpur
Wp Kuala Lumpur","03-26983311","Wp Kuala Lumpur"
"Klinik Kesihatan Putrajaya Presint 9",1,0,0,0,2.94126,101.67628,"No 1, Jalan Presint 9E, Presint 9
62250, Putrajaya
Wp Putrajaya","03-88883057","Wp Putrajaya"
"Klinik Kesihatan Putrajaya Presint 14",1,0,0,0,2.953556,101.726309,"Lot Bilik Bacaan, Blok E, Kuarters Kakitangan Kerajaan Presint 14
62250, Putrajaya
Wp Putrajaya","03-88880167","Wp Putrajaya"
"Klinik Kesihatan Putrajaya Presint 11",1,0,0,0,2.953164,101.67744,"Kuarters Penjawat Awam, Zon 6B, Jalan P11J, Presint 11,
62300, Putrajaya
Wp Putrajaya","03-88811732","Wp Putrajaya"
"Klinik Kesihatan Putrajaya Presint 18",1,0,0,0,2.922651,101.696239,"Jalan P18 C1, Presint 18
62602, Putrajaya
Wp Putrajaya","03-88810062","Wp Putrajaya"
"Klinik Kesihatan Lui Muda",1,0,0,0,3.02601,102.36924,"Bandar Sri Jempol, Bahau
72120, Jempol
Negeri Sembilan","06-4691003","Negeri Sembilan"
"Klinik Kesihatan Palong 4,5,6",1,0,0,0,2.7418,102.64713,"Klinik Kesihatan Palong 4,5,6
73430, Jempol
Negeri Sembilan","06-4666433","Negeri Sembilan"
"Klinik Kesihatan Serting Hilir",1,0,0,0,2.9455,102.49362,"Serting Hilir, Bandar Sri Jempol
72120, Jempol
Negeri Sembilan","06-4683829","Negeri Sembilan"
"Klinik Kesihatan Bahau",1,0,0,0,2.803579,102.378073,"Bahau
72100, Jempol
Negeri Sembilan","06-4541234","Negeri Sembilan"
"Klinik Kesihatan Bandar Seri Jempol",1,0,0,0,2.8979,102.39458,"Bandar Seri Jempol
72120, Jempol
Negeri Sembilan","06-4581667","Negeri Sembilan"
"Klinik Kesihatan Palong 7&8(Felda)",1,0,0,0,2.82201,102.6673,"Gemas
73430, Jempol
Negeri Sembilan","06-4645549","Negeri Sembilan"
"Klinik Kesihatan Palong 9,10,11",1,0,0,0,2.78438,102.58105,"Jkr 861, Klinik Kesihatan Palong, 9,10,11, Gemas
73430, Jempol
Negeri Sembilan","06-4668419","Negeri Sembilan"
"Klinik Kesihatan Jelebu",1,0,0,0,2.95511,102.05986,"Kuala Klawang
71600, Jelebu
Negeri Sembilan","06-6139497","Negeri Sembilan"
"Klinik Kesihatan Pasoh 1",1,0,0,0,3.024181,102.26604,"Pasoh 1, Simpang Pertang Jelebu
72300, Jelebu
Negeri Sembilan","06-4951272","Negeri Sembilan"
"Klinik Kesihatan Pertang",1,0,0,0,2.95574,102.2241,"Simpan Pertang
72300, Jelebu
Negeri Sembilan","06-4941287","Negeri Sembilan"
"Klinik Kesihatan Simpang Durian",1,0,0,0,3.10128,102.22099,"Simpang Durian
72400, Jelebu
Negeri Sembilan","06-4914522","Negeri Sembilan"
"Klinik Kesihatan Titi",1,0,0,0,3.00244,102.07925,"Jelebu
71650, Jelebu
Negeri Sembilan","06-6111398","Negeri Sembilan"
"Klinik Kesihatan Kuala Pilah",1,0,0,0,2.73718,102.24894,"Kuala Pilah
72000, Kuala Pilah
Negeri Sembilan","06- 4842844","Negeri Sembilan"
"Klinik Kesihatan Gunung Pasir",1,0,0,0,2.66811,102.14562,"Sri Menanti
71550, Kuala Pilah
Negeri Sembilan","06- 4979245","Negeri Sembilan"
"Klinik Kesihatan Johol",1,0,0,0,2.6087,102.2689,"Kuala Pilah
73100, Kuala Pilah
Negeri Sembilan","06- 4367239","Negeri Sembilan"
"Klinik Kesihatan Juasseh",1,0,0,0,2.79334,102.30291,"Kuala Pilah
72500, Kuala Pilah
Negeri Sembilan","06- 4981581","Negeri Sembilan"
"Klinik Kesihatan Padang Lebar",1,0,0,0,2.85919,102.2707,"Batu Kikir
72200, Kuala Pilah
Negeri Sembilan","06-4982667","Negeri Sembilan"
"Klinik Kesihatan Senaling",1,0,0,0,2.70577,102.25318,"Kuala Pilah
72000, Kuala Pilah
Negeri Sembilan","06- 4814479","Negeri Sembilan"
"Klinik Kesihatan Sri Menanti",1,0,0,0,2.698637,102.161485,"Sri Menanti
71550, Kuala Pilah
Negeri Sembilan","06-4979581","Negeri Sembilan"
"Klinik Kesihatan Terachi",1,0,0,0,2.74171,102.13459,"Tanjong Ipoh
71500, Kuala Pilah
Negeri Sembilan","06-4887202","Negeri Sembilan"
"Klinik Kesihatan Bukit Pelanduk",1,0,0,0,2.64317,101.74342,"Port Dickson
71960, Port Dickson
Negeri Sembilan","06-6581964","Negeri Sembilan"
"Klinik Kesihatan Linggi",1,0,0,0,2.4827,102.01737,"Daerah Port Dickson
71150, Port Dickson
Negeri Sembilan","06-6970213","Negeri Sembilan"
"Klinik Kesihatan Lukut",1,0,0,0,2.57617,101.8376,"Km 10, Jalan Seremban Lukut, Port Dickson
71010, Port Dickson
Negeri Sembilan","06-6511951","Negeri Sembilan"
"Klinik Kesihatan Pasir Panjang",1,0,0,0,2.42935,101.93712,"Pasir Panjang
71250, Port Dickson
Negeri Sembilan","06-6619349","Negeri Sembilan"
"Klinik Kesihatan Port Dickson",1,0,0,0,2.52836,101.79181,"Km 1, Jalan Seremban Port Dickson
71000, Port Dickson
Negeri Sembilan","06-6473333","Negeri Sembilan"
"Klinik Kesihatan Astana Raja",1,0,0,0,2.50684,102.11858,"Kg. Astana Raja, Rembau
71350, Rembau
Negeri Sembilan","06-4382401","Negeri Sembilan"
"Klinik Kesihatan Kota",1,0,0,0,2.52177,102.157145,"Kota
71350, Rembau
Negeri Sembilan","06-4382251","Negeri Sembilan"
"Klinik Kesihatan Pedas",1,0,0,0,2.62917,102.06224,"Pekan Pedas
71400, Rembau
Negeri Sembilan","06-6851306","Negeri Sembilan"
"Klinik Kesihatan Rembau",1,0,0,0,2.58576,102.09344,"Jln Batu Hampar
71300, Rembau
Negeri Sembilan","06-6852010","Negeri Sembilan"
"Klinik Kesihatan Ampangan",1,0,0,0,2.72367,101.98746,"Km 4, Jalan Seremban-Kuala Pilah
70400, Seremban
Negeri Sembilan","06-6788986","Negeri Sembilan"
"Klinik Kesihatan Desa Rhu",1,0,0,0,2.745346,101.961609,"Sikamat
70400, Seremban
Negeri Sembilan","06-7645561","Negeri Sembilan"
"Klinik Kesihatan Lenggeng",1,0,0,0,2.86717,101.93675,"Lenggeng
71750, Seremban
Negeri Sembilan","03-87667499","Negeri Sembilan"
"Klinik Kesihatan Mantin",1,0,0,0,2.82488,101.89315,"Jalan Besar Mantin
71700, Seremban
Negeri Sembilan","06-7581242","Negeri Sembilan"
"Klinik Kesihatan Nilai",1,0,0,0,2.80261,101.79829,"Nilai Square, Nilai
71800, Seremban
Negeri Sembilan","06-8504013","Negeri Sembilan"
"Klinik Kesihatan Qrts Klia",1,0,0,0,2.76639,101.7649,"Nilai
71800, Seremban
Negeri Sembilan","06-7913352","Negeri Sembilan"
"Klinik Kesihatan Rantau",1,0,0,0,2.60058,101.96199,"Rantau
71200, Seremban
Negeri Sembilan","06-6941274","Negeri Sembilan"
"Klinik Kesihatan Senawang",1,0,0,0,2.69191,101.98838,"Persiaran Senawang 2
70450, Seremban
Negeri Sembilan","06-6766000","Negeri Sembilan"
"Klinik Kesihatan Sendayan (Felda)",1,0,0,0,2.67911,101.84599,"Felda Sendayan
71950, Seremban
Negeri Sembilan","06-7922073","Negeri Sembilan"
"Klinik Kesihatan Seremban",1,0,0,0,2.708479,101.938135,"Jalan Rasah
70300, Seremban
Negeri Sembilan","06-7679281","Negeri Sembilan"
"Klinik Kesihatan Seremban 2",1,0,0,0,2.706119,101.907688,"Jalan S2 A2
70300, Seremban
Negeri Sembilan","06-6033700","Negeri Sembilan"
"Klinik Kesihatan Sikamat",1,0,0,0,2.735133,102.953328,"Klinik Kesihatan Sikamat, Jln. Tunku Kurshiah,
70400, Seremban
Negeri Sembilan","-","Negeri Sembilan"
"Klinik Kesihatan Bukit Rokan Utara",1,0,0,0,2.663542,102.415984,"Gemencheh
73200, Tampin
Negeri Sembilan","06-4512600","Negeri Sembilan"
"Klinik Kesihatan Gemas",1,0,0,0,2.58425,102.60462,"Jalan Tok Sulong, Gemas
73400, Tampin
Negeri Sembilan","07-9482352 / 07-9481562","Negeri Sembilan"
"Klinik Kesihatan Gemencheh",1,0,0,0,2.5328,102.3997,"Gemencheh
73200, Tampin
Negeri Sembilan","06-4318304 / 06-4318251","Negeri Sembilan"
"Klinik Kesihatan Jelai",1,0,0,0,2.64586,102.4889,"Gemas, Tampin
73400, Tampin
Negeri Sembilan","06-4347488","Negeri Sembilan"
"Klinik Kesihatan Tampin",1,0,0,0,2.4845,102.23433,"Tampin
73000, Tampin
Negeri Sembilan","06-4431806 / 06-4415462","Negeri Sembilan"
"Klinik Kesihatan Air Kuning Selatan",1,0,0,0,2.51668,102.48401,"Gemencheh
73200, Tampin
Negeri Sembilan","06-4478730 / 06-4478731","Negeri Sembilan"
"Klinik Kesihatan Durian Tunggal",1,0,0,0,2.310834,102.286363,"Jalan Padang Keladi
76100, Alor Gajah
Melaka","06-5531133","Melaka"
"Klinik Kesihatan Hutan Percha",1,0,0,0,2.442639,102.300906,"Alor Gajah
78000, Alor Gajah
Melaka","06-5548224","Melaka"
"Klinik Kesihatan Kuala Sungai Baru",1,0,0,0,2.35955,102.04368,"Pekan Kuala Sungai Baru, Alor Gajah
78200, Alor Gajah
Melaka","06-3876333","Melaka"
"Klinik Kesihatan Lubok China",1,0,0,0,2.46534,102.0681,"Pekan Lubok China
78100, Alor Gajah
Melaka","06-6966475","Melaka"
"Klinik Kesihatan Macap Baru",1,0,0,0,2.37667,102.33814,"Km 17, Kampung Macap Baru
78000, Alor Gajah
Melaka","06-5252333","Melaka"
"Klinik Kesihatan Masjid Tanah",1,0,0,0,2.435814,102.177983,"Batu 18 1/2, Paya Rumput
78300, Alor Gajah
Melaka","06-3842533/ 06-3843012","Melaka"
"Klinik Kesihatan Padang Sebang",1,0,0,0,2.42607,102.24916,"Batu 19 1/2, Kampung Padang Sebang
78000, Alor Gajah
Melaka","06-5547932","Melaka"
"Klinik Kesihatan Simpang Ampat",1,0,0,0,2.435814,102.177983,"Batu 22, Kampung Simpang Empat
78000, Alor Gajah
Melaka","06-5529497","Melaka"
"Klinik Kesihatan Tebong",1,0,0,0,2.461879,102.34026,"Tebong
76460, Alor Gajah
Melaka","05-4486716","Melaka"
"Klinik Kesihatan Jasin",1,0,0,0,2.30674,102.43013,"Pej. Kes Jasin Melaka
77000, Jasin
Melaka","06-5294636","Melaka"
"Klinik Kesihatan Kemendor",1,0,0,0,2.35116,102.40417,"Jalan Bunga Kertas Melaka
77000, Jasin
Melaka","06-5293330","Melaka"
"Klinik Kesihatan Merlimau",1,0,0,0,2.15366,102.42805,"Kampung Merlimau, Jalan Besar Merlimau, Jasin
77300, Jasin
Melaka","06-2631533","Melaka"
"Klinik Kesihatan Selandar",1,0,0,0,2.38798,102.37254,"Jalan Macap
77500, Jasin
Melaka","06-5251495","Melaka"
"Klinik Kesihatan Simpang Bekoh",1,0,0,0,2.35861,102.51171,"Kampung Simpang Bekoh, Jalan Besar Asahan
77100, Jasin
Melaka","06-5236033","Melaka"
"Klinik Kesihatan Sungai Rambai",1,0,0,0,2.12459,102.49279,"Km 32, Jasin
77400, Jasin
Melaka","06-2659526","Melaka"
"Klinik Kesihatan Umbai",1,0,0,0,2.16005,102.342941,"Jalan Muar, Umbai
77300, Jasin
Melaka","06-2615606","Melaka"
"Klinik Kesihatan Felda Bukit Senggeh",1,0,0,0,2.38044,102.392938,"Felda Bukit Senggeh, Asahan
77100, Jasin
Melaka","06-5228305","Melaka"
"Klinik Kesihatan Nyalas",1,0,0,0,2.437446,102.468998,"Jkr 2016, Kuarters Klinik Kesihatan Nyalas, Pekan Nyalas, Asahan
77100, Jasin
Melaka","06-5228306","Melaka"
"Klinik Kesihatan Ayer Keroh",1,0,0,0,2.20416,102.31568,"Jalan Ayer Keroh Lama
75450, Melaka Tengah
Melaka","06-2312344","Melaka"
"Klinik Kesihatan Ayer Molek",1,0,0,0,2.20416,102.31568,"Jalan Air Molek
75460, Melaka Tengah
Melaka","06-2680333","Melaka"
"Klinik Kesihatan Bukit Rambai",1,0,0,0,2.254529,102.179914,"Jalan Bukit Rambai
75250, Melaka Tengah
Melaka","06-3512464","Melaka"
"Klinik Kesihatan Cheng",1,0,0,0,2.274482,102.215104,"Jalan Cheng
75250, Melaka Tengah
Melaka","06-3123333","Melaka"
"Klinik Kesihatan Jalan Gereja",1,0,0,0,2.19449,102.25008,"Bandar Kaba
75000, Melaka Tengah
Melaka","06-2824452","Melaka"
"Klinik Kesihatan Klebang Besar",1,0,0,0,2.21827,102.20053,"Jalan Klebang Besar
75200, Melaka Tengah
Melaka","06-3154144/ 06-3153952","Melaka"
"Klinik Kesihatan Peringgit",1,0,0,0,2.222318,102.254434,"Jalab Pantai Peringgit
75400, Melaka Tengah
Melaka","06-2882344","Melaka"
"Klinik Kesihatan Sungai Udang",1,0,0,0,2.280279,102.131551,"Batu 11 1/2, Sungai Udang
76300, Melaka Tengah
Melaka","06-3531333","Melaka"
"Klinik Kesihatan Seri Tanjung",1,0,0,0,2.223334,102.16333,"Batu 7 Pekan Tanjung Kling, Tanjung Kling
76400, Melaka Tengah
Melaka","06-3511333","Melaka"
"Klinik Kesihatan Tengkera",1,0,0,0,2.201313,102.238144,"Jalan Dato Wira Poh Ah Tiam, Lorong Pandan
75200, Melaka Tengah
Melaka","06-3360176","Melaka"
"Klinik Kesihatan Ujong Pasir",1,0,0,0,2.18729,102.27115,"Jalan Ujong Pasir Tengah
75050, Melaka Tengah
Melaka","06-2867333","Melaka"
"Klinik Kesihatan Ayer Hitam",1,0,0,0,2.02758,102.76519,"Batu 1 Jalan Yong Peng, Batu Pahat
86100, Batu Pahat
Johor","07-7581966","Johor"
"Klinik Kesihatan Bagan",1,0,0,0,1.849188,102.855339,"Mlo 091, Pekan Parit Besar Bagan, Bagan
83000, Batu Pahat
Johor","07-4138107","Johor"
"Klinik Kesihatan Batu Pahat",1,0,0,0,1.8501,102.942,"Ptd 6625, Jalan Kluang Batu Pahat, Simpang Kanan
83000, Batu Pahat
Johor","07-4343355","Johor"
"Klinik Kesihatan Parit Raja",1,0,0,0,1.863694,103.10959,"Mlo 261, Jalan Besar Air Hitam, Sri Gading
86400, Batu Pahat
Johor","07-4541237","Johor"
"Klinik Kesihatan Parit Sulong",1,0,0,0,1.977011,102.881409,"Lot 608, Pekan Parit Sulong, Simpang Kiri
83500, Batu Pahat
Johor","07-4186204","Johor"
"Klinik Kesihatan Parit Yaani",1,0,0,0,1.957593,103.027664,"Lot 9167, Pekan Parit Yaani, Mukim 7
83710, Batu Pahat
Johor","07-4846521","Johor"
"Klinik Kesihatan Pesta",1,0,0,0,1.85602,102.94301,"Ptd 13591, Kampung Kenang-Kenangan Dato' Onn, Jalan Perak, Simpang Kanan
83000, Batu Pahat
Johor","07-4343355","Johor"
"Klinik Kesihatan Rengit",1,0,0,0,1.350095,104.223969,"Tlo 52, Jalan Besar Rengit, Rengit
83500, Batu Pahat
Johor","07-4241224","Johor"
"Klinik Kesihatan Semerah",1,0,0,0,1.88143,102.78493,"Jalan Muar Semerah, Mukim 1 Lubok
83000, Batu Pahat
Johor","07-4162685","Johor"
"Klinik Kesihatan Senggarang",1,0,0,0,1.749411,103.045797,"No 24, 25, 26 & 27, Jalan Abdullah, Medan Bunga Cempaka Baru Senggarang
83200, Batu Pahat
Johor","07-4291015","Johor"
"Klinik Kesihatan Sri Gading",1,0,0,0,1.854231,103.027944,"Lot 5360, Jalan Kluang, Simpang Kanan
83000, Batu Pahat
Johor","07-4558216","Johor"
"Klinik Kesihatan Sri Medan",1,0,0,0,1.9878,102.96149,"Lot 5660, Pekan Sri Medan, Mukim 18
83400, Batu Pahat
Johor","07-4850272","Johor"
"Klinik Kesihatan Sri Merlong",1,0,0,0,1.733468,103.188941,"Lot 5086, Kampung Sri Merlong, Sungai Kluang
83100, Batu Pahat
Johor","07-4258511","Johor"
"Klinik Kesihatan Tongkang Pecah",1,0,0,0,1.909484,102.952112,"Ptd 1921, Jalan Besar Tongkang Pecah, Linau
83010, Batu Pahat
Johor","07-4152091","Johor"
"Klinik Kesihatan Yong Peng",1,0,0,0,2.008469,103.054958,"Lot 8905, Jalan Besar Yong Peng, Semerong
87000, Batu Pahat
Johor","07-4671361","Johor"
"Klinik Kesihatan Kampung Cahaya Baru",1,0,0,0,1.530564,103.931425,"Jkr 2116, Jln Perak, Kampung Cahaya Baru, Masai
81750, Johor Bahru
Johor","07-2612346","Johor"
"Klinik Kesihatan Gelang Patah",1,0,0,0,1.447719,103.590287,"Jkr 4176 Jalan Besar Gelang Patah
81550, Johor Bahru
Johor","07-5101252","Johor"
"Klinik Kesihatan Kempas",1,0,0,0,1.508123,103.707381,"Jkr 6044, Jln Persisiran Tanjung Tampoi
81200, Johor Bahru
Johor","07-2382060","Johor"
"Klinik Kesihatan Larkin",1,0,0,0,1.496965,103.748751,"Ptd 4999, Jalan Sentosa, Larkin
80350, Johor Bahru
Johor","07-2233249","Johor"
"Klinik Kesihatan Mahmoodiah",1,0,0,0,1.46247,103.74842,"Jkr 6274 Jalan Mahammodiah
80100, Johor Bahru
Johor","07-2266166","Johor"
"Klinik Kesihatan Majidee",1,0,0,0,1.51435,103.7575,"Pesakit Luar Kk Majidee, Jalan Tebrau Lama
81100, Johor Bahru
Johor","07-3323535","Johor"
"Klinik Kesihatan Masai",1,0,0,0,1.489205,103.885109,"Jkr 5638, Jalan Pekeliling Masai Bahru
81750, Johor Bahru
Johor","07-2521882 / 07-2511333","Johor"
"Klinik Kesihatan Pasir Gudang",1,0,0,0,1.463943,103.906293,"Jkr 5376, Jalan 8/1 Perjiranan 8 Bahru
81700, Johor Bahru
Johor","07-2510594","Johor"
"Klinik Kesihatan Paya Mengkuang",1,0,0,0,1.379188,103.589448,"Jkr 4091 Jln Kelasi, Desa Paya Mengkuang, Gelang Patah
81560, Johor Bahru
Johor","07-5080015","Johor"
"Klinik Kesihatan Sultan Ismail",1,0,0,0,1.547898,103.790287,"Jalan Persiaran Mutiara Emas Utama, Taman Mount Austin Bahru
81100, Johor Bahru
Johor","07-3577121","Johor"
"Klinik Kesihatan Taman Ungku Tun Aminah",1,0,0,0,1.525611,103.666933,"Lot 9, 11, 15, 17 Jln Sri Orkid 36, Tmn Sri Orkid, Skudai
81300, Johor Bahru
Johor","07-5113727","Johor"
"Klinik Kesihatan Taman Universiti",1,0,0,0,1.537953,103.626726,"Jalan Kebudayaan 28, Taman Universiti
81300, Johor Bahru
Johor","07-5216800","Johor"
"Klinik Kesihatan Tampoi",1,0,0,0,1.492824,103.705879,"Jkr 4969, Batu 5 Jalan Skudai
81200, Johor Bahru
Johor","07-2361030","Johor"
"Klinik Kesihatan Tebrau",1,0,0,0,1.48875,103.77123,"Jkr 5409, 5410, 5413 Jalan Kerambit, Taman Sri Tebrau
80050, Johor Bahru
Johor","07-3342067","Johor"
"Klinik Kesihatan Ulu Tiram",1,0,0,0,1.596701,103.820655,"Jkr 2159, Jln Besar Bahru
81800, Johor Bahru
Johor","07-8611402","Johor"
"Klinik Kesihatan Kahang Batu 22",1,0,0,0,2.21587,103.54075,"Lot 96, Jalan Mersing Batu 22, Kahang
86700, Kluang
Johor","07-7881229","Johor"
"Klinik Kesihatan Kahang Timur",1,0,0,0,2.08501,103.49439,"Jalan Merak, Felda Kahang Timur Johor
86000, Kluang
Johor","07-7866633","Johor"
"Klinik Kesihatan Layang-Layang",1,0,0,0,1.818464,103.473491,"Jalan Pejabat Pos, Layang-Layang
81850, Kluang
Johor","07-7527233","Johor"
"Klinik Kesihatan Mengkibol",1,0,0,0,2.00698,103.32225,"Jalan Mengkibol
86000, Kluang
Johor","07-7765343","Johor"
"Klinik Kesihatan Paloh",1,0,0,0,2.187405,103.195591,"No 139 Jalan Klinik, Paloh
86600, Kluang
Johor","07-7811059","Johor"
"Klinik Kesihatan Renggam",1,0,0,0,1.88333,103.39639,"Ptd 2495, Jalan Simpang Renggam, Renggam
86300, Kluang
Johor","07-7535255","Johor"
"Klinik Kesihatan Simpang Renggam",1,0,0,0,1.82613,103.30522,"Klinik Kesihatan 3 Jalan Rambutan
86200, Kluang
Johor","07-7554143","Johor"
"Klinik Kesihatan Ulu Belitong",1,0,0,0,1.94728,103.47502,"Jalan Cemara, Felda Ulu Belitong
86007, Kluang
Johor","07-7863333","Johor"
"Klinik Kesihatan Air Tawar 2",1,0,0,0,1.678369,104.021627,"Felda Air Tawar 2
81920, Kota Tinggi
Johor","07-8932207","Johor"
"Klinik Kesihatan Air Tawar 5 (Felda)",1,0,0,0,1.606242,104.088237,"Felda Air Tawar 5
81900, Kota Tinggi
Johor","07-8952872","Johor"
"Klinik Kesihatan Bandar Mas",1,0,0,0,1.611851,104.153978,"Bandar Mas Johor
81900, Kota Tinggi
Johor","07-8236155","Johor"
"Klinik Kesihatan Bandar Penawar",1,0,0,0,1.555327,104.240174,"Jln Pembangunan, Bandar Penawar
81930, Kota Tinggi
Johor","07-8221064","Johor"
"Klinik Kesihatan Bandar Tenggara",1,0,0,0,1.8633,103.62292,"Kulaijaya
81440, Kota Tinggi
Johor","07-8966199","Johor"
"Klinik Kesihatan Bukit Besar",1,0,0,0,1.76828,103.70677,"Felda Bukit Besar, Kulai Jaya
81450, Kota Tinggi
Johor","07-8977255 / 07-8976130","Johor"
"Klinik Kesihatan Bukit Waha",1,0,0,0,1.75213,104.07389,"Felda Bukit Waha
81907, Kota Tinggi
Johor","07-8925595","Johor"
"Klinik Kesihatan Lok Heng",1,0,0,0,1.74112,103.89785,"Jalan Amanah
81900, Kota Tinggi
Johor","07-8947188 / 07-8947016","Johor"
"Klinik Kesihatan Pengerang",1,0,0,0,1.365,104.10944,"Felda Lok Heng, Tanjung Surat
81600, Kota Tinggi
Johor","07-8252455","Johor"
"Klinik Kesihatan Sedili Besar",1,0,0,0,1.926,104.12123,"Lot 218, Jalan Hj Md Lazim, Kambu
81910, Kota Tinggi
Johor","07-8899870","Johor"
"Klinik Kesihatan Sening",1,0,0,0,1.479973,104.181573,"Kota Tinggi
81900, Kota Tinggi
Johor","07-8277398 / 07-8276168","Johor"
"Klinik Kesihatan Sungai Rengit",1,0,0,0,1.3501,104.22397,"Pengerang
81620, Kota Tinggi
Johor","07-8263285 / 07-8264290","Johor"
"Klinik Kesihatan Tanjong Sedili",1,0,0,0,1.92539,104.10883,"Felda Sening
81910, Kota Tinggi
Johor","07-8918370 / 07-8916751","Johor"
"Klinik Kesihatan Bayu Damai",1,0,0,0,1.38985,104.264112,"Pengerang
81600, Kota Tinggi
Johor","07-8264311","Johor"
"Klinik Kesihatan Kulai",1,0,0,0,1.64089,103.621652,"Jalan Pejabat Kerajaan, Kulai
81000, Kulai Jaya
Johor","07-6625255","Johor"
"Klinik Kesihatan Kulai Besar",1,0,0,0,1.655536,103.607151,"Batu 19 Jalan Air Hitam
81000, Kulai Jaya
Johor","07-6622403","Johor"
"Klinik Kesihatan Bukit Gambir",1,0,0,0,2.213067,102.626325,"Lot 11961, Klinik Kesihatan Bukit Gambir
84800, Ledang
Johor","06-9762549 / 06-9761353","Johor"
"Klinik Kesihatan Bukit Serampang",1,0,0,0,2.213067,102.783892,"Lot 4470, Klinik Kesihatan Bukit Serampang
85220, Ledang
Johor","06-9776961","Johor"
"Klinik Kesihatan Gersik",1,0,0,0,2.20895,102.705306,"Ptd 7800, Klinik Kesihatan Gersik
84700, Ledang
Johor","06-9728780","Johor"
"Klinik Kesihatan Payamas",1,0,0,0,2.2751,102.54554,"Pt 1405, Klinik Kesihatan Payamas, Jalan Payamas
84900, Ledang
Johor","06-9781861","Johor"
"Klinik Kesihatan Sagil",1,0,0,0,2.3036,102.61189,"Pt 8814, Klinik Kesihatan Sagil, Jalan Segamat
84020, Ledang
Johor","06-9772244","Johor"
"Klinik Kesihatan Sungai Mati",1,0,0,0,2.14687,102.563322,"Lot Mlo 1052 Tl0373, Klinik Kesihatan Sungai Mati
84400, Ledang
Johor","06-9751054","Johor"
"Klinik Kesihatan Endau",1,0,0,0,2.6498,103.62331,"Jln Sekolah
86900, Mersing
Johor","07-7945066 / 07-7943214","Johor"
"Klinik Kesihatan Jemaluang",1,0,0,0,2.26769,103.85453,"Mersing
86810, Mersing
Johor","07-7921271","Johor"
"Klinik Kesihatan Mersing Kanan",1,0,0,0,2.436755,103.834298,"Jalan Endau
86800, Mersing
Johor","07-7992005","Johor"
"Klinik Kesihatan Nitar 1",1,0,0,0,2.386458,103.712455,"Jalan, Merbah
86800, Mersing
Johor","07-7961633","Johor"
"Klinik Kesihatan Tenggaroh 02",1,0,0,0,2.15435,103.907318,"Jemaluang
86810, Mersing
Johor","07-7911267","Johor"
"Klinik Kesihatan Tenglu",1,0,0,0,2.494703,103.800974,"Kilometer 8, Jalan Endau
86800, Mersing
Johor","07-7991276 / 07-7993676","Johor"
"Klinik Kesihatan Air Hitam",1,0,0,0,2.02758,102.76519,"Lot 2984, Bt 15, Bukit Naning, Jalan Muar Ke Pt Sulong,
86100, Muar
Johor","07-4212512","Johor"
"Klinik Kesihatan Bakri",1,0,0,0,2.040522,102.65956,"Jalan Batu Nampak, Bakri Batu 6,
84200, Muar
Johor","06-9864808","Johor"
"Klinik Kesihatan Bandar Maharani",1,0,0,0,2.05811,102.57649,"1507, Jalan Sg Abong
84000, Muar
Johor","06-9539729","Johor"
"Klinik Kesihatan Bukit Pasir",1,0,0,0,2.099233,102.639881,"Lot 2355, Jalan Muar Ke Pagoh  Bukit Pasir,
84300, Muar
Johor","06-9856196","Johor"
"Klinik Kesihatan Kampung Kenangan",1,0,0,0,2.050051,102.585121,"No 264-5, Jalan Kenangan 1, Taman Tun Dr Ismail, Jalan Bakri Batu 1 1/2 ,
84000, Muar
Johor","06-9523563","Johor"
"Klinik Kesihatan Lenga",1,0,0,0,2.25921,102.83195,"Ptd 6675,Kg Saujana,  Batu 29 Lenga,
84040, Muar
Johor","06-9711445","Johor"
"Klinik Kesihatan Pagoh",1,0,0,0,2.151526,102.774849,"Pt Mlo 2599, Bt 18, Jalan Pagoh - Lenga,
84600, Muar
Johor","06-9746270","Johor"
"Klinik Kesihatan Parit Bakar",1,0,0,0,1.999948,102.608467,"Lot 3588, Jalan Temenggong Ahmad
84000, Muar
Johor","06-9811324","Johor"
"Klinik Kesihatan Parit Jawa",1,0,0,0,1.961045,102.642264,"Lot 24, Jalan Temenggong Ahmad
84150, Muar
Johor","06-9874252","Johor"
"Klinik Kesihatan Parit Yusof",1,0,0,0,1.896308,102.760324,"Lot 241, Jalan Muar Batu Pahat,
83500, Muar
Johor","07-4161277","Johor"
"Klinik Kesihatan Sri Menanti",1,0,0,0,1.910041,102.687046,"Pt 3692,Jalan Muar Ke Batu Pahat
84160, Muar
Johor","06-9881059","Johor"
"Klinik Kesihatan Ayer Baloi",1,0,0,0,1.59209,103.33129,"Ayer Baloi
82100, Pontian
Johor","07-6931213 / 07-6933712","Johor"
"Klinik Kesihatan Benut",1,0,0,0,1.6457,103.25844,"Jalan Parit Ismail
82200, Pontian
Johor","07-6903633","Johor"
"Klinik Kesihatan Kayu Ara Pasong",1,0,0,0,1.55899,103.40154,"Jln Kayu Ara Pasong, Api-Api
82010, Pontian
Johor","07-6951355","Johor"
"Klinik Kesihatan Parit Ismail",1,0,0,0,1.70056,103.28805,"Jln Parit Ismail
82200, Pontian
Johor","07-6903671","Johor"
"Klinik Kesihatan Pekan Nanas",1,0,0,0,1.5083,103.51215,"Jln Pekan Nanas
81500, Pontian
Johor","07-6994352","Johor"
"Klinik Kesihatan Penerok",1,0,0,0,1.3793,103.44175,"Jln Kukup
82300, Pontian
Johor","07-6960311","Johor"
"Klinik Kesihatan Pontian",1,0,0,0,1.50111,103.383333,"Jalan Alsagoff
82000, Pontian
Johor","07-6868211 / 212 / 213","Johor"
"Klinik Kesihatan Serkat",1,0,0,0,1.303094,103.488896,"Jalan Serkat Johor
82300, Pontian
Johor","07-6960359","Johor"
"Klinik Kesihatan Bandar Putra",1,0,0,0,2.49426,102.86282,"Jalan Genuang, Bandar Putra
85000, Segamat
Johor","07-9436099","Johor"
"Klinik Kesihatan Batu Anam",1,0,0,0,2.5752,102.70816,"Jalan Bukit Cantik, Jalan Muar, Batu Anam
85100, Segamat
Johor","07-9499249","Johor"
"Klinik Kesihatan Bekok",1,0,0,0,2.29801,103.13418,"Jalan Gunung, Bekok
86500, Segamat
Johor","07-9221241","Johor"
"Klinik Kesihatan Buloh Kasap",1,0,0,0,2.544737,102.770492,"Jalan Tasik Alai, Buluh Kasap
85010, Segamat
Johor","07-9441241","Johor"
"Klinik Kesihatan Chaah",1,0,0,0,2.24736,103.04128,"Chaah
85400, Segamat
Johor","07-9261236","Johor"
"Klinik Kesihatan Jementah",1,0,0,0,2.43948,102.68464,"Jalan Muar, Jementah
85200, Segamat
Johor","07-9475097 / 07-9471321","Johor"
"Klinik Kesihatan Labis",1,0,0,0,2.38043,103.0189,"Jalan Pejabat
85300, Segamat
Johor","07-9251500","Johor"
"Klinik Kesihatan Pekan Air Panas",1,0,0,0,2.47231,103.05798,"Pekan Air Panas
85300, Segamat
Johor","07-9287008","Johor"
"Klinik Kesihatan Pemanis",1,0,0,0,2.59987,102.90162,"Felda Pemanis
85009, Segamat
Johor","07-9456673","Johor"
"Klinik Kesihatan Segamat",1,0,0,0,2.50516,102.81534,"Jalan Muar
85000, Segamat
Johor","07-9313334","Johor"
"Klinik Kesihatan Karak",1,0,0,0,3.41801,102.0305,"Jalan Besar
28600, Bentong
Pahang","09-2311245","Pahang"
"Klinik Kesihatan Lurah Bilut (Felda)",1,0,0,0,3.66061,101.89109,"Bentong
28800, Bentong
Pahang","09-2377333","Pahang"
"Klinik Kesihatan Mempaga",1,0,0,0,3.536348,101.960443,"Karak
28600, Bentong
Pahang","09-2377954","Pahang"
"Klinik Kesihatan Simpang Pelangai",1,0,0,0,3.177132,102.192914,"Bentong
28740, Bentong
Pahang","09-2480755","Pahang"
"Klinik Kesihatan Telemong",1,0,0,0,3.357817,102.064753,"Karak
28620, Bentong
Pahang","09-2399972","Pahang"
"Klinik Kesihatan Bentong",1,0,0,0,3.53981,101.90216,"Batu 1 Jalan Terap Pahang
28700, Bentong
Pahang","09-2220134","Pahang"
"Klinik Kesihatan Cemomoi",1,0,0,0,3.255115,102.243764,"Felda Chemomoi
28310, Bentong
Pahang","09-2450926","Pahang"
"Klinik Kesihatan Bandar Bera 32",1,0,0,0,3.263953,102.606729,"Bandar Bera 32
28300, Bera
Pahang","09-2461988","Pahang"
"Klinik Kesihatan Bukit Mendi",1,0,0,0,3.20475,102.30604,"Triang
28320, Bera
Pahang","09-2450161","Pahang"
"Klinik Kesihatan Kemayan",1,0,0,0,3.13866,102.37524,"Kemayan
28320, Bera
Pahang","09-2409715","Pahang"
"Klinik Kesihatan Triang",1,0,0,0,3.245324,102.423391,"Bandar Triang
28300, Bera
Pahang","09-2555333","Pahang"
"Klinik Kesihatan Tembangau",1,0,0,0,3.107719,102.534376,"Kemayan
28380, Bera
Pahang","06-4685730","Pahang"
"Klinik Kesihatan Padang Luas",1,0,0,0,3.2956,102.46167,"Pej. Kes. Daerah Bera, Tingkat 1 Klinik Kesihatan Padang Luas, Bandar Bera
28200, Bera
Pahang","09-2552062","Pahang"
"Klinik Kesihatan Purun",1,0,0,0,3.374969,102.631531,"Felda Purun
28200, Bera
Pahang","09-2481585","Pahang"
"Klinik Kesihatan Tanah Rata",1,0,0,0,4.47126,101.37918,"Pej. Kes. Daerah Cameron Highland
39000, Cameron Highlands
Pahang","05-4911257/ 05-4911966","Pahang"
"Klinik Kesihatan Kampung Raja",1,0,0,0,4.5671,101.40765,"Kampung Raja
39010, Cameron Highlands
Pahang","05-4982372","Pahang"
"Klinik Kesihatan Ringlet",1,0,0,0,4.41358,101.381,"Ringlet
39200, Cameron Highlands
Pahang","05-4956581","Pahang"
"Klinik Kesihatan Damak",1,0,0,0,3.949779,102.212344,"Jerantut
27300, Jerantut
Pahang","09-2681488/ 09-2681425","Pahang"
"Klinik Kesihatan Jengka 8",1,0,0,0,3.85485,102.49193,"Bandar Jengka
26400, Jerantut
Pahang","09-2081555/ 09-2081554","Pahang"
"Klinik Kesihatan Kampung Bantal",1,0,0,0,4.501045,102.64668,"Kg. Bantal
27020, Jerantut
Pahang","09-3080400","Pahang"
"Klinik Kesihatan Kuala Tahan",1,0,0,0,4.382527,102.402105,"Jerantut
27020, Jerantut
Pahang","09-2667468","Pahang"
"Klinik Kesihatan Kuala Tembeling",1,0,0,0,4.0664,102.31799,"Jerantut
27020, Jerantut
Pahang","09-3086033","Pahang"
"Klinik Kesihatan Lepar Utara 4",1,0,0,0,3.905966,102.795799,"Poliklinik Komuniti Lepar Utara 4, Bandar Tun Razak Jengka Pahang
26400, Jerantut
Pahang","09-4741523","Pahang"
"Klinik Kesihatan Sg.Tekam Utara",1,0,0,0,3.890387,102.596993,"Felda Sg.Tekam Utara Jerantut Pahang
27060, Jerantut
Pahang","09-4811526/ 09-4811471","Pahang"
"Klinik Kesihatan Padang Piol",1,0,0,0,4.038843,102.380858,"Jerantut
27040, Jerantut
Pahang","09-2668448","Pahang"
"Klinik Kesihatan Sungai Lekok",1,0,0,0,3.90106,102.33061,"Lekok
27300, Jerantut
Pahang","09-2667608","Pahang"
"Klinik Kesihatan Bandar Jerantut",1,0,0,0,3.951488,102.361973,"Jerantut
27000, Jerantut
Pahang","09-2662202","Pahang"
"Klinik Kesihatan Jerantut Feri",1,0,0,0,3.9586,102.42412,"Jalan Gintang, Kampung Jerantut Feri
27000, Jerantut
Pahang","09-2667739","Pahang"
"Klinik Kesihatan Balok",1,0,0,0,3.932889,103.372207,"Kuantan
26100, Kuantan
Pahang","09-5834533","Pahang"
"Klinik Kesihatan Bandar Kuantan",1,0,0,0,3.821784,103.324946,"Jalan Dato Lim Hoe Lek Pahang
25200, Kuantan
Pahang","09-5132055","Pahang"
"Klinik Kesihatan Beserah",1,0,0,0,3.85006,103.362594,"Kuantan
26100, Kuantan
Pahang","09-5445633","Pahang"
"Klinik Kesihatan Bukit Goh (Felda)",1,0,0,0,3.880825,103.263502,"Kuantan
26050, Kuantan
Pahang","09-5478355","Pahang"
"Klinik Kesihatan Gambang",1,0,0,0,3.70778,103.10862,"Kuantan
26300, Kuantan
Pahang","09-54846111","Pahang"
"Klinik Kesihatan Jaya Gading",1,0,0,0,3.75325,103.20386,"Bandar Baru Jaya Gading, Jalan Gambang Kuantan Pahang
26070, Kuantan
Pahang","09-5384252","Pahang"
"Klinik Kesihatan Sungai Lembing",1,0,0,0,3.92532,103.07251,"Sungai Lembing
26200, Kuantan
Pahang","09-5411598","Pahang"
"Klinik Kesihatan Permatang Badak",1,0,0,0,3.788912,103.268922,"Kuantan
25150, Kuantan
Pahang","09-5364626","Pahang"
"Klinik Kesihatan Kurnia",1,0,0,0,3.779994,103.283223,"Batu 3, Jalan Gambang
25150, Kuantan
Pahang","09-5361333","Pahang"
"Klinik Kesihatan Paya Besar",1,0,0,0,3.777211,103.27567,"Jalan Baipas Pahang
25100, Kuantan
Pahang","09-5395433/ 5434","Pahang"
"Klinik Kesihatan Indera Mahkota",1,0,0,0,3.82448,103.28698,"Jlm Indera Mahkota 4, Bandar Indera Mahkota
25582, Kuantan
Pahang","09-5736572","Pahang"
"Klinik Kesihatan Benta",1,0,0,0,4.01321,101.96057,"Benta
27300, Lipis
Pahang","09-3239211","Pahang"
"Klinik Kesihatan Bukit Betong",1,0,0,0,4.256537,101.920825,"Kuala Lipis
27200, Lipis
Pahang","09-3291212","Pahang"
"Klinik Kesihatan Mela",1,0,0,0,4.07371,102.26917,"Kuala Lipis
27200, Lipis
Pahang","09-3129424","Pahang"
"Klinik Kesihatan Merapoh",1,0,0,0,4.690787,102.00434,"Kuala Lipis
27210, Lipis
Pahang","09-9122377","Pahang"
"Klinik Kesihatan Padang Tengku",1,0,0,0,4.234362,101.988972,"Kg Padang Tengku
27100, Lipis
Pahang","09-3291533","Pahang"
"Klinik Kesihatan Sungai Koyan",1,0,0,0,4.21757,101.79781,"Poliklinik Komuniti Sungai Koyan
27650, Lipis
Pahang","09-3401533","Pahang"
"Klinik Kesihatan Jerkoh",1,0,0,0,4.040373,101.954873,"Benta
27300, Lipis
Pahang","09-3239440","Pahang"
"Klinik Kesihatan Pos Betau",1,0,0,0,4.285551,101.805265,"Kuala Lipis
27200, Lipis
Pahang","09-3401533 (KK Sungai Koyan)","Pahang"
"Klinik Kesihatan Bandar Jengka",1,0,0,0,3.76578,102.54261,"Bandar Jengka
26400, Maran
Pahang","09-4677198/ 09-4677197","Pahang"
"Klinik Kesihatan Chenor",1,0,0,0,3.47943,102.5922,"Chenor
28100, Maran
Pahang","09-2995391","Pahang"
"Klinik Kesihatan Jengka 2",1,0,0,0,3.715155,102.612708,"Bandar Jengka
26400, Maran
Pahang","09-4764320","Pahang"
"Klinik Kesihatan Jengka 22",1,0,0,0,3.71853,102.4756,"Poliklinik Komuniti Felda Jengka 22, Bandar Jengka
26400, Maran
Pahang","09-4864423","Pahang"
"Klinik Kesihatan Maran",1,0,0,0,3.58474,102.77425,"Maran
26500, Maran
Pahang","09-4771333","Pahang"
"Klinik Kesihatan Pekan Awah",1,0,0,0,3.493259,102.531304,"Maran
28000, Maran
Pahang","09-2986333","Pahang"
"Klinik Kesihatan Pekan Tajau",1,0,0,0,3.56058,102.69084,"Maran
26500, Maran
Pahang","09-4774782/ 09-4774621","Pahang"
"Klinik Kesihatan Jengka 7",1,0,0,0,3.61616,102.61515,"Klinik Kesihatan Jengka 7
26400, Maran
Pahang","09-4671566","Pahang"
"Klinik Kesihatan Chini",1,0,0,0,3.37456,102.94578,"Felda Chini 1
26690, Pekan
Pahang","09-4566333","Pahang"
"Klinik Kesihatan Nenasi",1,0,0,0,3.140533,103.441185,"Kampong Nenasi
26680, Pekan
Pahang","09-4181233","Pahang"
"Klinik Kesihatan Padang Rumbia",1,0,0,0,3.530563,103.202001,"Kg. Padang Rumbia
26650, Pekan
Pahang","09-4281205","Pahang"
"Klinik Kesihatan Peramu Jaya",1,0,0,0,3.54629,103.383,"Peramu Jaya
26600, Pekan
Pahang","09-4269609","Pahang"
"Klinik Kesihatan Runchang",1,0,0,0,3.354456,103.032088,"Pekan
26690, Pekan
Pahang","09-4530791","Pahang"
"Klinik Kesihatan Bandar Pekan",1,0,0,0,3.489294,103.393428,"Pekan
26600, Pekan
Pahang","09-4221044","Pahang"
"Klinik Kesihatan Cheroh",1,0,0,0,3.911918,101.811647,"Raub
27610, Raub
Pahang","09-3697228","Pahang"
"Klinik Kesihatan Dong",1,0,0,0,3.90105,101.89547,"Raub
27400, Raub
Pahang","09-3658355","Pahang"
"Klinik Kesihatan Jeruas",1,0,0,0,3.981466,101.904628,"Sega Pahang
27660, Raub
Pahang","09-3657333 (MCH)/09-365798 (OPD)","Pahang"
"Klinik Kesihatan Lembah Klau",1,0,0,0,3.689875,102.004253,"Raub
27630, Raub
Pahang","09-3688333","Pahang"
"Klinik Kesihatan Tersang",1,0,0,0,3.98459,101.782565,"Felda Tersang
27600, Raub
Pahang","09-3403086","Pahang"
"Klinik Kesihatan Ulu Gali",1,0,0,0,3.823146,101.933624,"Raub
27600, Raub
Pahang","09-3686355 (MCH)/ 09-3686826 (OPD)","Pahang"
"Klinik Kesihatan Bukit Fraser",1,0,0,0,3.711193,101.753769,"Bukit Fraser
49000, Raub
Pahang","09-3622333","Pahang"
"Klinik Kesihatan Bandar Tun Razak",1,0,0,0,2.9041,102.89988,"Bandar Tun Razak
26900, Rompin
Pahang","09-4457297","Pahang"
"Klinik Kesihatan Bukit Ibam",1,0,0,0,3.164705,102.976785,"Bukit Ibam
26760, Rompin
Pahang","09-4585231","Pahang"
"Klinik Kesihatan Chanis",1,0,0,0,2.857706,102.984424,"Felda Kratong 7, Bandar Chanis
26800, Rompin
Pahang","09-4471106","Pahang"
"Klinik Kesihatan Perantau Damai",1,0,0,0,2.963784,102.981827,"Muadzam Shah
26700, Rompin
Pahang","09-4431333","Pahang"
"Klinik Kesihatan Perwira Jaya",1,0,0,0,2.687101,102.949297,"Muadzam Shah
26700, Rompin
Pahang","09-4371176","Pahang"
"Klinik Kesihatan Rompin",1,0,0,0,2.80147,103.48048,"Kuala Rompin
26800, Rompin
Pahang","09-4145333","Pahang"
"Klinik Kesihatan Tanjung Gemok",1,0,0,0,2.67073,103.61386,"Kuala Rompin
26820, Rompin
Pahang","09-4132510","Pahang"
"Klinik Kesihatan Tekek",1,0,0,0,2.81716,104.15831,"Pulau Tioman, Kuala Rompin
26800, Rompin
Pahang","09-4191880","Pahang"
"Klinik Kesihatan Leban Chondong",1,0,0,0,2.88987,103.42779,"Leban Chondong, K.Rompin
26800, Rompin
Pahang","09-4141237","Pahang"
"Klinik Kesihatan Bandar Mentakab",1,0,0,0,3.48071,102.34205,"Jalan Karak
28400, Temerloh
Pahang","09-2771845","Pahang"
"Klinik Kesihatan Kuala Krau",1,0,0,0,3.70952,102.36537,"Poliklinik Kesihatan Masyarakat, Kuala Krau
28050, Temerloh
Pahang","09-2861242/ 09-2862912","Pahang"
"Klinik Kesihatan Lanchang",1,0,0,0,3.49942,102.18489,"Lanchang
28500, Temerloh
Pahang","09-2803233","Pahang"
"Klinik Kesihatan Sanggang, Temerloh Pahang",1,0,0,0,3.52681,102.42243,"Sanggang
28020, Temerloh
Pahang","09-2846333","Pahang"
"Klinik Kesihatan Temerloh",1,0,0,0,3.44604,102.423713,"Jalan Triang
28000, Temerloh
Pahang","09-2961275","Pahang"
"Klinik Kesihatan Kerdau",1,0,0,0,3.579173,102.382642,"Kerdau
28010, Temerloh
Pahang","09-2847003","Pahang"
"Klinik Kesihatan Tanjung Lalang",1,0,0,0,3.516495,102.396777,"Jalan Mentakab
28000, Temerloh
Pahang","09-2961152","Pahang"
"Klinik Kesihatan Jabi",1,0,0,0,5.67253,102.58673,"Jerteh, Jalan Kuala Terengganu
22020, Besut
Terengganu","09-6941288 / 09-6942963","Terengganu"
"Klinik Kesihatan Jerteh",1,0,0,0,5.737004,102.493242,"Jalan Pasir Akar
22000, Besut
Terengganu","09-6971433","Terengganu"
"Klinik Kesihatan Kg. Raja Besut",1,0,0,0,5.79694,102.56469,"Besut
22200, Besut
Terengganu","09-6956341 / 09-6953853","Terengganu"
"Klinik Kesihatan Kuala Besut",1,0,0,0,5.83377,102.54075,"Jalan Semerak
22300, Besut
Terengganu","09-6919333 / 09-6917664","Terengganu"
"Klinik Kesihatan Pasir Akar",1,0,0,0,5.638028,102.504586,"Jerteh, Besut
22010, Besut
Terengganu","09-6975373 / 09-6917644","Terengganu"
"Klinik Kesihatan Pulau Perhentian",1,0,0,0,5.827006,102.567877,"Kg. Pulau Perhentian, Kuala Besut
22300, Besut
Terengganu","09-6911733","Terengganu"
"Klinik Kesihatan Sri Medang",1,0,0,0,5.76239,102.59756,"Kampung Raja
22200, Besut
Terengganu","09-6958386/ 09-6958387","Terengganu"
"Klinik Kesihatan Padang Luas",1,0,0,0,5.741271,102.476048,"Jertih, Besut
22000, Besut
Terengganu","09-6903239 / 09-6903160","Terengganu"
"Klinik Kesihatan Sri Langkap",1,0,0,0,5.360917,102.880667,"Sg Tong
21500, Setiu
Terengganu","09-6571997","Terengganu"
"Klinik Kesihatan Kampung Rahmat",1,0,0,0,5.4653,102.801267,"Chalok
21450, Setiu
Terengganu","09-8240833 / 09-6663733","Terengganu"
"Klinik Kesihatan Bandar Permaisuri",1,0,0,0,5.52985,102.7386,"Bandar Permaisuri Setiu
22100, Setiu
Terengganu","09-6097633","Terengganu"
"Klinik Kesihatan Sungai Tong",1,0,0,0,5.307317,102.907417,"Setiu
21500, Setiu
Terengganu","09-8240833","Terengganu"
"Klinik Kesihatan Almuktafi Billah Shah",1,0,0,0,4.625,103.206944,"Al-Muktafi Billah Shah
23400, Dungun
Terengganu","09-8221333","Terengganu"
"Klinik Kesihatan Bukit Besi",1,0,0,0,4.755278,103.185556,"Bukit Besi
23200, Dungun
Terengganu","09-8337236","Terengganu"
"Klinik Kesihatan Jerangau",1,0,0,0,4.905,103.19,"Ajil
21820, Dungun
Terengganu","09-8384333","Terengganu"
"Klinik Kesihatan Ketengah Jaya",1,0,0,0,4.571389,103.311389,"Bandar Ketengah Jaya
23300, Dungun
Terengganu","09-8200233","Terengganu"
"Klinik Kesihatan Kuala Abang",1,0,0,0,4.816944,103.420556,"Jalan Klinik Kuala Abang
23050, Dungun
Terengganu","09-8442333","Terengganu"
"Klinik Kesihatan Kuala Dungun",1,0,0,0,4.761389,103.413889,"Jalan Alor Tembesu
23000, Dungun
Terengganu","09-8458820","Terengganu"
"Klinik Kesihatan Paka",1,0,0,0,4.631389,103.4375,"Paka
23100, Dungun
Terengganu","09-8271333","Terengganu"
"Klinik Kesihatan Ajil",1,0,0,0,5.116775,103.048703,"Ajil
21800, Hulu Terengganu
Terengganu","09-6861633","Terengganu"
"Klinik Kesihatan Felda Mengkawang",1,0,0,0,4.862723,103.030944,"Ajil
21800, Hulu Terengganu
Terengganu","09-6881896","Terengganu"
"Klinik Kesihatan Kuala Berang",1,0,0,0,5.075211,103.011944,"Hospital Hulu, Kuala Berang
21700, Hulu Terengganu
Terengganu","09-6811597 / 09-6814061","Terengganu"
"Klinik Kesihatan Telemong",1,0,0,0,5.21905,103.030697,"Jalan Kuala Telemong, Kuala Berang
21210, Hulu Terengganu
Terengganu","09-6142997","Terengganu"
"Klinik Kesihatan Tengkawang",1,0,0,0,5.153064,102.936161,"Kuala Berang, Hulu
21700, Hulu Terengganu
Terengganu","09-6818710","Terengganu"
"Klinik Kesihatan Air Puteh",1,0,0,0,4.271064,103.212217,"Jalan Air Puteh
24050, Kemaman
Terengganu","09-8593355/ 09-8585560","Terengganu"
"Klinik Kesihatan Batu 2 1/2",1,0,0,0,4.239574,103.398465,"Jalan Air Putih
24000, Kemaman
Terengganu","09-8581540","Terengganu"
"Klinik Kesihatan Kijal",1,0,0,0,4.333181,103.486136,"Jalan Pantai Penunjuk
24100, Kemaman
Terengganu","09-8589925","Terengganu"
"Klinik Kesihatan Kuala Kemaman",1,0,0,0,4.215717,103.436028,"Kuala Kemaman
24000, Kemaman
Terengganu","09-8683659","Terengganu"
"Klinik Kesihatan Sri Bandi",1,0,0,0,4.380972,103.323822,"Jalan Bunga Raya
24000, Kemaman
Terengganu","09-8676254/ 09-8676089","Terengganu"
"Klinik Kesihatan Cheneh",1,0,0,0,4.12425,103.243264,"Bnadar Baru Cheneh
24000, Kemaman
Terengganu","09-8730100","Terengganu"
"Klinik Kesihatan Cherul",1,0,0,0,4.123192,103.17559,"Kemaman
24000, Kemaman
Terengganu","09-8730895","Terengganu"
"Klinik Kesihatan Chukai",1,0,0,0,4.239422,103.418272,"Jalan Sentosa
24000, Kemaman
Terengganu","09-8591619","Terengganu"
"Klinik Kesihatan Kemasik",1,0,0,0,4.427736,103.452517,"Kemasik Terengganu
24200, Kemaman
Terengganu","09-8640033 / 09-8642800","Terengganu"
"Klinik Kesihatan Kerteh",1,0,0,0,4.503642,103.440789,"Kerteh, Kemaman
24300, Kemaman
Terengganu","09-8261333","Terengganu"
"Klinik Kesihatan Batu Rakit",1,0,0,0,5.42602,103.05901,"Jalan Batu Rakit
21030, Kuala Terengganu
Terengganu","09-6693331","Terengganu"
"Klinik Kesihatan Bukit Tunggal",1,0,0,0,5.344222,103.107889,"Kampung Bukit Tunggal
21200, Kuala Terengganu
Terengganu","09-6626275/ 06-6626271","Terengganu"
"Klinik Kesihatan Hiliran",1,0,0,0,5.313722,103.134472,"Jalan Kemajuan Bukit Kecil
20648, Kuala Terengganu
Terengganu","09-6232732","Terengganu"
"Klinik Kesihatan Manir",1,0,0,0,5.321639,103.081583,"Kampung Kubang Jela
21200, Kuala Terengganu
Terengganu","09-6151447","Terengganu"
"Klinik Kesihatan Pulau Redang",1,0,0,0,5.779326,103.010782,"Kampung Baru Pulau Redang
21090, Kuala Nerus
Terengganu","09-6300055 PKD NERUS","Terengganu"
"Klinik Kesihatan Seberang Takir",1,0,0,0,5.375722,103.116944,"Jalan Telok Ketapang
21300, Kuala Terengganu
Terengganu","09-6663333","Terengganu"
"Klinik Kesihatan Binjai Rendah",1,0,0,0,5.20047,103.199078,"Bukit Payong
21040, Marang
Terengganu","09-6192050","Terengganu"
"Klinik Kesihatan Bukit Payong",1,0,0,0,5.235867,103.0998,"Marang
21400, Marang
Terengganu","09-6195805 / 09-6191333","Terengganu"
"Klinik Kesihatan Marang",1,0,0,0,5.204433,103.20565,"Marang
21600, Marang
Terengganu","09-6182216 / 09-6182030","Terengganu"
"Klinik Kesihatan Merchang",1,0,0,0,5.020217,103.302217,"Marang
21610, Marang
Terengganu","09-8322179","Terengganu"
"Klinik Kesihatan Pengkalan Berangan",1,0,0,0,5.10926,103.13878,"Marang
21600, Marang
Terengganu","09-6120073","Terengganu"
"Klinik Kesihatan Wakaf Tapai",1,0,0,0,5.137667,103.084267,"Marang
21040, Marang
Terengganu","09-6801533","Terengganu"
"Klinik Kesihatan Kandis",1,0,0,0,5.94979,102.444849,"Bachok
16300, Bachok
Kelantan","09-7782825","Kelantan"
"Klinik Kesihatan Bachok",1,0,0,0,6.05617,102.39908,"Bachok
16300, Bachok
Kelantan","09-7789333","Kelantan"
"Klinik Kesihatan Balai",1,0,0,0,6.10605,102.37294,"Bachok
16300, Bachok
Kelantan","09-7767206","Kelantan"
"Klinik Kesihatan Beris",1,0,0,0,6.07368,102.36485,"Kubor Besar
16300, Bachok
Kelantan","09-7788633","Kelantan"
"Klinik Kesihatan Beris Panchor",1,0,0,0,6.128631,102.350877,"Tawang
16020, Bachok
Kelantan","09-7767358","Kelantan"
"Klinik Kesihatan Gunong",1,0,0,0,5.98927,102.34769,"Bachok
16390, Bachok
Kelantan","09-7834333","Kelantan"
"Klinik Kesihatan Mahligai",1,0,0,0,5.95622,102.30102,"Jalan Pasir Puteh Kota Bharu
16400, Bachok
Kelantan","09-7834213","Kelantan"
"Klinik Kesihatan Kuchelong",1,0,0,0,6.02154,102.339,"Kuchelong
16090, Bachok
Kelantan","09-7832989","Kelantan"
"Klinik Kesihatan Gua Musang",1,0,0,0,4.87997,101.96533,"Gua Musang
18300, Gua Musang
Kelantan","09-9121333","Kelantan"
"Klinik Kesihatan Aring 2",1,0,0,0,4.95389,102.29969,"Gua Musang
18300, Gua Musang
Kelantan","09-9286333","Kelantan"
"Klinik Kesihatan Bertam Baru",1,0,0,0,5.14255,102.04844,"Gua Musang
18300, Gua Musang
Kelantan","09-9126626","Kelantan"
"Klinik Kesihatan Chiku 3",1,0,0,0,4.97249,102.20688,"Gua Musang
18300, Gua Musang
Kelantan","09-9285333","Kelantan"
"Klinik Kesihatan Jeram Tekoh",1,0,0,0,4.99824,102.07455,"Gua Musang
18300, Gua Musang
Kelantan","09-9126308","Kelantan"
"Klinik Kesihatan Kuala Betis",1,0,0,0,4.900583,101.787778,"Gua Musang
18300, Gua Musang
Kelantan","09-9150103","Kelantan"
"Klinik Kesihatan Lebir",1,0,0,0,5.152521,102.33991,"Gua Musang
18300, Gua Musang
Kelantan","09-9159001","Kelantan"
"Klinik Kesihatan Lojing",1,0,0,0,4.631137,101.461487,"Gua Musang
18300, Gua Musang
Kelantan","09-9221406","Kelantan"
"Klinik Kesihatan Meranto",1,0,0,0,5.704542,101.733728,"Kampong Meranto
18300, Gua Musang
Kelantan","09-9120610","Kelantan"
"Klinik Kesihatan Jerek",1,0,0,0,5.16718,102.00541,"Kampung Jerek,Wakil Pos Bertam
18300, Gua Musang
Kelantan","010-5726382","Kelantan"
"Klinik Kesihatan Batu Melintang",1,0,0,0,5.704542,101.733728,"Kampung Batu Melintang, Batu Melintang
17520, Jeli
Kelantan","09-9447233","Kelantan"
"Klinik Kesihatan Jeli",1,0,0,0,5.71663,101.747139,"Pejabat Kesihatan Jeli
17600, Jeli
Kelantan","09-9440733","Kelantan"
"Klinik Kesihatan Kuala Balah",1,0,0,0,5.445019,101.913192,"Kuala Balah
17510, Jeli
Kelantan","09-9361233","Kelantan"
"Klinik Kesihatan Lubok Bongor",1,0,0,0,5.559569,101.88383,"Kuala Balah
17600, Jeli
Kelantan","09-9361022","Kelantan"
"Klinik Kesihatan Ayer Lanas",1,0,0,0,5.77885,101.8865,"Air Lanas
17700, Jeli
Kelantan","09-9468333","Kelantan"
"Klinik Kesihatan Pintu Geng",1,0,0,0,6.10168,102.228509,"Jln Pintu Geng
15100, Kota Bharu
Kelantan","09-7471997","Kelantan"
"Klinik Kesihatan Bandar Kota Bharu",1,0,0,0,6.125214,102.241714,"Jalan Hospital
15580, Kota Bharu
Kelantan","09-7475770","Kelantan"
"Klinik Kesihatan Badang",1,0,0,0,6.1878,102.26742,"Jalan Pcb
15350, Kota Bharu
Kelantan","09-7730333","Kelantan"
"Klinik Kesihatan Cabang 3 Perol",1,0,0,0,6.01711,102.242478,"Kota Bharu
16010, Kota Bharu
Kelantan","09-7123335","Kelantan"
"Klinik Kesihatan Kedai Lalat",1,0,0,0,6.11402,102.30685,"Kota Bharu
16150, Kota Bharu
Kelantan","09-7666733","Kelantan"
"Klinik Kesihatan Ketereh",1,0,0,0,5.957736,102.254891,"Kota Bharu
16450, Kota Bharu
Kelantan","09-7886055","Kelantan"
"Klinik Kesihatan Kok Lanas",1,0,0,0,5.91478,102.244047,"Kilometer 25, Jalan Kuala Krai
16450, Kota Bharu
Kelantan","09-7880900","Kelantan"
"Klinik Kesihatan Kubang Kerian",1,0,0,0,6.091269,102.27243,"Kota Bharu
16150, Kota Bharu
Kelantan","09-7667330","Kelantan"
"Klinik Kesihatan Lundang Paku",1,0,0,0,5.994381,102.200672,"Kota Bharu
15100, Kota Bharu
Kelantan","09-7964277","Kelantan"
"Klinik Kesihatan Penambang",1,0,0,0,6.147089,102.238427,"Lot No 348-A Jalan Pantai Cahaya Bulan Kg. Penambang
15350, Kota Bharu
Kelantan","09 7442760","Kelantan"
"Klinik Kesihatan Pengkalan Chepa",1,0,0,0,6.16232,102.28063,"Kota Bharu
16100, Kota Bharu
Kelantan","09-7714030","Kelantan"
"Klinik Kesihatan Peringat",1,0,0,0,6.02012,102.28514,"Kota Bharu
16400, Kota Bharu
Kelantan","09-7127433","Kelantan"
"Klinik Kesihatan Wakaf Che Yeh",1,0,0,0,6.084371,102.236489,"Jalan Pasir Mas Salor
15100, Kota Bharu
Kelantan","09-7446333","Kelantan"
"Klinik Kesihatan Kijang",1,0,0,0,6.176182,102.253007,"Jalan Pcb Badang
15350, Kota Bharu
Kelantan","09-7732142","Kelantan"
"Klinik Kesihatan Berek",1,0,0,0,6.05188,102.299671,"Jalan Bukit Marak
16450, Kota Bharu
Kelantan","09-7650105","Kelantan"
"Klinik Kesihatan Chempaka",1,0,0,0,6.137627,102.27064,"Jalan Panji
16100, Kota Bharu
Kelantan","09-7732341","Kelantan"
"Klinik Kesihatan Batu Mengkebang",1,0,0,0,5.517735,102.275655,"Kuala Krai
18000, Kuala Krai
Kelantan","09-9609290","Kelantan"
"Klinik Kesihatan Biak",1,0,0,0,5.409664,101.991577,"Kuala Krai
18000, Kuala Krai
Kelantan","09-9339002","Kelantan"
"Klinik Kesihatan Bandar Kuala Krai",1,0,0,0,5.538634,102.204046,"Jalan Pintas Kelantan
18000, Kuala Krai
Kelantan","09-9605667","Kelantan"
"Klinik Kesihatan Dabong",1,0,0,0,5.37517,102.01022,"Kuala Krai
18200, Kuala Krai
Kelantan","09-9602221","Kelantan"
"Klinik Kesihatan Laloh",1,0,0,0,5.309497,102.271411,"Kuala Krai
18000, Kuala Krai
Kelantan","09-9668826","Kelantan"
"Klinik Kesihatan Manik Urai",1,0,0,0,5.38148,102.24283,"Kuala Krai
18050, Kuala Krai
Kelantan","09-9665133","Kelantan"
"Klinik Kesihatan Pahi",1,0,0,0,5.48589,102.22268,"Kuala Krai
18000, Kuala Krai
Kelantan","09-9609343","Kelantan"
"Klinik Kesihatan Belukar",1,0,0,0,5.759925,102.289811,"Jln Machang P Puteh
18500, Machang
Kelantan","09-9766544","Kelantan"
"Klinik Kesihatan Batu 30",1,0,0,0,5.710186,102.210601,"Batu 30, Machang,Jalan Kuala Krai
18500, Machang
Kelantan","09-9752355/ 09-9752833","Kelantan"
"Klinik Kesihatan Labok",1,0,0,0,5.830814,102.225228,"Labok
18400, Machang
Kelantan","09-7878533/ 09-7870703/ 09-7870139","Kelantan"
"Klinik Kesihatan Pulai Chondong",1,0,0,0,5.872973,102.23224,"Kg Pulai Chondong, Machang
16600, Machang
Kelantan","09-7878333/ 09-7878444","Kelantan"
"Klinik Kesihatan Temangan",1,0,0,0,5.71594,102.15521,"Temangan
18400, Machang
Kelantan","09-9752633/ 09-9755330","Kelantan"
"Klinik Kesihatan Kg Bandar",1,0,0,0,5.89459,102.19439,"Jalan Kemubu, Pulai Chondong
16600, Machang
Kelantan","09-9770108 / 014-8370610","Kelantan"
"Klinik Kesihatan Machang",1,0,0,0,5.76754,102.214205,"Machang
18500, Machang
Kelantan","09-9751039 / 09-9752333","Kelantan"
"Klinik Kesihatan Kubang Kual",1,0,0,0,5.96917,102.01583,"Pasir Mas
17200, Pasir Mas
Kelantan","09-7904973","Kelantan"
"Klinik Kesihatan Bandar Pasir Mas",1,0,0,0,6.04557,102.14015,"Pasir Mas
17000, Pasir Mas
Kelantan","09-7901333","Kelantan"
"Klinik Kesihatan Chekok",1,0,0,0,5.919025,102.187647,"Pasir Mas
17060, Pasir Mas
Kelantan","09-7942333","Kelantan"
"Klinik Kesihatan Gual Periok",1,0,0,0,6.029609,102.018306,"Pasir Mas
17200, Pasir Mas
Kelantan","-","Kelantan"
"Klinik Kesihatan Rantau Panjang",1,0,0,0,6.013674,101.97289,"Jalan Besar Rantau Panjang-Lubok Stol
17200, Pasir Mas
Kelantan","09-7950333","Kelantan"
"Klinik Kesihatan Tendong",1,0,0,0,6.069967,102.207637,"Pasir Mas
17030, Pasir Mas
Kelantan","09-7198333","Kelantan"
"Klinik Kesihatan Kangkong",1,0,0,0,5.994649,102.188054,"Jalan Pasir Mas Tanah Merah
17040, Pasir Mas
Kelantan","09-7943155","Kelantan"
"Klinik Kesihatan Meranti",1,0,0,0,6.096198,102.101019,"Jln Banggol Che Wan, Meranti
17010, Pasir Mas
Kelantan","09-7975057/ 09-7978466","Kelantan"
"Klinik Kesihatan To' Uban",1,0,0,0,5.965611,102.150903,"To' Uban Pasir Mas
17050, Pasir Mas
Kelantan","09-7941333","Kelantan"
"Klinik Kesihatan Jeram",1,0,0,0,5.79962,102.37161,"Pasir Puteh
16800, Pasir Puteh
Kelantan","09-7867033","Kelantan"
"Klinik Kesihatan Banggol Pa' Esah",1,0,0,0,5.863541,102.338114,"Kampung Banggul Pa'Esah
16400, Pasir Puteh
Kelantan","09-7521031","Kelantan"
"Klinik Kesihatan Gaal",1,0,0,0,5.788889,102.416944,"Pasir Puteh
16410, Pasir Puteh
Kelantan","09-7867199","Kelantan"
"Klinik Kesihatan Selising",1,0,0,0,5.896667,102.332778,"Pasir Puteh
16810, Pasir Puteh
Kelantan","09-7891433","Kelantan"
"Klinik Kesihatan Cherang Ruku",1,0,0,0,5.868321,102.486734,"Semerak Pasir Puteh
16700, Pasir Puteh
Kelantan","09-6912333","Kelantan"
"Klinik Kesihatan Gong Kulim",1,0,0,0,5.869746,102.424743,"Kampung Kulim
16800, Pasir Puteh
Kelantan","09-7520734","Kelantan"
"Klinik Kesihatan Pasir Puteh",1,0,0,0,5.832856,102.405283,"Pasir Puteh
16800, Pasir Puteh
Kelantan","09-7867355","Kelantan"
"Klinik Kesihatan Batu Gajah",1,0,0,0,5.81099,101.982327,"Batu 13, Jalan -Jeli
17510, Tanah Merah
Kelantan","09-9581033/ 09-9581036","Kelantan"
"Klinik Kesihatan Gual Ipoh",1,0,0,0,5.74327,102.05192,"Kg Gual Ipoh
17500, Tanah Merah
Kelantan","09-9551949","Kelantan"
"Klinik Kesihatan Kemahang",1,0,0,0,5.855361,102.005575,"Felda Kemahang
17500, Tanah Merah
Kelantan","09-9581192","Kelantan"
"Klinik Kesihatan Belimbing",1,0,0,0,5.854215,102.167447,"Kg Belimbing
17500, Tanah Merah
Kelantan","09-9555330","Kelantan"
"Klinik Kesihatan Bukit Bunga",1,0,0,0,5.830897,101.898979,"Kg Bukit Bunga, Jalan Tanah Merah-Jeli
17500, Tanah Merah
Kelantan","09-9469068","Kelantan"
"Klinik Kesihatan Tanah Merah",1,0,0,0,5.80475,102.14395,"Jalan Klinik
17500, Tanah Merah
Kelantan","09-9556315","Kelantan"
"Klinik Kesihatan Telok Renjuna",1,0,0,0,6.201184,102.238598,"Tumpat
16040, Tumpat
Kelantan","09-7981023","Kelantan"
"Klinik Kesihatan Bendang Kerian",1,0,0,0,6.160614,102.165532,"Tumpat
16200, Tumpat
Kelantan","09-7253539","Kelantan"
"Klinik Kesihatan Bandar Tumpat",1,0,0,0,6.19397,102.17041,"Tumpat
16200, Tumpat
Kelantan","09-7255500","Kelantan"
"Klinik Kesihatan Bunohan",1,0,0,0,6.182428,102.116375,"Jalan Pangkalan Kubor
16200, Tumpat
Kelantan","09-7211033","Kelantan"
"Klinik Kesihatan Pengkalan Kubor",1,0,0,0,6.215414,102.111172,"Tumpat
16200, Tumpat
Kelantan","09-7211570","Kelantan"
"Klinik Kesihatan Sungai Pinang",1,0,0,0,6.177484,102.232982,"Palekbang
16040, Tumpat
Kelantan","09-7255133","Kelantan"
"Klinik Kesihatan Wakaf Bharu",1,0,0,0,6.12243,102.20248,"Wakaf Bahru
16250, Tumpat
Kelantan","09-7196333","Kelantan"
"Klinik Kesihatan Wakaf Delima",1,0,0,0,6.118577,102.193306,"Kampung Wakaf Delima
16250, Tumpat
Kelantan","09-7196907","Kelantan"
"Klinik Kesihatan Membakut",1,0,0,0,5.526393,115.691497,"Pekan Membakut, Peti Surat 173, Membakut
89727, Beaufort
Sabah","087-887541 / 087-887542","Sabah"
"Klinik Kesihatan Padas Damit",1,0,0,0,5.343742,115.745043,"Kampung Padas Damit
89807, Beaufort
Sabah","087-209653","Sabah"
"Klinik Kesihatan Weston",1,0,0,0,5.214622,115.602629,"Pekan Weston
89807, Beaufort
Sabah","087- 871201","Sabah"
"Klinik Kesihatan Kota Klias",1,0,0,0,5.44751,115.62711,"Kampung Kilas
89807, Beaufort
Sabah","087-881143","Sabah"
"Klinik Kesihatan Tagas-Tagas",1,0,0,0,5.63,117.120457,"Kampung Tagas-Tagas,Tagas-Tagas
90108, Beluran
Sabah","089-239700","Sabah"
"Klinik Kesihatan Kuala Sapi",1,0,0,0,5.82722,117.44194,"Kampung Kuala Sapi, Sapi
90108, Beluran
Sabah","088-552602","Sabah"
"Klinik Kesihatan Nangoh Rumedi",1,0,0,0,5.95015,117.3284,"Kampung Nangoh Rumedi, Nangoh
90108, Beluran
Sabah","019-8500990 (JM)","Sabah"
"Klinik Kesihatan Paitan",1,0,0,0,6.41083,117.39583,"Pekan Paitan, Paitan
90108, Beluran
Sabah","089-262005","Sabah"
"Klinik Kesihatan Sungai-Sungai",1,0,0,0,6.25,117.36667,"Kampung Sungai-Sungai, Sungai Sungai
90108, Beluran
Sabah","088-511122 / 088-892002","Sabah"
"Klinik Kesihatan Tangkarason",1,0,0,0,5.716767,117.437474,"Kampung Tangkarason, Tangkarason
90108, Beluran
Sabah","088-511122 / 088-892001","Sabah"
"Klinik Kesihatan Telupid",1,0,0,0,5.63,117.120457,"Pekan Telupid, Telupid, Peti Surat 11
89300, Beluran
Sabah","089-521733","Sabah"
"Klinik Kesihatan Lingkabau",1,0,0,0,6.21536,117.25767,"Kampung Lingkabau, Lingkabau
90108, Beluran
Sabah","013-8973550 (JM)","Sabah"
"Klinik Kesihatan Jambongan",1,0,0,0,6.66801,117.442,"Pulau Jambongan, Jambongan
90108, Beluran
Sabah","089-239304","Sabah"
"Klinik Kesihatan Terusan Sugut",1,0,0,0,6.41974,117.69639,"Kampung Terusan Sugut
90108, Beluran
Sabah","098-239006","Sabah"
"Klinik Kesihatan Abuan",1,0,0,0,6.2415,117.11773,"Kampung Abuan, Beluran
90108, Beluran
Sabah","-","Sabah"
"Klinik Kesihatan Apin-Apin",1,0,0,0,5.4625,116.26214,"Jalan Apin-Apin-Kota Kinabalu, Kg Kikiran, Apin-Apin
89007, Keningau
Sabah","087-337371","Sabah"
"Klinik Kesihatan Bingkor",1,0,0,0,5.40444,116.19278,"Jalan Bunsit, Pekan Bingkor
89007, Keningau
Sabah","087-391158","Sabah"
"Klinik Kesihatan Mansiat",1,0,0,0,5.340861,116.159749,"Kg Manisat, Sook
89007, Keningau
Sabah","087-391158","Sabah"
"Klinik Kesihatan Sook",1,0,0,0,5.148216,116.308656,"Jalan Tulid-Mansiat, Sook Keningau
89007, Keningau
Sabah","087-724003","Sabah"
"Klinik Kesihatan Tulid",1,0,0,0,5.326288,116.422398,"Jalan Tulid, Kg. Tulid, Sook
89007, Keningau
Sabah","087-345002","Sabah"
"Klinik Kesihatan Jawi-Jawi",1,0,0,0,6.40086,116.438669,"Kg Jawi-Jawi, Jalan Bypass Kudat
89159, Kota Belud
Sabah","088-976001","Sabah"
"Klinik Kesihatan Taginambur",1,0,0,0,6.22611,116.44889,"Batu 10, Jalan Ranau Bypass
89158, Kota Belud
Sabah","088-976437","Sabah"
"Klinik Kesihatan Likas",1,0,0,0,6.00026,116.1157,"Jalan Haiwan, Kampung Likas
88400, Kota Kinabalu
Sabah","088-433357","Sabah"
"Klinik Kesihatan Inanam",1,0,0,0,5.98787,116.14261,"Jalan Kionsom, Pekan Inanam, Inanam
88450, Kota Kinabalu
Sabah","088-421694","Sabah"
"Klinik Kesihatan Luyang",1,0,0,0,5.946239,116.090914,"Jalan Lintas, Luyang
88300, Kota Kinabalu
Sabah","088-715000 / 088-719424 / 088-719427","Sabah"
"Klinik Kesihatan Menggatal",1,0,0,0,6.029743,116.158043,"Jalan Tuaran Lama, Pekan Menggatal
88450, Kota Kinabalu
Sabah","088-493915 / 088-491479","Sabah"
"Klinik Kesihatan Telipok",1,0,0,0,6.089103,116.19778,"Jalan Tuaran, Pekan Telipok, Telipok
88450, Kota Kinabalu
Sabah","088-492057 / 088-494691","Sabah"
"Klinik Kesihatan Putatan",1,0,0,0,5.898883,116.046601,"Km 11 Jalan Putatan, Pekan Putatan, Kota Kinabalu
89500, Penampang
Sabah","088-765704 / 088-765661","Sabah"
"Klinik Kesihatan Bukit Garam",1,0,0,0,5.59242,117.83387,"Bukit Garam
90200, Kinabatangan
Sabah","089-562151 / 089-562259","Sabah"
"Klinik Kesihatan Sukau",1,0,0,0,5.50932,118.29139,"Pekan Sukau, Sukau
90200, Kinabatangan
Sabah","089-816513","Sabah"
"Klinik Kesihatan Batu Putih",1,0,0,0,5.916133,118.038411,"Kampung Batu Putih, Jalan Kinabatangan Lahad Datu, Batu Putih
90200, Kinabatangan
Sabah","019-8005359 / 089-561975 (PKK)","Sabah"
"Klinik Kesihatan Kuamut",1,0,0,0,5.22167,117.49,"Pekan Kuamut, Kuamut, Kinabatangan
90200, Sandakan
Sabah","089-232669","Sabah"
"Klinik Kesihatan Langkon",1,0,0,0,6.533017,116.704327,"Kampung Langkon, Kudat
89108, Kota Marudu
Sabah","088-667320 / 088-612321","Sabah"
"Klinik Kesihatan Tandek",1,0,0,0,6.533609,116.851851,"Pekan Tandek, Tandek, Kota Murudu
89108, Kota Marudu
Sabah","088-661533","Sabah"
"Klinik Kesihatan Menumbok",1,0,0,0,5.30298,115.36962,"Pekan Menumbok, Menumbok, Kuala Penyu
89807, Kuala Penyu
Sabah","087-831066","Sabah"
"Klinik Kesihatan Kerukan",1,0,0,0,5.48002,115.52528,"Kampung Kerukan Sipitang
89747, Kuala Penyu
Sabah","087-897260","Sabah"
"Klinik Kesihatan Karakit",1,0,0,0,6.901885,116.849227,"Kampung Karakit, Pulau Banggi, Banggi
89059, Kudat
Sabah","088-671526","Sabah"
"Klinik Kesihatan Matunggong",1,0,0,0,6.902079,116.848849,"Kg. Matunggong, Matunggong
89059, Kudat
Sabah","088-621897","Sabah"
"Klinik Kesihatan Nangka Lotong",1,0,0,0,6.73583,116.8,"Kg Lotong, Lotong
89059, Kudat
Sabah","088-637014 / 088-896537","Sabah"
"Klinik Kesihatan Sikuati",1,0,0,0,6.890101,116.711776,"Pekan Sikuati, Sikuati
89059, Kudat
Sabah","088-612381","Sabah"
"Klinik Kesihatan Tinangol",1,0,0,0,6.77222,116.70306,"Kampung Tinangol, Tinangol
89058, Kudat
Sabah","088-613702","Sabah"
"Klinik Kesihatan Narandang",1,0,0,0,6.774409,116.754545,"Kampung Garau, Narandang
89059, Kudat
Sabah","088-896524","Sabah"
"Klinik Kesihatan Indarason",1,0,0,0,6.76303,116.639,"Kg Indarason
89507, Kudat
Sabah","088-896812","Sabah"
"Klinik Kesihatan Suangpai",1,0,0,0,6.99779,116.76483,"Kg Suangpai
89059, Kudat
Sabah","088-896609","Sabah"
"Klinik Kesihatan Lahad Datu",1,0,0,0,5.027745,118.316356,"Jalam Silam, Bandar
91120, Lahad Datu
Sabah","089-885110","Sabah"
"Klinik Kesihatan Bukit Belacon",1,0,0,0,5.102,118.22776,"Bukit Belacan, Segama
91120, Lahad Datu
Sabah","089-845001","Sabah"
"Klinik Kesihatan Felda Sahabat",1,0,0,0,5.07722,119.0725,"Desa Kencana,Felda Sahabat 16
91150, Lahad Datu
Sabah","089-811912","Sabah"
"Klinik Kesihatan Pulau Tambisan",1,0,0,0,5.446408,119.149733,"Pekan Tambisan, Tambisan
91120, Lahad Datu
Sabah","089-816001","Sabah"
"Klinik Kesihatan Silabukan",1,0,0,0,5.00851,118.479169,"Kampung Silabukan, Silabukan
91120, Lahad Datu
Sabah","089-817005 (KK) / 089-882178 (PKK)","Sabah"
"Klinik Kesihatan Tungku, Lahat Datu",1,0,0,0,5.025387,118.883722,"Pekan Tungku, Tungku
91120, Lahad Datu
Sabah","089-871125","Sabah"
"Klinik Kesihatan Nabawan",1,0,0,0,5.34108,116.159728,"Pekan Nabawan, Pesiangan
89957, Nabawan
Sabah","087-366199","Sabah"
"Klinik Kesihatan Pagalungan",1,0,0,0,5.340885,116.159457,"Simpang Tiga Sungai Pensiangan Lolongan, Kampung Pagalungan, Pensiangan
89957, Nabawan
Sabah","087-743001","Sabah"
"Klinik Kesihatan Pensiangan",1,0,0,0,5.341078,116.160092,"Pekan Pesiangan, Pesiangan
89957, Nabawan
Sabah","087-366220","Sabah"
"Klinik Kesihatan Sepulot",1,0,0,0,4.705061,116.485402,"Pekan Sepulot, Sepulot, Pensiangan
89957, Nabawan
Sabah","087-773005","Sabah"
"Klinik Kesihatan Kuala Papar",1,0,0,0,5.74669,115.90902,"Kampung Kuala Papar
89608, Papar
Sabah","088-911028","Sabah"
"Klinik Kesihatan Kinarut",1,0,0,0,5.830504,116.036865,"Jalan Spur, Pekan Kinarut, Kinarut
89600, Papar
Sabah","088-754039 / 088-754145","Sabah"
"Klinik Kesihatan Ulu Kimanis",1,0,0,0,5.569,115.95673,"Kampung Ulu Kimanis, Kimanis
89608, Papar
Sabah","087-730204","Sabah"
"Klinik Kesihatan Bongawan",1,0,0,0,5.539394,115.854097,"Jln. Besar Pekan Bongawan, Papar
89700, Papar
Sabah","087-861771","Sabah"
"Klinik Kesihatan Penampang",1,0,0,0,5.915743,116.117597,"Km 12, Jalan Tambunan, Wdt 29
89500, Penampang
Sabah","088-717978 / 088-715621","Sabah"
"Klinik Kesihatan Pantai",1,0,0,0,6.901932,116.849094,"Kampung Pantai, Pantai
89059, Pitas
Sabah","088-675008 / 088-675000","Sabah"
"Klinik Kesihatan Telaga",1,0,0,0,6.840427,117.073789,"Kampung Telaga, Telaga, Kudat
89059, Pitas
Sabah","088-638005","Sabah"
"Klinik Kesihatan Bongkol",1,0,0,0,6.82839,117.16471,"Kampung Bongkol, Bongkol
89059, Pitas
Sabah","088-684940","Sabah"
"Klinik Kesihatan Dandun",1,0,0,0,6.708837,117.031531,"Kampung Dandun, Dandun
89059, Pitas
Sabah","088-687849 / 088-671849","Sabah"
"Klinik Kesihatan Lohan",1,0,0,0,6.00129,116.72564,"Jalan Air Panas Poring, Kg Lohan
89308, Ranau
Sabah","088-877353","Sabah"
"Klinik Kesihatan Bundu Tuhan",1,0,0,0,5.98222,116.53139,"Jalan Keranau, Kg Bundu Tuhan
89308, Ranau
Sabah","088-889505","Sabah"
"Klinik Kesihatan Kaingaran",1,0,0,0,6.09083,116.975,"Kampung Kaingaran
89307, Ranau
Sabah","088-894000","Sabah"
"Klinik Kesihatan Kundasang",1,0,0,0,5.990717,116.579356,"Jalan Kampung Lembah Permai
89307, Ranau
Sabah","088-889722","Sabah"
"Klinik Kesihatan Paginatan",1,0,0,0,5.772412,116.822082,"Kampung Paginatan
89307, Ranau
Sabah","088-897203","Sabah"
"Klinik Kesihatan Perancangan",1,0,0,0,6.07318,116.80058,"Kg Perancangan
89307, Ranau
Sabah","088-666102","Sabah"
"Klinik Kesihatan Timbua",1,0,0,0,6.10528,116.83028,"Kampung Timbua
89307, Ranau
Sabah","088-959027","Sabah"
"Klinik Kesihatan Batu 10",1,0,0,0,5.88429,118.00712,"Batu 10
90500, Sandakan
Sabah","089-537649","Sabah"
"Klinik Kesihatan Sandakan",1,0,0,0,5.861339,118.102097,"Kilometer 3.2, Jalan Utara
90500, Sandakan
Sabah","089-225800","Sabah"
"Klinik Kesihatan Pulau Libaran",1,0,0,0,6.11054,118.018,"Kg Pulau Libaran
90009, Sandakan
Sabah","-","Sabah"
"Klinik Kesihatan Pulau Nunuyan",1,0,0,0,5.91482,118.106,"Kg Pulau Nunuyun
90500, Sandakan
Sabah","-","Sabah"
"Klinik Kesihatan Suan Lamba",1,0,0,0,5.599239,118.122193,"Kampung Suan Lamba, Suan Lamba
90500, Sandakan
Sabah","089-232948","Sabah"
"Klinik Kesihatan Sungai Manila",1,0,0,0,5.96651,117.98228,"Kampung Sungai Manila, Sungai Manila
90500, Sandakan
Sabah","089-531377","Sabah"
"Klinik Kesihatan Ulu Dusun",1,0,0,0,5.78526,117.76872,"Kampung Ulu Dusun, Ulu Dusun
90000, Sandakan
Sabah","089-568826","Sabah"
"Klinik Kesihatan Pulau Bum-Bum",1,0,0,0,4.46389,118.66861,"Kg Pulau Bum-Bum
91308, Semporna
Sabah","089-792003 / 089-786060","Sabah"
"Klinik Kesihatan Semporna",1,0,0,0,4.48124,118.60605,"Kg Semporna
91308, Semporna
Sabah","089-781695","Sabah"
"Klinik Kesihatan Meligan",1,0,0,0,4.679,115.71016,"Kampung Meligan, Meligan
89850, Sipitang
Sabah","087-821066 (PKD)/ 087-821533 (KKIA)","Sabah"
"Klinik Kesihatan Mendolong",1,0,0,0,5.343696,115.744953,"Kampung Mendulong, Mendulong
89857, Sipitang
Sabah","087-821066 (PKD) / 087-821533 (KKIA)","Sabah"
"Klinik Kesihatan Sindumin",1,0,0,0,4.962366,115.505641,"Pekan Sindumin, Sindumin
89850, Sipitang
Sabah","087-811134","Sabah"
"Klinik Kesihatan Long Pasia",1,0,0,0,5.350045,115.738316,"Kampung Long Pasia, Long Pasia, Sipitang
89857, Sipitang
Sabah","087-821066 (PKD) / 087-821533 (KKIA)","Sabah"
"Klinik Kesihatan Sunsuron",1,0,0,0,5.744544,116.375559,"Jalan Tambunan-Kota Kinabalu, Simpang Kanan, Sk Sunsuron
89657, Tambunan
Sabah","087-773318","Sabah"
"Klinik Kesihatan Patau",1,0,0,0,5.75897,116.44151,"Jalan Tambunan-Ranau, Km 12
89650, Tambunan
Sabah","087-773854","Sabah"
"Klinik Kesihatan Apas Balung",1,0,0,0,4.32262,118.09317,"Jalan Apas Balung
91000, Tawau
Sabah","089-951029","Sabah"
"Klinik Kesihatan Merotai Besar",1,0,0,0,4.41361,117.77778,"Jalan Smk Merotai
91008, Tawau
Sabah","089-902601","Sabah"
"Klinik Kesihatan Felda Umas-Umas",1,0,0,0,4.47472,117.66306,"Nan
91008, Tawau
Sabah","089-926540","Sabah"
"Klinik Kesihatan Kalabakan",1,0,0,0,4.40969,117.493517,"Kampung Kalabakan, Jalan Kalabakan
91008, Tawau
Sabah","","Sabah"
"Klinik Kesihatan Serusop",1,0,0,0,6.24756,116.24,"Jalan Srk Serusop, Kampung Serusop
89208, Tuaran
Sabah","088-794311","Sabah"
"Klinik Kesihatan Sungai Tamang",1,0,0,0,4.25,117.667,"Kampung Sungai Tamang
91008, Tawau
Sabah","089-797100","Sabah"
"Klinik Kesihatan Kemabong",1,0,0,0,4.91639,115.93333,"Pekan Kemabong, Kemabong
89907, Tenom
Sabah","087-736896","Sabah"
"Klinik Kesihatan Kuala Tomani",1,0,0,0,4.85213,115.88863,"Kampung Kuala Tomani
89907, Tenom
Sabah","087-741004 / 013-8670865 (JM)","Sabah"
"Klinik Kesihatan Melalap",1,0,0,0,5.263499,116.002748,"Pekan Melalap
89907, Tenom
Sabah","087-302409","Sabah"
"Klinik Kesihatan Penangah",1,0,0,0,5.21028,116.835,"Pekan Penangah, Penangah, Kinabatangan
90200, Tongod
Sabah","087-721917","Sabah"
"Klinik Kesihatan Tongod",1,0,0,0,5.274559,116.975082,"Pekan Tongod, Kinabatangan
90200, Tongod
Sabah","089-719004","Sabah"
"Klinik Kesihatan Entilidon",1,0,0,0,5.53366,117.04468,"Jalan Tongod, Kampung Entilidon, Kinabatangan
90200, Tongod
Sabah","089-561975 (PKK)","Sabah"
"Klinik Kesihatan Mengkawagu",1,0,0,0,5.24033,116.80026,"Jalan Tongod, Kampung Mengkawagu
90200, Tongod
Sabah","087-721918","Sabah"
"Klinik Kesihatan Minusoh",1,0,0,0,5.274559,116.975082,"Kampung Minusoh, Kinabatangan
90200, Tongod
Sabah","087-721923","Sabah"
"Klinik Kesihatan Kiulu",1,0,0,0,6.050403,116.280839,"Jalan Keluk, Tamparuli
89207, Tuaran
Sabah","088-782830","Sabah"
"Klinik Kesihatan Tamparuli",1,0,0,0,6.1356,116.26818,"W.D.T 59, 89275 Tamparuli
89208, Tuaran
Sabah","088-782349","Sabah"
"Klinik Kesihatan Tenghilan",1,0,0,0,6.255727,116.335881,"Jalan Kampung Tenghilan
89208, Tuaran
Sabah","088-981249","Sabah"
"Klinik Kesihatan Simpangan",1,0,0,0,6.21056,116.20278,"Jalan Ranau, Pekan Nabalu
89208, Tuaran
Sabah","088-792330 / 088-792330 / 088-792390","Sabah"
"Klinik Kesihatan Asajaya",1,0,0,0,1.54415,110.60733,"Kampung Asajaya
94600, Asajaya
Sarawak","082-827080","Sarawak"
"Klinik Kesihatan Jemukan",1,0,0,0,1.551713,110.691588,"Kampung Jemukan
94600, Asajaya
Sarawak","082-827604","Sarawak"
"Klinik Kesihatan Sadong Jaya",1,0,0,0,1.515457,110.740089,"Kampung Sadong Jaya
94600, Asajaya
Sarawak","082-821248","Sarawak"
"Klinik Kesihatan Semera",1,0,0,0,1.551736,110.672908,"Kampunga Samera
94600, Asajaya
Sarawak","082-826372","Sarawak"
"Klinik Kesihatan Serasot",1,0,0,0,1.3781,110.04572,"Kampung Serasot
93250, Bau
Sarawak","082-371036","Sarawak"
"Klinik Kesihatan Singai",1,0,0,0,1.492666,110.170873,"Jalan Kawah, Kampung Singai
93250, Bau
Sarawak","082-765499","Sarawak"
"Klinik Kesihatan Krokong",1,0,0,0,1.365973,110.117797,"Jalan Bau Serikin, Kampung Krokong
93250, Bau
Sarawak","082-763116","Sarawak"
"Klinik Kesihatan Belaga",1,0,0,0,2.70662,113.78298,"Pekan Kecil Belaga
96800, Belaga
Sarawak","086-461323","Sarawak"
"Klinik Kesihatan Lusong Laku",1,0,0,0,2.463398,114.250335,"Kampung Lusong Laku
96800, Belaga
Sarawak","086-464147","Sarawak"
"Klinik Kesihatan Punan Bah",1,0,0,0,2.3826,113.349866,"Kampung Punan Bah
96800, Belaga
Sarawak","086-479705","Sarawak"
"Klinik Kesihatan Sungai Asap",1,0,0,0,3.04448,113.915865,"Pekan Sungai Asap
96800, Belaga
Sarawak","013-8657739 (JM)","Sarawak"
"Klinik Kesihatan Sungai Koyan",1,0,0,0,3.103531,113.924488,"Kampung Sungai Koyan
96800, Belaga
Sarawak","09-3401533","Sarawak"
"Klinik Kesihatan Uma Sambop",1,0,0,0,2.91826,113.91595,"Kampung Uma Sambop
96900, Belaga
Sarawak","086-485165","Sarawak"
"Klinik Kesihatan Beladin",1,0,0,0,1.63837,111.20425,"Beladin, Pusa, Saribas
94950, Betong
Sarawak","083-406448","Sarawak"
"Klinik Kesihatan Debak",1,0,0,0,1.5644,111.42377,"Debak, Saribas, Betong
95500, Betong
Sarawak","083-464570","Sarawak"
"Klinik Kesihatan Meludam",1,0,0,0,1.659799,111.03473,"Meludam, Saribas
94850, Betong
Sarawak","083-408212","Sarawak"
"Klinik Kesihatan Nanga Mujau",1,0,0,0,1.32955,111.65411,"Nanga Lawih
95700, Betong
Sarawak","084-775503","Sarawak"
"Klinik Kesihatan Nanga Tiga",1,0,0,0,1.60815,111.69755,"Kampung Ng Tiga
95700, Betong
Sarawak","084-775504","Sarawak"
"Klinik Kesihatan Pusa",1,0,0,0,1.61096,111.28986,"Pekan Pusa
94950, Betong
Sarawak","083-465155","Sarawak"
"Klinik Kesihatan Semarang",1,0,0,0,1.681967,111.102466,"Pekan Semarang, Pusa
94950, Betong
Sarawak","083-468007","Sarawak"
"Klinik Kesihatan Spaoh",1,0,0,0,1.453404,111.481332,"Kampung Spaoh
95600, Betong
Sarawak","083-473339","Sarawak"
"Klinik Kesihatan Tuie",1,0,0,0,1.54011,111.34764,"Kampung Tuie, Pusa, Saribas
95500, Betong
Sarawak","083-569508","Sarawak"
"Klinik Kesihatan Mid Layar",1,0,0,0,1.46542,111.57254,"Betong
95700, Betong
Sarawak","083-472116(PKD)","Sarawak"
"Klinik Kesihatan Bintulu",1,0,0,0,3.17359,113.03704,"Lebuh Raya Abang Galau
97000, Bintulu
Sarawak","086-331455","Sarawak"
"Klinik Kesihatan Nyalau",1,0,0,0,3.63825,113.37932,"Kampung Tengah Nyalau
97000, Bintulu
Sarawak","085-776002","Sarawak"
"Klinik Kesihatan Lubok Tapang",1,0,0,0,3.15108,113.37012,"Lubok Tapang
97100, Bintulu
Sarawak","086-422233 (KK Sebauh)","Sarawak"
"Klinik Kesihatan Sebauh",1,0,0,0,3.11049,113.26816,"Pekan Sebauh
97100, Bintulu
Sarawak","086-422233","Sarawak"
"Klinik Kesihatan Tubau",1,0,0,0,3.160199,113.701678,"Pekan Tubau
97000, Bintulu
Sarawak","086-469187","Sarawak"
"Klinik Kesihatan Jepak",1,0,0,0,3.16084,113.03809,"Jln Jepak Kuala Tatau
97000, Bintulu
Sarawak","086-201089","Sarawak"
"Klinik Kesihatan Kakus",1,0,0,0,2.634457,113.151526,"Kakus
97000, Bintulu
Sarawak","086-474302","Sarawak"
"Klinik Kesihatan Kuala Tatau",1,0,0,0,3.078361,112.800944,"Kampung Kuala Tatau
97200, Bintulu
Sarawak","086-326287","Sarawak"
"Klinik Kesihatan Kuala Oya",1,0,0,0,2.858519,111.877221,"Kampung Kuala Oya
96300, Dalat
Sarawak","084-865231","Sarawak"
"Klinik Kesihatan Medong",1,0,0,0,2.687318,111.934802,"Desa Medong
96300, Mukah
Sarawak","084-879236","Sarawak"
"Klinik Kesihatan Nanga Baoh",1,0,0,0,2.583694,112.049524,"Kampung Nanga Baoh
96300, Dalat
Sarawak","011-257494","Sarawak"
"Klinik Kesihatan Belawai",1,0,0,0,2.23056,111.214776,"Belawai
96150, Daro
Sarawak","084-815219","Sarawak"
"Klinik Kesihatan Betanak",1,0,0,0,2.633915,111.295032,"Betanak
96200, Daro
Sarawak","019-8367446","Sarawak"
"Klinik Kesihatan Bruit",1,0,0,0,2.709031,111.369778,"Bruit
96200, Daro
Sarawak","019-4535893 (MA)","Sarawak"
"Klinik Kesihatan Daro",1,0,0,0,2.51202,111.43349,"Daro
96200, Daro
Sarawak","084-823333","Sarawak"
"Klinik Kesihatan Kuala Rejang",1,0,0,0,2.15494,111.255492,"Kuala Rajang
96150, Daro
Sarawak","084-612368","Sarawak"
"Klinik Kesihatan Nanga Semah",1,0,0,0,2.36002,111.51261,"Nanga Semah
96200, Daro
Sarawak","019-210006","Sarawak"
"Klinik Kesihatan Paloh",1,0,0,0,2.41842,111.25285,"Kampung Paloh
96250, Daro
Sarawak","089-881703 / 013-8432047 (MA)","Sarawak"
"Klinik Kesihatan Tanjung Manis",1,0,0,0,2.151349,111.360155,"Pekan Tanjung Manis
96150, Daro
Sarawak","084-613236","Sarawak"
"Klinik Kesihatan Tekajong",1,0,0,0,2.739262,111.304668,"Kampung Tekajong
96200, Daro
Sarawak","019-8364561","Sarawak"
"Klinik Kesihatan Julau",1,0,0,0,2.02596,111.91293,"Pekan Julau
96600, Julau
Sarawak","084-734253","Sarawak"
"Klinik Kesihatan Lassi",1,0,0,0,1.96053,111.78273,"Kampung Lassi
96600, Julau
Sarawak","084-734253 013-8457856 (JM)","Sarawak"
"Klinik Kesihatan Nanga Entabai",1,0,0,0,1.792228,111.921208,"Kampung Nanga Entabai
96600, Julau
Sarawak","084-721005","Sarawak"
"Klinik Kesihatan Nanga Maong (Mujok)",1,0,0,0,1.73997,112.03309,"Kampung Maong
96600, Julau
Sarawak","084-734253","Sarawak"
"Klinik Kesihatan Nanga Ensiring",1,0,0,0,1.66321,112.03503,"Kampung Ensiring
96600, Julau
Sarawak","084-775503","Sarawak"
"Klinik Kesihatan Sekalong",1,0,0,0,1.90385,111.85042,"Kampung Sekalong
96600, Julau
Sarawak","084-394825","Sarawak"
"Klinik Kesihatan Machan",1,0,0,0,2.01494,112.02013,"Pekan Machan
96700, Kanowit
Sarawak","084-738116","Sarawak"
"Klinik Kesihatan Nanga Poi (Menalun)",1,0,0,0,2.100943,112.151041,"Kampung Nanga Poi
96700, Kanowit
Sarawak","013-2865114","Sarawak"
"Klinik Kesihatan Nanga Jagau",1,0,0,0,1.8596,112.30601,"Kampung Nanga Jagau
96700, Kanowit
Sarawak","084-752333 / 084-752104 (PKD)","Sarawak"
"Klinik Kesihatan Ngungun",1,0,0,0,1.98503,112.40318,"Kampung Ngungun
96700, Kanowit
Sarawak","013-2865113","Sarawak"
"Klinik Kesihatan Ng Tada",1,0,0,0,2.086955,112.3605,"Lot. 10, Section 7, Mapai Land District
96700, Kanowit
Sarawak","-","Sarawak"
"Klinik Kesihatan Kapit",1,0,0,0,2.01164,112.92896,"Jalan Bleteh,
96800, Kapit
Sarawak","084-799661","Sarawak"
"Klinik Kesihatan Nanga Melinau",1,0,0,0,1.975441,112.929397,"Nanga Melinau, Sungai Mujong
96800, Kapit
Sarawak","084-796404 (PKD)","Sarawak"
"Klinik Kesihatan Nanga Bena",1,0,0,0,1.98176,113.1057,"Jalan Sungai Bena, Rumah Panjang
96800, Kapit
Sarawak","084-796404 (PKD)","Sarawak"
"Klinik Kesihatan Nanga Entawau",1,0,0,0,1.822061,113.680009,"Kampung Entawau
96800, Kapit
Sarawak","084-796404 (PKD)","Sarawak"
"Klinik Kesihatan Nanga Gaat",1,0,0,0,1.883587,113.448278,"Kampung Nanga Gaat
96800, Kapit
Sarawak","084-796404 (PKD)","Sarawak"
"Klinik Kesihatan Nanga Ibau",1,0,0,0,2.011244,112.705028,"Kampung Nanga Ibau, Sungai Batang Rajang
96800, Kapit
Sarawak","084-796404 (PKD)","Sarawak"
"Klinik Kesihatan Nanga Merirai",1,0,0,0,1.84839,113.57477,"Kampung Nanga Merirai
96800, Kapit
Sarawak","084-796404 (PKD)","Sarawak"
"Klinik Kesihatan Nanga Mujong",1,0,0,0,2.02839,113.1715,"Kampung Nanga Mujong, Sungai Mujong Kapit
96800, Kapit
Sarawak","084-796404 (PKD)","Sarawak"
"Klinik Kesihatan Sekeroh",1,0,0,0,2.08447,113.23704,"Sungai Sekeroh
96800, Kapit
Sarawak","084-796404 (PKD)","Sarawak"
"Klinik Kesihatan Tunoh Scheme",1,0,0,0,2.050537,113.670679,"Kampung Tunoh Scheme
96800, Kapit
Sarawak","084-796404 (PKD)","Sarawak"
"Klinik Kesihatan Nanga Merit",1,0,0,0,4.53472,114.94472,"Klinik Kesihatan Nanga Merit, Kapit
96800, Kapit
Sarawak","-","Sarawak"
"Klinik Kesihatan Bako",1,0,0,0,1.65902,110.43789,"Jalan Bako, Kampung Bako
93150, Kuching
Sarawak","082-475967 / 082-431391","Sarawak"
"Klinik Kesihatan Batu Kawa",1,0,0,0,1.51102,110.27061,"Jalan Eng Sing, Off Jalan Stapok, Batu Kawa
93250, Kuching
Sarawak","082-688518","Sarawak"
"Klinik Kesihatan Buntal",1,0,0,0,1.70172,110.37032,"Jalan Tengah
93050, Kuching
Sarawak","082-846493","Sarawak"
"Klinik Kesihatan Bunuk",1,0,0,0,1.316243,110.286048,"Klinik Jalan Puncak Borneo
93250, Kuching
Sarawak","082-765963","Sarawak"
"Klinik Kesihatan Kota Sentosa",1,0,0,0,1.46426,110.3338,"Kota Sentosa, Jalan Stakan
93250, Kuching
Sarawak","082-626080 / 082-626078/ 082-626079","Sarawak"
"Klinik Kesihatan Jalan Masjid",1,0,0,0,1.557219,110.342823,"Jalan Masjid
93400, Kuching
Sarawak","082-427110 / 082-257867","Sarawak"
"Klinik Kesihatan Padawan",1,0,0,0,1.1626,110.25954,"Jalan Puncak Borneo
93250, Kuching
Sarawak","016-8566534","Sarawak"
"Klinik Kesihatan Santubong",1,0,0,0,1.718688,110.315037,"Jalan Sultan Tengah
93050, Kuching
Sarawak","082-846439","Sarawak"
"Klinik Kesihatan Siburan",1,0,0,0,1.36084,110.40474,"Km 27, Jalan Kuching/Serian
94200, Kuching
Sarawak","082-864202","Sarawak"
"Klinik Kesihatan Tanah Puteh",1,0,0,0,1.551387,110.380385,"Tanah Puteh, Jalan Pending
93450, Kuching
Sarawak","082-344011/ 082-482573 / 342011","Sarawak"
"Klinik Kesihatan Telaga Air",1,0,0,0,1.67426,110.20859,"Jalan Matang, Kampung Telaga Air
93050, Kuching
Sarawak","082-843200","Sarawak"
"Klinik Kesihatan Teng Bukap",1,0,0,0,1.207677,110.369081,"Teng Bukap, Km 15 Jln Padawan
93250, Kuching
Sarawak","082-750530 / 011-217104","Sarawak"
"Klinik Kesihatan Tg.Embang",1,0,0,0,1.536026,110.336573,"Kampung Tanjung Embang
93150, Kuching
Sarawak","082-226454/ 082-257867 (PKB)","Sarawak"
"Klinik Kesihatan Braang Bayor",1,0,0,0,1.316243,110.286048,"Km 20 Jalan Puncak Borneo
93050, Kuching
Sarawak","-","Sarawak"
"Klinik Kesihatan Petra Jaya",1,0,0,0,1.590886,110.337471,"Lot 8196,8197,8200,8201 Dan 3218 Sect.018,K.T.L.D., Jalan Siol Kanan,Petra Jaya
93050, Kuching
Sarawak","-","Sarawak"
"Klinik Kesihatan Ba Kelalan",1,0,0,0,3.986524,115.622922,"Pekan Ba Kelalan, 98700 Limbang
98850, Lawas
Sarawak","085-283781 (PKD)","Sarawak"
"Klinik Kesihatan Kuala Lawas",1,0,0,0,4.952106,115.424752,"Bandar Kuala Lawas
98850, Lawas
Sarawak","011-211549","Sarawak"
"Klinik Kesihatan Lawas",1,0,0,0,4.85454,115.4047,"Jalan Hospital
98850, Lawas
Sarawak","085-284870/ 082-284470","Sarawak"
"Klinik Kesihatan Long Semadoh",1,0,0,0,4.215724,115.589957,"Long Semandoh
98850, Lawas
Sarawak","085-283781 (PKD)","Sarawak"
"Klinik Kesihatan Long Sukang",1,0,0,0,4.552892,115.48812,"Long Sukang
98850, Lawas
Sarawak","085-623004","Sarawak"
"Klinik Kesihatan Merapok",1,0,0,0,4.96237,115.50564,"Merapok, Jalan Sindumin
98850, Lawas
Sarawak","087-811090","Sarawak"
"Klinik Kesihatan Sundar",1,0,0,0,4.892264,115.206373,"Pekan Sundar
98800, Lawas
Sarawak","085-264233","Sarawak"
"Klinik Kesihatan Tang Lapadan",1,0,0,0,3.568967,115.553083,"Tang Lapadan
98850, Lawas
Sarawak","085-283781 (PKD)","Sarawak"
"Klinik Kesihatan Trusan",1,0,0,0,4.78556,115.27621,"Pekan Trusan
98850, Lawas
Sarawak","085-282380","Sarawak"
"Klinik Kesihatan Batu Danau",1,0,0,0,4.659445,114.827844,"Batu Danau
98700, Limbang
Sarawak","085-240010","Sarawak"
"Klinik Kesihatan Kuala Medalam",1,0,0,0,4.388,114.90052,"Pekan Kuala Mendalam
99700, Limbang
Sarawak","085-211166 (PKD)","Sarawak"
"Klinik Kesihatan Nanga Medamit",1,0,0,0,4.469025,114.914934,"Pekan Nanga Mendamit
98700, Limbang
Sarawak","085-211166 (PKD)","Sarawak"
"Klinik Kesihatan Nanga Merit",1,0,0,0,2.28859,113.12792,"Kampung Nanga Merit
98700, Limbang
Sarawak","085-211166 (PKD)","Sarawak"
"Klinik Kesihatan Penganan",1,0,0,0,4.55589,115.06604,"Penganan
98700, Limbang
Sarawak","085-211166 (PKD)","Sarawak"
"Klinik Kesihatan Batang Ai",1,0,0,0,1.125829,111.861593,"Batang Ai, Sri Aman
95900, Lubok Antu
Sarawak","083-322072","Sarawak"
"Klinik Kesihatan Engkilili",1,0,0,0,1.137979,111.638972,"Pekan Engkilili
95900, Lubok Antu
Sarawak","083-563004","Sarawak"
"Klinik Kesihatan Lubok Antu",1,0,0,0,1.04178,111.8361,"Pekan Lubok Antu
95007, Lubok Antu
Sarawak","083-584105","Sarawak"
"Klinik Kesihatan Merindun",1,0,0,0,1.17878,111.751213,"Merindun, Sri Aman
95900, Lubok Antu
Sarawak","083-563474","Sarawak"
"Klinik Kesihatan Nanga Kesit",1,0,0,0,1.229621,111.783169,"Nanga Kesit, Sri Aman
95900, Lubok Antu
Sarawak","011-221154","Sarawak"
"Klinik Kesihatan Nanga Patoh",1,0,0,0,1.335922,111.83277,"Nanga Patoh, Sri Aman
95900, Lubok Antu
Sarawak","083-584105 (PKD)","Sarawak"
"Klinik Kesihatan Biawak",1,0,0,0,1.61896,109.68134,"Kampung Biawak
94500, Lundu
Sarawak","082-322977","Sarawak"
"Klinik Kesihatan Sematan",1,0,0,0,1.808979,109.776255,"Jalan Sungai Kilang, Sematan
94100, Lundu
Sarawak","082-711340","Sarawak"
"Klinik Kesihatan Sampadi",1,0,0,0,1.68672,110.01399,"Kampung Sampadi
94500, Lundu
Sarawak","082-735311 (PKD)","Sarawak"
"Klinik Kesihatan Stoh Rambungan",1,0,0,0,1.692052,110.099584,"Kampung Rambungan
94500, Lundu
Sarawak","013-8207847 (JM)","Sarawak"
"Klinik Kesihatan Bintangor",1,0,0,0,2.16439,111.63714,"Pekan Bintagor
96500, Meradong
Sarawak","084-693333","Sarawak"
"Klinik Kesihatan Bario",1,0,0,0,3.74052,115.46723,"Pekan Bario
98050, Marudi
Sarawak","-","Sarawak"
"Klinik Kesihatan Beluru",1,0,0,0,3.977317,114.094704,"Beluru, Baram
98050, Marudi
Sarawak","085-744245","Sarawak"
"Klinik Kesihatan Long Bedian",1,0,0,0,3.794918,114.732075,"Rumah Panjang Long Bedian, Baram
98050, Marudi
Sarawak","011-295192","Sarawak"
"Klinik Kesihatan Long Jeeh",1,0,0,0,2.98311,114.95786,"Kampung Long Jeeh, Baram
98050, Marudi
Sarawak","-","Sarawak"
"Klinik Kesihatan Long Jegan",1,0,0,0,3.587491,114.116242,"Kampung Long Jegan, Baram
98050, Marudi
Sarawak","-","Sarawak"
"Klinik Kesihatan Long Kevok",1,0,0,0,3.802,114.907333,"Kampung Long Kevok, Baram
98050, Marudi
Sarawak","013-2865608","Sarawak"
"Klinik Kesihatan Long Lellang",1,0,0,0,3.420979,115.153885,"Kampung Long Lellang, Baram
98050, Marudi
Sarawak","085-755511 (PKD)","Sarawak"
"Klinik Kesihatan Long Miri",1,0,0,0,3.58801,114.427199,"Kampung Long Miri, Baram
98050, Marudi
Sarawak","013-2865606","Sarawak"
"Klinik Kesihatan Long Naah",1,0,0,0,3.32891,114.596903,"Kampung Long Naah, Baram
98050, Marudi
Sarawak","-","Sarawak"
"Klinik Kesihatan Long Panai",1,0,0,0,3.948748,114.541716,"Kampung Long Panai, Baram
98050, Marudi
Sarawak","085-755511 (PKD)","Sarawak"
"Klinik Kesihatan Long Pillah",1,0,0,0,3.48435,114.42913,"Kampung Long Pilah, Baram
98050, Marudi
Sarawak","-","Sarawak"
"Klinik Kesihatan Long San",1,0,0,0,3.29568,114.78221,"Kampung Long San, Baram
98050, Marudi
Sarawak","-","Sarawak"
"Klinik Kesihatan Long Teran",1,0,0,0,3.61364,114.15183,"Kampung Long Teran, Baram
98050, Marudi
Sarawak","-","Sarawak"
"Klinik Kesihatan Lio Mato",1,0,0,0,3.169665,115.221629,"Kampung Lio Mato, Baram
98050, Marudi
Sarawak","-","Sarawak"
"Klinik Kesihatan Long Banga",1,0,0,0,3.20551,115.39137,"Rumah Panjang Long Banga, Baram
98050, Marudi
Sarawak","-","Sarawak"
"Klinik Kesihatan Long Bemang",1,0,0,0,3.85925,114.59178,"Rumah Panjang Long Bemang, Baram
98050, Marudi
Sarawak","085-755511 (PKD)","Sarawak"
"Klinik Kesihatan Long Lama",1,0,0,0,3.762499,114.405176,"Kampung Long Lama, Baram
98050, Marudi
Sarawak","085-755511","Sarawak"
"Klinik Kesihatan Long Loyang",1,0,0,0,3.448402,114.116675,"Kampung Long Loyang, Baram
98050, Marudi
Sarawak","-","Sarawak"
"Klinik Kesihatan Long Teru",1,0,0,0,3.863783,114.244486,"Kampung Long Teru
98050, Marudi
Sarawak","085-775100","Sarawak"
"Klinik Kesihatan Taman Negara Mulu",1,0,0,0,4.032355,114.797241,"Taman Negara Mulu
98050, Marudi
Sarawak","085-792115 / 011-2212344","Sarawak"
"Klinik Kesihatan Ulu Teru",1,0,0,0,1.581368,111.464852,"Ulu Teru, Baram
98050, Marudi
Sarawak","013-2865607","Sarawak"
"Klinik Kesihatan Long Moh",1,0,0,0,3.056713,115.076194,"Kampung Long Moh
98000, Marudi
Sarawak","-","Sarawak"
"Klinik Kesihatan Long Seridan",1,0,0,0,3.973911,115.069158,"Kampung Long Seridan
98000, Marudi
Sarawak","085-474722","Sarawak"
"Klinik Kesihatan Pa' Dalih",1,0,0,0,3.567309,115.553627,"Jalan Kayu Balak, Baram
98050, Marudi
Sarawak","085-755511 (PKD)","Sarawak"
"Klinik Kesihatan Kuala Igan",1,0,0,0,2.82203,111.71003,"Kampung Igan, Daro
96300, Matu
Sarawak","084-848306","Sarawak"
"Klinik Kesihatan Kuala Matu",1,0,0,0,2.71047,111.4633,"Kampung Kuala Matu
96250, Matu
Sarawak","084-807618","Sarawak"
"Klinik Kesihatan Matu",1,0,0,0,2.675341,111.532523,"Pekan Matu
96000, Matu
Sarawak","084-832236","Sarawak"
"Klinik Kesihatan Nanga Passin",1,0,0,0,2.635692,111.709433,"Kampung Nanga Passin
96000, Matu
Sarawak","017-2100009 / 011-213043","Sarawak"
"Klinik Kesihatan Rassau",1,0,0,0,2.60135,111.83704,"Batang Air, Kampung Rasau
96000, Matu
Sarawak","010-8771382","Sarawak"
"Klinik Kesihatan Tian",1,0,0,0,2.638119,111.515198,"Kampung Tian
96250, Matu
Sarawak","084-832733","Sarawak"
"Klinik Kesihatan Batu Niah",1,0,0,0,3.79474,113.74769,"Batu Niah, Miri
98200, Miri
Sarawak","085-737710","Sarawak"
"Klinik Kesihatan Bekenu",1,0,0,0,4.0581,113.84737,"Kampung Bekenu
98150, Miri
Sarawak","085-719003","Sarawak"
"Klinik Kesihatan Ladang Tiga",1,0,0,0,3.87391,113.888696,"Pekan Ladang Tiga
98120, Miri
Sarawak","085-424722 (PKB)","Sarawak"
"Klinik Kesihatan Bandar Miri",1,0,0,0,4.39561,113.99164,"Bandar Miri, Jalan Merbau
98800, Miri
Sarawak","085-412322","Sarawak"
"Klinik Kesihatan Suai Tegageng",1,0,0,0,3.71265,113.62535,"Kampung Suai Tegageng
98000, Miri
Sarawak","085-740047 / 011-218210","Sarawak"
"Klinik Kesihatan Tudan",1,0,0,0,4.48284,114.02371,"Jalan Tudan Permyjaya, Lutong
98100, Miri
Sarawak","085-654404","Sarawak"
"Klinik Kesihatan Tun Haji Openg",1,0,0,0,4.092792,113.960184,"Jalan Tun Haji Openg
98000, Miri
Sarawak","085-424722 (PKB)","Sarawak"
"Klinik Kesihatan Jambatan Suai",1,0,0,0,3.792727,113.632791,"Jambatan Suai
98000, Miri
Sarawak","085-474722","Sarawak"
"Klinik Kesihatan Long Jekitan",1,0,0,0,3.71265,113.62535,"D/A Pejabat Kesihatan Bahagian Miri, Jalan Temenggong Oyong Lawai Jau
98000, Miri
Sarawak","085-424722","Sarawak"
"Klinik Kesihatan Balingian",1,0,0,0,2.931568,112.541108,"Balingan
96400, Mukah
Sarawak","084-484146","Sarawak"
"Klinik Kesihatan Kuala Balingian",1,0,0,0,3.012981,112.58683,"Kampung Kuala Balingan
96400, Mukah
Sarawak","084-484265","Sarawak"
"Klinik Kesihatan Ldg. Sawit",1,0,0,0,2.534248,112.316249,"Kampung Ladang Sawit
96400, Mukah
Sarawak","084-805166","Sarawak"
"Klinik Kesihatan Nanga Taroh",1,0,0,0,2.619,112.26699,"Kampung Nanga Taroh
96400, Mukah
Sarawak","011-257484","Sarawak"
"Klinik Kesihatan Kampung Teh",1,0,0,0,2.831201,111.900492,"Kampung Teh
96300, Mukah
Sarawak","084-805733","Sarawak"
"Klinik Kesihatan Nanga Entaih",1,0,0,0,1.68977,111.76232,"Kampung Entaih
96150, Pakan
Sarawak","084-775501","Sarawak"
"Klinik Kesihatan Nanga Wak",1,0,0,0,1.83552,111.61593,"Kampung Wak
96150, Pakan
Sarawak","083-434008","Sarawak"
"Klinik Kesihatan Nanga Kara",1,0,0,0,1.91616,111.73739,"Kampung Nanga Kara
96150, Pakan
Sarawak","084-775502","Sarawak"
"Klinik Kesihatan Pakan",1,0,0,0,1.88636,111.6765,"Pekan Pakan
96150, Pakan
Sarawak","084-719226","Sarawak"
"Klinik Kesihatan Kemalih",1,0,0,0,1.91616,111.73739,"Klinik Kesihatan Kemalih,Ulu Entabai
96150, Pakan
Sarawak","019-8122716","Sarawak"
"Klinik Kesihatan Kota Samarahan",1,0,0,0,1.45788,110.48915,"Kota Samarahan, Jalan Datuk Muhamad Musa
94300, Samarahan
Sarawak","082-673626","Sarawak"
"Klinik Kesihatan Sambir",1,0,0,0,1.572737,110.543587,"Kampung Sambir
94600, Samarahan
Sarawak","082-436384","Sarawak"
"Klinik Kesihatan Kabong",1,0,0,0,1.80833,111.11864,"Kabong, Betong
94650, Saratok
Sarawak","083-411211","Sarawak"
"Klinik Kesihatan Nanga Atoi",1,0,0,0,1.842088,111.413911,"Kampung Nanga Atoi
95400, Saratok
Sarawak","083-567400","Sarawak"
"Klinik Kesihatan Nanga Budu",1,0,0,0,1.76135,111.50743,"Kampung Nanga Budu
95400, Saratok
Sarawak","083-589300","Sarawak"
"Klinik Kesihatan Nyabor",1,0,0,0,1.93695,111.1819,"Kampung Nyabor, Roban
95300, Saratok
Sarawak","083-411068/ 083-326320","Sarawak"
"Klinik Kesihatan Roban",1,0,0,0,1.88128,111.30968,"Pekan Kechil Roban
95300, Saratok
Sarawak","083-427244","Sarawak"
"Klinik Kesihatan Balai (Bakam)",1,0,0,0,4.367197,113.968928,"Balai
96100, Sarikei
Sarawak","084-651077","Sarawak"
"Klinik Kesihatan Sarikei",1,0,0,0,2.12231,111.5193,"Sarikei, Jalan Hospital Lama
96100, Sarikei
Sarawak","084-658652","Sarawak"
"Klinik Kesihatan Sekuau",1,0,0,0,2.351784,112.128064,"Kampung Sekau
96000, Selangau
Sarawak","084-805193","Sarawak"
"Klinik Kesihatan Selangau",1,0,0,0,2.527674,112.32911,"Kampung Selangau
96000, Selangau
Sarawak","084-894320","Sarawak"
"Klinik Kesihatan Sungai Arip",1,0,0,0,2.73619,112.662,"Kampung Sungai Arip
96000, Selangau
Sarawak","086-469603","Sarawak"
"Klinik Kesihatan Tepus",1,0,0,0,2.34083,112.32474,"Pekan Tepus
96000, Selangau
Sarawak","-","Sarawak"
"Klinik Kesihatan Balai Ringin",1,0,0,0,1.0512,110.7531,"Kampung Ringin
94700, Serian
Sarawak","082-877329","Sarawak"
"Klinik Kesihatan Bunan Gega",1,0,0,0,0.919361,110.540904,"Kampung Bunan Gega, Tebakang
94750, Serian
Sarawak","082-895497","Sarawak"
"Klinik Kesihatan Pangkalan Amo",1,0,0,0,1.176364,110.564067,"Kampung Pengkalan Amo
94700, Serian
Sarawak","013-5680129","Sarawak"
"Klinik Kesihatan Ensengei",1,0,0,0,1.34533,110.538549,"Kampung Ensengei
94700, Serian
Sarawak","082-325201","Sarawak"
"Klinik Kesihatan Tarat",1,0,0,0,1.209143,110.530882,"Pekan Tarat
94700, Serian
Sarawak","082-876591","Sarawak"
"Klinik Kesihatan Tebakang",1,0,0,0,1.097088,110.502663,"Kampung Tekabang, Tekabang
94750, Serian
Sarawak","082-895625","Sarawak"
"Klinik Kesihatan Tebedu",1,0,0,0,1.02201,110.36091,"Pekan Tebedu, Tebedu
94750, Serian
Sarawak","082-797219","Sarawak"
"Klinik Kesihatan Triboh",1,0,0,0,1.12457,110.62587,"Kampung Triboh
94700, Serian
Sarawak","082-870321","Sarawak"
"Klinik Kesihatan Bawang Assan",1,0,0,0,2.302766,111.685774,"Bawang Assan
96000, Sibu
Sarawak","084-801044","Sarawak"
"Klinik Kesihatan Durin",1,0,0,0,2.136788,111.971916,"Klinik Kesihatan Durin, Jln Durin
96000, Sibu
Sarawak","084-736108","Sarawak"
"Klinik Kesihatan Jalan Lanang",1,0,0,0,2.24642,111.84177,"Poliklinik Lanang, Jln Ulu Lanang
96000, Sibu
Sarawak","084-210433","Sarawak"
"Klinik Kesihatan Jalan Oya",1,0,0,0,2.300717,111.83537,"Klinik Kesihatan Oya, Jalan Oya
96000, Sibu
Sarawak","084-323355","Sarawak"
"Klinik Kesihatan Passai Siong",1,0,0,0,2.46449,111.95494,"Passai Siong
96000, Sibu
Sarawak","084-861200","Sarawak"
"Klinik Kesihatan Sibu Jaya",1,0,0,0,2.253263,111.888189,"Sibu
96000, Sibu
Sarawak","084=235214","Sarawak"
"Klinik Kesihatan Gedong",1,0,0,0,1.235412,110.691324,"Kampung Gedong, Kota Samarahan
94300, Simunjan
Sarawak","082-781499","Sarawak"
"Klinik Kesihatan Kesindu",1,0,0,0,1.159501,110.896675,"Kampung Kesindu, Kota Samarahan
94800, Simunjan
Sarawak","082-896939","Sarawak"
"Klinik Kesihatan Mentu",1,0,0,0,1.266167,111.027694,"Kampung Mentu, Kota Samarahan
94300, Simunjan
Sarawak","013-8123810","Sarawak"
"Klinik Kesihatan Munggu Lallang",1,0,0,0,1.237969,110.910386,"Kampung Munggu Lallang, Kota Samarahan
94800, Simunjan
Sarawak","082-895498","Sarawak"
"Klinik Kesihatan Sebangan",1,0,0,0,1.557734,110.77419,"Pekan Sebangan
94800, Simunjan
Sarawak","083-468337","Sarawak"
"Klinik Kesihatan Sebuyau",1,0,0,0,1.520665,110.934435,"Pekan Sebuyau, Kota Samarahan (D/A Pegawai Kesihatan Bahagian, Bahagian Samarahan, Jalan Datuk Muhamad Musa)
94300, Simunjan
Sarawak","082-467126","Sarawak"
"Klinik Kesihatan Chemenong",1,0,0,0,1.706113,112.380855,"Kampung Chemenong
96850, Song
Sarawak","084-777333 (PKD)","Sarawak"
"Klinik Kesihatan Nanga Bangkit",1,0,0,0,1.77072,112.63817,"Kampung Nanga Bangkit
96850, Song
Sarawak","084-777333 (PKD)","Sarawak"
"Klinik Kesihatan Nanga Engkuah",1,0,0,0,1.710363,112.552909,"Kampung Engkuah
96850, Song
Sarawak","084-777333 (PKD)","Sarawak"
"Klinik Kesihatan Nanga Tekalit",1,0,0,0,1.901057,112.573331,"Nanga Tekalit, Kapit
96850, Song
Sarawak","084-777333 (PKD)","Sarawak"
"Klinik Kesihatan Song",1,0,0,0,2.008428,112.549778,"Pekan Kecil Song
96850, Song
Sarawak","084-777333","Sarawak"
"Klinik Kesihatan Batu Lintang",1,0,0,0,1.018313,111.554108,"Kampung Batu Lintang
95007, Sri Aman
Sarawak","083-418347","Sarawak"
"Klinik Kesihatan Lingga",1,0,0,0,1.35271,111.1676,"Kampung Lingga
94500, Sri Aman
Sarawak","083-496223","Sarawak"
"Klinik Kesihatan Nanga Entalau",1,0,0,0,1.4565,111.790157,"Kampung Nanga Entalau
95007, Sri Aman
Sarawak","083-322176 / 083-322058 (PKB)","Sarawak"
"Klinik Kesihatan Pantu",1,0,0,0,1.142232,111.117207,"Pekan Pantu
95000, Sri Aman
Sarawak","083-545228","Sarawak"
"Klinik Kesihatan Skrang",1,0,0,0,1.280156,111.62453,"Kampung Skrang
95000, Sri Aman
Sarawak","-","Sarawak"
"Klinik Kesihatan Sri Aman",1,0,0,0,1.23323,111.46255,"Sri Aman, Jalan Hospital
95000, Sri Aman
Sarawak","083-327769","Sarawak"
"Klinik Kesihatan Tanjung Bijat",1,0,0,0,1.303778,111.392637,"Kampung Tanjung Bilat
95000, Sri Aman
Sarawak","083-309476","Sarawak"
"Klinik Kesihatan Nanga Stamang",1,0,0,0,1.31299,111.94352,"Nanga Stamang
95900, Lubok Antu
Sarawak","083-322176","Sarawak"
"Klinik Kesihatan Nanga Delok",1,0,0,0,1.224768,112.01844,"Nanga Delok
95900, Lubok Antu
Sarawak","083-322176 / 083-322058 (PKB)","Sarawak"
"Klinik Kesihatan Nanga Tau",1,0,0,0,2.543024,113.032138,"Nanga Tau, Bintulu
97000, Tatau
Sarawak","086-479707","Sarawak"
"Klinik Kesihatan Sangan",1,0,0,0,2.765567,112.975837,"Sangan, Bintulu
97000, Tatau
Sarawak","086-581047 / 086-326252","Sarawak"
"Klinik Kesihatan Tatau",1,0,0,0,2.88134,112.85431,"Pekan
97200, Tatau
Sarawak","086-584619","Sarawak"
"Klinik Kesihatan Wp Labuan",1,0,0,0,5.28696,115.26441,"Pejabat Timbalan Pengarah Kesihatan Awam, Bahagian Klinik Kesihatan,Peti Surat 81736
87027, Labuan
Wp Labuan","087-411702 / 087-596000","Wp Labuan"
"Klinik Kesihatan Tawau",1,0,0,0,4.259496,117.911765,"Pejabat Kesihatan Tawau
91008, Tawau
Sabah","0889-775733","Sabah"
"Klinik Kesihatan Kuala Lumpur",1,0,0,0,3.173207,101.70663,"Lot 151 & 116, Jalan Fletcher  Off Jalan Tun Razak
50400, Titiwangsa
Wp Kuala Lumpur","03-26980282","Wp Kuala Lumpur"
"Klinik Kesihatan Kota Damansara",1,0,0,0,2.804481,101.501309,"No 58 Tingkat 3, Jalan  Pekaka 8/3, Damansara, Petaling Jaya
47810, Damansara
Selangor","","Selangor"
"Klinik Kesihatan Terian",1,0,0,0,5.807294,116.17462,"Kampong Terian, Peti Surat 434
89500, Penampang
Sabah","088-722017 (PKK) / 088-
722642 (PKK)
/ 088-722857 (PKK)","Sabah"
"Klinik Kesihatan Labang",1,0,0,0,3.258652,113.49004,"Sebauh, Bintulu
97000, Bintulu
Sarawak","086-858200 (PKB)","Sarawak"
"Klinik Kesihatan Pasir Pekan",1,0,0,0,6.085654,102.146663,"Pasir Pekan
16250, Wakaf Bharu
Kelantan","","Kelantan"
"Klinik Kesihatan Sg Bertek",1,0,0,0,3.049174,101.42728,"Klang
41250, Klang
Selangor","03-33811580","Selangor"
"Klinik Kesihatan Chennah",1,0,0,0,3.01219,101.997395,"Jelebu
71650, Jelebu
Negeri Sembilan","06-6113369","Negeri Sembilan"
"Klinik Kesihatan Bagan Pinang",1,0,0,0,2.505699,101.83195,"Batu 4, Jalan Pantai, Port Dickson
71050, Port Dickson
Negeri Sembilan","06-6473177","Negeri Sembilan"
"Klinik Kesihatan Bandar Tun Hussein Onn",1,0,0,0,3.054952,101.755027,"Jalan Suadamai, Bandar Tun Hussein Onn
43200, Hulu Langat
Selangor","","Selangor"
"Klinik Kesihatan Sri Jaya",1,0,0,0,3.669402,102.884695,"Sri Jaya Maran
26500, Maran
Pahang","","Pahang"
"Klinik Kesihatan Kedup",1,0,0,0,1.062936,110.494339,"Kg Mentong Merauh , Serian
94700, Serian
Sarawak","","Sarawak"
"Klinik Kesihatan Utc Sungai Petani",1,0,0,0,5.63335,100.494233,"Lot G-Ut-02 Utc Sg Petani, Bangunan Ukir Square, Jalan Kuala Ketil
8000, Kuala Muda
Kedah","04-4214075","Kedah"
"Klinik Kesihatan Utc Alor Star",1,0,0,0,6.15191,100.334834,"Aras Bawah, Kompleks Mbas (City Ponit Jln Kolam Air)
5100, Kota Star
Kedah","04-7360008","Kedah"
"Klinik Kesihatan Utc Miri",1,0,0,0,4.393116,113.986671,"K1M Utc Jalan Raja
98000, Miri
Sarawak","085-423533 / 429433/436433","Sarawak"
