"Name","Clinic","Hospital","ST","VAC","Latitude","Longitude","Address","Contact","State"
"Poliklinik Bestari",1,0,0,0,5.3712,100.415,"No 20
Lorong Pauh Jaya 1/1
13700, Prai
Pulau Pinang","04-399 3636","Pulau Pinang"
"Klinik Munirah Iskandar",1,0,0,0,5.37502,100.42,"No 29
Jalan Pauh Indah 1
13500, Seberang Jaya
Pulau Pinang","04-398 8944","Pulau Pinang"
"Klinik Pergigian Desa Murni",1,0,0,0,5.37509,100.42,"No. 19,1-09, Taman Pauh Indah
Jalan Pauh Indah 1
13800, Bukit Mertajam
Pulau Pinang","04-356 9958","Pulau Pinang"
"Poliklinik Intan Sdn Bhd",1,0,0,0,5.41007,100.412,"1500, Taman Arowana
Main Road
13500, Permatang Pauh
Pulau Pinang","04-507 6560","Pulau Pinang"
"Poliklinik Dr.Azhar & Rakan-Rakan",1,0,0,0,5.41009,100.411,"No. 1510, Tingkat Bawah, Taman Arowana
Jalan Permatang Pauh
13500, Permatang Pauh
Pulau Pinang","04-398 8180","Pulau Pinang"
"Poliklinik Ikhsan",1,0,0,0,5.40331,100.399,"32
Jalan Sembilang 2
13700, Seberang Jaya
Pulau Pinang","04-399 2391","Pulau Pinang"
"Klinik Joe Fernandez",1,0,0,0,5.39622,100.403,"1
Halaman Tenggiri 2
13700, Seberang Jaya
Pulau Pinang","04-399 8413","Pulau Pinang"
"Klinik Shaik M.R",1,0,0,0,5.39369,100.402,"79
Lorong Tuna
13700, Prai
Pulau Pinang","04-399 5380","Pulau Pinang"
"Poliklinik Chong & Su",1,0,0,0,5.39354,100.403,"47
Lorong Tuna
13700, Seberang Jaya
Pulau Pinang","04-399 9100","Pulau Pinang"
"Klinik Syed Alwi Dan Chandran",1,0,0,0,5.3961,100.398,"3
Jalan Todak 5
13700, Seberang Jaya
Pulau Pinang","04-390 1464","Pulau Pinang"
"Klinik Pakar Kanak-Kanak & Keluarga",1,0,0,0,5.39571,100.399,"No. 4-A, Pusat Bandar Seberang Jaya
Jalan Todak 4
13700, Seberang Jaya
Pulau Pinang","TIADA","Pulau Pinang"
"Klinik Pergigian Dr.Ameen",1,0,0,0,5.39052,100.402,"27
Jalan Tenggiri
13700
Pulau Pinang","04-398 4942","Pulau Pinang"
"Klinik Pergigian Seberang Jaya",1,0,0,0,5.39014,100.402,"41
Jalan Tenggiri
13700, Seberang Jaya
Pulau Pinang","04-390 3013","Pulau Pinang"
"Klinik Dr. Gigi Bhar",1,0,0,0,5.3899,100.402,"49
Jalan Tenggiri
13700, Seberang Jaya
Pulau Pinang","04-398 8919","Pulau Pinang"
"Klinik Amar",1,0,0,0,5.39193,100.401,"No. 44
Jalan Tenggiri
13700, Seberang Jaya
Pulau Pinang","04-390 0855","Pulau Pinang"
"Klinik Singapore Seberang Jaya",1,0,0,0,5.39122,100.401,"64
Jalan Tenggiri
13700, Seberang Jaya
Pulau Pinang","04-3997575","Pulau Pinang"
"Klinik Munawar",1,0,0,0,5.38451,100.403,"19, Kompleks Siakap
Tingkat Siakap 3
13700, Seberang Jaya
Pulau Pinang","04-390 1107","Pulau Pinang"
"Poliklinik Anda",1,0,0,0,5.38448,100.403,"1, Kompleks Siakap
Tingkat Siakap 3
13700, Seberang Jaya
Pulau Pinang","04-390 8745","Pulau Pinang"
"Klinik Suan",1,0,0,0,5.38446,100.392,"Medan Kurau 3
13700, Prai
Pulau Pinang","04-390 1207","Pulau Pinang"
"Poliklinik Kuan",1,0,0,0,5.38339,100.391,"21, Taman Chai Leng
Jalan Gan Chai Leng
13700, Prai
Pulau Pinang","04-398 3771","Pulau Pinang"
"Klinik Pergigian Perai",1,0,0,0,5.38402,100.39,"59, Taman Chai Leng
Jalan Gan Chai Leng
13700
Pulau Pinang","04-390 3505","Pulau Pinang"
"Poliklinik Dr. Velu",1,0,0,0,5.38405,100.39,"No. 60
Jalan Gan Chai Leng
13700, Prai
Pulau Pinang","04-390 5375","Pulau Pinang"
"Fong Medical Specialist Clinic",1,0,0,0,5.38423,100.393,"32, Taman Chai Leng
Jalan Kurau
13700, Prai
Pulau Pinang","04-390 0055","Pulau Pinang"
"Klinik Wong",1,0,0,0,5.38381,100.393,"26, Taman Chai Leng
Jalan Kurau
13700, Prai
Pulau Pinang","04-390 3213","Pulau Pinang"
"Cheah Dental Surgery",1,0,0,0,5.38322,100.392,"No 4,1 St Floor, Taman Chai Leng
Jalan Kurau
13700, Prai
Pulau Pinang","TIADA","Pulau Pinang"
"Poliklinik Ikhsan",1,0,0,0,5.36716,100.427,"32
Lorong Perda Utama 2
13700, Bukit Mertajam
Pulau Pinang","04-538 8096","Pulau Pinang"
"Poliklinik Famili",1,0,0,0,5.3671,100.425,"21
Jalan Lampam Off Jln Tenggiri
13700, Seberang Jaya
Pulau Pinang","04-530 1722","Pulau Pinang"
"Poliklinik Bakti Anz",1,0,0,0,5.36723,100.425,"No. 6
Lorong Perda Utama 1
14000, Bukit Mertajam
Pulau Pinang","04-537 1680","Pulau Pinang"
"Klinik Pergigian Mesra",1,0,0,0,5.36705,100.428,"No 24M
Lorong Perda Utama 4
14000, Bukit Mertajam
Pulau Pinang","04-538 0548","Pulau Pinang"
"Klinik Kana",1,0,0,0,5.36739,100.434,"17 Gf
Lorong Perda Selatan 2
14000, Bukit Mertajam
Pulau Pinang","04-539 8939","Pulau Pinang"
"Klinik Pakar Perdana",1,0,0,0,5.36608,100.437,"467
Jalan Permatang Rawa
14000, Bukit Mertajam
Pulau Pinang","04-537 6468","Pulau Pinang"
"Bayan Baru Dental Surgery",1,0,0,0,5.32259,100.288,"G 22, Sub Centre Kompleks Medan Mayang Pasir
Medan Mayang Pasir
11950, Bayan Baru
Pulau Pinang","04-643 2940","Pulau Pinang"
"Bp Doagnostic Centre Sdn. Bhd",1,0,0,0,5.33241,100.294,"1-1-1, Ideal Avenue
Medan Kg. Relau 1, Jln Tun Dr.Awang
11900, Bayan Lepas
Pulau Pinang","04-641 0382","Pulau Pinang"
"Oh Klinik Pakar Kanak-Kanak",1,0,0,0,5.36642,100.438,"483
Jalan Permatang Rawa
14000, Bukit Mertajam
Pulau Pinang","04-538 8311","Pulau Pinang"
"Klinik Dr. Chew",1,0,0,0,5.36639,100.46,"8, Taman Ciku
Lorong Ciku 2
14000, Bukit Mertajam
Pulau Pinang","04-539 0310","Pulau Pinang"
"Yap Dental Surgery",1,0,0,0,5.36643,100.46,"8, Taman Ciku
Lorong Ciku 2
14000, Bukit Mertajam
Pulau Pinang","04-538 1120","Pulau Pinang"
"Klinik Rashidi",1,0,0,0,5.36675,100.461,"8
Jalan Ciku
14000, Bukit Mertajam
Pulau Pinang","04-539 4595","Pulau Pinang"
"Klinik Siva",1,0,0,0,5.36541,100.46,"Jalan Arumugam Pillai
14000, Bukit Mertajam
Pulau Pinang","04-538 1245","Pulau Pinang"
"Lim Dental Surgery",1,0,0,0,5.36484,100.46,"229
Jalan Pasar
14000, Bukit Mertajam
Pulau Pinang","TIADA","Pulau Pinang"
"Lee Dispensary",1,0,0,0,5.36447,100.46,"221
Jalan Pasar
14000, Bukit Mertajam
Pulau Pinang","04-538 8181","Pulau Pinang"
"Onn Dental Surgery",1,0,0,0,5.36497,100.462,"45
Jalan Aston
14000, Bukit Mertajam
Pulau Pinang","04-538 7502","Pulau Pinang"
"Goay Klinik",1,0,0,0,5.36441,100.463,"29
Jalan Aston
14000, Bukit Mertajam
Pulau Pinang","04-538 0454","Pulau Pinang"
"Dr. (Mdm) Ooi Clinic",1,0,0,0,5.36374,100.463,"32, Taman Chai Leng
Jalan Kurau
13700, Prai
Pulau Pinang","04-539 3822","Pulau Pinang"
"Yang Dental Surgery",1,0,0,0,5.36305,100.464,"2
Jalan Aston
14000, Bukit Mertajam
Pulau Pinang","04-539 6728","Pulau Pinang"
"Bp Dianostic Centre Sdn Bhd",1,0,0,0,5.36391,100.463,"62 & 63, Tingkat Bawah
Jalan Aston
14000, Bukit Mertajam
Pulau Pinang","04-537 5889","Pulau Pinang"
"Klinik Koeh",1,0,0,0,5.36396,100.463,"63A
Jalan Aston
14000, Bukit Mertajam
Pulau Pinang","04-548 5406","Pulau Pinang"
"Klinik Pakar Kanak-Kanak Oh",1,0,0,0,5.35722,100.447,"15, Pusat Komersial Sri Rambai
Lorong Tembikai 6
14000, Bukit Mertajam
Pulau Pinang","04-538 8311","Pulau Pinang"
"Klinik Pakar K.K. Tan",1,0,0,0,5.35779,100.447,"6, Pusat Komersial Sri Rambai
Lorong Tembikai 1
14000, Bukit Mertajam
Pulau Pinang","04-538 8911","Pulau Pinang"
"Klinik Holistik",1,0,0,0,5.35792,100.448,"40, Pusat Komersial Sri Rambai
Lorong Tembikai 1
14000, Bukit Mertajam
Pulau Pinang","04-537 7189","Pulau Pinang"
"Klinik Pakar Kanak-Kanak T.C. Yeo",1,0,0,0,5.36327,100.445,"40, Taman Mutiara
Jalan Tembikai
14000, Bukit Mertajam
Pulau Pinang","04-538 2312","Pulau Pinang"
"Klinik Sri Rambai",1,0,0,0,5.35719,100.446,"36, Taman Mutiara
Jalan Tembikai
14000, Bukit Mertajam
Pulau Pinang","04-537 7366","Pulau Pinang"
"Klinik Bersatu",1,0,0,0,5.36366,100.445,"34, Taman Mutiara
Jalan Tembikai
14000, Bukit Mertajam
Pulau Pinang","04-539 2789","Pulau Pinang"
"Ding Polyklinik Dan Surgeri",1,0,0,0,5.36401,100.445,"30, Taman Mutiara
Jalan Tembikai
14000, Bukit Mertajam
Pulau Pinang","04-539 5967","Pulau Pinang"
"Poliklinik Intan Sdn Bhd",1,0,0,0,5.36467,100.445,"8, Taman Mutiara
Jalan Tembaikai
14000, Bukit Mertajam
Pulau Pinang","04-507 6560","Pulau Pinang"
"Klinik Aman (Dr. Khalid)",1,0,0,0,5.36515,100.442,"1241
Jalan Padang Lalang
14000, Bukit Mertajam
Pulau Pinang","04-539 7714","Pulau Pinang"
"Klinik Pakar Kanak-Kanak Tan",1,0,0,0,5.36496,100.446,"1399
Jalan Kebun Sireh
14000, Bukit Mertajam
Pulau Pinang","04-539 9851","Pulau Pinang"
"Klinik Pergigian B.T",1,0,0,0,5.36423,100.445,"9A, Taman Mutiara
Jalan Tembikai
14000, Bukit Mertajam
Pulau Pinang","04-539 3373","Pulau Pinang"
"Klinik Pergigian Wooi",1,0,0,0,5.36412,100.445,"Tingkat Satu, Taman Mutiara
Jalan Tembikai
14000, Bukit Mertajam
Pulau Pinang","04-539 0507","Pulau Pinang"
"Klinik Ria-Dr. Foo",1,0,0,0,5.36391,100.445,"No. 9, Taman Mutiara
Jalan Tembikai
14000, Bukit Mertajam
Pulau Pinang","04-538 2757","Pulau Pinang"
"Klinik 1 Utama",1,0,0,0,5.36386,100.445,"25, Taman Mutiara
Jalan Tembikai
14000, Bukit Mertajam
Pulau Pinang","04-530 5899","Pulau Pinang"
"Poliklinik Teo",1,0,0,0,5.36145,100.445,"75
Jalan Tembikai
14000, Bukit Mertajam
Pulau Pinang","04-539 0825","Pulau Pinang"
"Klinik Bm Dr. Kok Cheng Hwa",1,0,0,0,5.35564,100.469,"11, Taman Jaya
Jalan Kulim
14000, Bukit Mertajam
Pulau Pinang","TIADA","Pulau Pinang"
"Poliklinik Koay",1,0,0,0,5.35548,100.469,"17, Taman Jaya
Jalan Kulim
14000, Bukit Mertajam
Pulau Pinang","04-538 0622","Pulau Pinang"
"Klinik C.K. Lim",1,0,0,0,5.35441,100.471,"30E, Taman Jaya
Jalan Kulim
14000, Bukit Mertajam
Pulau Pinang","04-539 2875","Pulau Pinang"
"Klinik Pakar Bedah Kumar",1,0,0,0,5.35444,100.471,"No. 30D, Taman Jaya
Jalan Kulim
14000, Bukit Mertajam
Pulau Pinang","04-539 5004","Pulau Pinang"
"Klinik Joe Fernandez",1,0,0,0,5.35432,100.471,"30-1, Taman Jaya
Jalan Kulim
14000, Bukit Mertajam
Pulau Pinang","04-538 6448","Pulau Pinang"
"Klinik Dr. Lee Hock Huat",1,0,0,0,5.35267,100.473,"2727
Jalan Kulim
14000, Bukit Mertajam
Pulau Pinang","04-539 2187","Pulau Pinang"
"Klinik Gigi Sentosa",1,0,0,0,5.35389,100.471,"2658
Persiaran Maju Jaya Kg. Br,Jln Kulim
14000, Bukit Mertajam
Pulau Pinang","04-539 1761","Pulau Pinang"
"Kumar Eye Specialist Center",1,0,0,0,5.3539,100.47,"2657
Persiaran Maju Jaya, Jalan Kulim
14000, Bukit Mertajam
Pulau Pinang","04-537 9039","Pulau Pinang"
"Teoh Eye Clinic & Surgery",1,0,0,0,5.3637,100.439,"No. 1061
Jalan Kebun Sireh
14000, Bukit Mertajam
Pulau Pinang","04-507 3262","Pulau Pinang"
"Klinik Pakar Perubatan Ho",1,0,0,0,5.36352,100.439,"No. 1597
Jalan Kebun Sireh
14000, Bukit Mertajam
Pulau Pinang","04-508 3882","Pulau Pinang"
"Pusat Pakar Kuan X-Ray",1,0,0,0,5.36347,100.439,"No.1596
Jalan Kebun Sireh
14000, Bukit Mertajam
Pulau Pinang","04-508 8781","Pulau Pinang"
"Klinik Wawasan",1,0,0,0,5.36333,100.439,"No.1613G, Taman Desa Damai
Jalan Kebun Sireh
14000, Bukit Mertajam
Pulau Pinang","04-508 4619","Pulau Pinang"
"Anna Dental Surgery",1,0,0,0,5.33766,100.298,"749-A
Jalan Sultan Azlan Shah
11900, Sungai Nibung
Pulau Pinang","04-646 0414","Pulau Pinang"
"Klinik Desa Murni",1,0,0,0,5.4389,100.43,"6, Taman Desa Murni
Jalan Murni
13800, Sungai Dua
Pulau Pinang","04-356 9958","Pulau Pinang"
"Ho Eye Specialist Centre",1,0,0,0,5.41789,100.38,"99, Pusat Perniagaan Raja Uda
Jalan Raja Uda
12300, Butterworth
Pulau Pinang","04-324 2611","Pulau Pinang"
"Mri Centre",1,0,0,0,5.41252,100.321,"316-G
Jalan Dato Keramat
10150, George Town
Pulau Pinang","04-228 3749","Pulau Pinang"
"Klinik Siong",1,0,0,0,5.41806,100.327,"17
Jalan Zainal Abidin
10400, George Town
Pulau Pinang","04-226 5861","Pulau Pinang"
"Smile R Us Dental Clinic",1,0,0,0,5.43291,100.307,"488D-02-13, Midlands Park
Jalan Burma
10350, George Town
Pulau Pinang","04-229 6998","Pulau Pinang"
"Klinik Abadi",1,0,0,0,5.42934,100.478,"36, Taman Guar Perahu,Kubang Semang
Lorong Guar Perahu 13
14400
Pulau Pinang","04-521 4572","Pulau Pinang"
"Klinik Pakar Mata",1,0,0,0,5.36792,100.459,"No. 2, Taman Ciku
Tingkat Ciku 5
14000, Bukit Mertajam
Pulau Pinang","04-537 8009","Pulau Pinang"
"Klinik Wawasan",1,0,0,0,5.33071,100.48,"2872, Pusat Perniagaan
Jalan Rozhan
14000, Bukit Mertajam
Pulau Pinang","04-551 2020","Pulau Pinang"
"Klinik Pergigian Union",1,0,0,0,5.33152,100.48,"No. 2878, Tingkat
Jalan Rozhan
14000, Bukit Mertajam
Pulau Pinang","04-551 1310","Pulau Pinang"
"Klinik Union 16 Jam",1,0,0,0,5.33156,100.48,"No. 2879
Jalan Rozhan
14000, Bukit Mertajam
Pulau Pinang","04-551 1355","Pulau Pinang"
"Pusat Pakar Union",1,0,0,0,5.33161,100.48,"No. 2880
Jalan Rozhan
14000, Bukit Mertajam
Pulau Pinang","04-552 2355","Pulau Pinang"
"Klinik Pergigian Mutiara",1,0,0,0,5.33256,100.481,"3089, Tingkat Atas
Jalan Rozhan
14000, Bukit Mertajam
Pulau Pinang","012-405 1191","Pulau Pinang"
"Klinik Tenang",1,0,0,0,5.34807,100.472,"No. 6, Taman Berjaya Baru
Lorong Berjaya Baru 1
14000, Bukit Mertajam
Pulau Pinang","04-540 1022","Pulau Pinang"
"Klinik Lim Eng Cheong",1,0,0,0,5.35192,100.47,"2993, Taman Seri Maju
Jalan Maju
14000, Bukit Mertajam
Pulau Pinang","04-539 5579","Pulau Pinang"
"Klinik Roberts",1,0,0,0,5.35138,100.47,"24, Taman Seri Maju
Jalan Seri Maju
14000, Bukit Mertajam
Pulau Pinang","04-537 3445","Pulau Pinang"
"Klinik Pergigian Chew",1,0,0,0,5.35452,100.47,"1946
Jalan Kulim
14000, Bukit Mertajam
Pulau Pinang","017-531 7110","Pulau Pinang"
"Smilebay Dental",1,0,0,0,5.38673,100.386,"153, Tingkat Bawah, Taman Inderawasih
Medan Kikik,
13600, Prai
Pulau Pinang","04-899 3800","Pulau Pinang"
"Klinik Bersatu",1,0,0,0,5.38627,100.386,"169, Taman Inderawasih
Medan Kikik 1
13700, Prai
Pulau Pinang","04-3981039","Pulau Pinang"
"Klinik Inderawasih",1,0,0,0,5.38865,100.387,"No 119, Taman Inderawasih
Medan Kikik Satu
13600, Prai
Pulau Pinang","04-390 9353","Pulau Pinang"
"Klinik Kulit Socka",1,0,0,0,5.38314,100.389,"1269, Taman Emas
Jalan Baru
13600, Prai
Pulau Pinang","04-399 7211","Pulau Pinang"
"Klinik Makbul",1,0,0,0,5.38338,100.389,"1277-B, Taman Emas
Jalan Baru
13600, Prai
Pulau Pinang","04-390 5358","Pulau Pinang"
"Klinik Wawasan",1,0,0,0,5.31612,100.432,"783, Kawasan Perindustrian Ringan
Jalan Tok Kangar
14100, Bukit Mertajam
Pulau Pinang","04-508 8020","Pulau Pinang"
"Klinik Yeoh",1,0,0,0,5.32596,100.478,"3012, Taman Alma Jaya
Jalan Rozhan
14000, Bukit Mertajam
Pulau Pinang","04-551 6328","Pulau Pinang"
"Poliklinik Ikhsan",1,0,0,0,5.32576,100.478,"Taman Aman Jaya, 3016
Jalan Rozhan
14000, Bukit Mertajam
Pulau Pinang","04-552 5490","Pulau Pinang"
"Poliklinik Dr. Chan",1,0,0,0,5.33148,100.481,"2691
Jalan Rozhan
14000, Bukit Mertajam
Pulau Pinang","04-551 5804","Pulau Pinang"
"Klinik Dr. Abd Aziz",1,0,0,0,5.40591,100.464,"No. 11, Kubang Semang
Jalan Penanti 1
14400, Bukit Mertajam
Pulau Pinang","04-521 5014","Pulau Pinang"
"Klinik Dell Apcc 2",1,0,0,0,5.33893,100.444,"1469, Taman Perusahaan Bukit Minyak
Lorong Perusahaan Utama 3
14000, Bukit Mertajam
Pulau Pinang","TIADA","Pulau Pinang"
"Poliklinik Pan",1,0,0,0,5.32906,100.447,"21, Taman Bukit Minyak
Tingkat Bukit Minyak
14000, Bukit Mertajam
Pulau Pinang","04-829 1499","Pulau Pinang"
"Bersatu Occupational Health & Diagnostic Center",1,0,0,0,5.32864,100.447,"11,First Floor, Taman Bukit Minyak
Jalan Bukit Minyak 7
14000, Bukit Mertajam
Pulau Pinang","04-507 1788","Pulau Pinang"
"Poliklinik Hl",1,0,0,0,5.32948,100.447,"No. 12, Taman Bukit Minyak
Jalan Bukit Minyak 3
14000, Bukit Mertajam
Pulau Pinang","04-508 7419","Pulau Pinang"
"Klinik Kulit & Poliklinik Dr. Segar",1,0,0,0,5.35135,100.458,"20
Jalan Perda Selatan
14000, Bukit Mertajam
Pulau Pinang","04-537 7146","Pulau Pinang"
"Klinik Joe Fernandez Dan Rakan-Rakan",1,0,0,0,5.33166,100.48,"2881
Jalan Rozhan
14000, Bukit Mertajam
Pulau Pinang","04-538 6448","Pulau Pinang"
"Klinik Topcare (Alma) Sdn. Bhd",1,0,0,0,5.3317,100.48,"2882
Jalan Rozhan
14000, Bukit Mertajam
Pulau Pinang","04-551 1810","Pulau Pinang"
"Formosa Dental  Surgery",1,0,0,0,5.41661,100.325,"123
Lorong Selamat
10400
Pulau Pinang","04-227 4430","Pulau Pinang"
"Klinik Pakar Kanak-Kanak Loo",1,0,0,0,5.41531,100.32,"107
Jalan Anson
10400, George Town
Pulau Pinang","04-226 5434","Pulau Pinang"
"Nagreh Skin Clinic",1,0,0,0,5.41967,100.318,"272
Jalan Macalister
10400, George Town
Pulau Pinang","04-228 5622","Pulau Pinang"
"Klinik Pergigian Smileybay",1,0,0,0,5.33799,100.307,"A-16-2, Bay Avenue
Lorong Bayan Indah 4
11900, Bayan Lepas
Pulau Pinang","04-640 2673","Pulau Pinang"
"Klinik Medisense",1,0,0,0,5.33781,100.307,"Block A-12-1
Lorong Bayan Indah 4
11900, Bayan Lepas
Pulau Pinang","TIADA","Pulau Pinang"
"Klinik Pergigian S K Ang",1,0,0,0,5.33287,100.291,"10-C-1
Jalan Tun Dr. Awang
11900
Pulau Pinang","04-644 6298","Pulau Pinang"
"Klinik Pergigian Ch'Ng",1,0,0,0,5.33297,100.29,"12-H
Lorong Jln Tun Dr Awang
11900, Bayan Lepas
Pulau Pinang","04-641 1094","Pulau Pinang"
"Poliklinik Penawar",1,0,0,0,5.35686,100.293,"No. 1-1-9
Halaman Bukit Gambir
11700, Glugor
Pulau Pinang","04-659 9787","Pulau Pinang"
"Kang Dental Surgery",1,0,0,0,5.34966,100.296,"14
Jalan Pekaka 1
11700
Pulau Pinang","04-656 8500","Pulau Pinang"
"Klinik Pekaka",1,0,0,0,5.34951,100.295,"No. 27 Ground Floor
Lebuh Pekaka 1
11700, Glugor
Pulau Pinang","04-658 2839","Pulau Pinang"
"J N Dental Surgery",1,0,0,0,5.3489,100.295,"2-G-6
Lebuh Pekaka 1
11700, Glugor
Pulau Pinang","04-659 7249","Pulau Pinang"
"Klinik Universiti",1,0,0,0,5.35364,100.304,"35
Jalan Sungai Dua
11700, Glugor
Pulau Pinang","04-656 2607","Pulau Pinang"
"Poliklinik Perdana",1,0,0,0,5.35231,100.301,"559-E
Jalan Sungai Dua
10400, Glugor
Pulau Pinang","04-656 4473","Pulau Pinang"
"Klinik Pergigian Kiew",1,0,0,0,5.35215,100.3,"723A-1, Vanda Business Park
Jalan Sg. Dua
11700, Glugor
Pulau Pinang","04-658 8932","Pulau Pinang"
"Putra Poliklinik & Surgeri",1,0,0,0,5.35182,100.299,"723 Q-G, Vanda Business Park
Jalan Sg. Dua
11700, Sungai Dua
Pulau Pinang","04-656 0340","Pulau Pinang"
"Glugor Klinik",1,0,0,0,5.36877,100.31,"No. 350-A
Jalan Sultan Azlan Shah
11700, Glugor
Pulau Pinang","04-658 1410","Pulau Pinang"
"Medi Klinik Novandri",1,0,0,0,5.36782,100.31,"10F
Jalan Gelugor
11700, Jelutong
Pulau Pinang","04-656 5222","Pulau Pinang"
"Minden Ear, Nose & Throat Clinic",1,0,0,0,5.36742,100.31,"10M, Tingkat 1
Jalan Glugor
11700, Glugor
Pulau Pinang","04-656 3586","Pulau Pinang"
"Klinik Aman",1,0,0,0,5.36717,100.31,"11
Jalan Sultan Azlan Shah
11700, Glugor
Pulau Pinang","04-229 1103","Pulau Pinang"
"Klinik Pergigian Banu",1,0,0,0,5.3677,100.31,"350-F
Jalan Sultan Azlan Shah
11700, Glugor
Pulau Pinang","04-657 9225","Pulau Pinang"
"Klinik Pergigian Teh",1,0,0,0,5.36877,100.31,"No. 350-A
Jalan Sultan Azlan Shah
11700, Glugor
Pulau Pinang","04-658 3332","Pulau Pinang"
"Klinik Pergigian Rohani",1,0,0,0,5.36712,100.311,"2516-A1, Flat Koperasi Sungai Gelugor
Jalan Sultan Azlan Shah
11700, Glugor
Pulau Pinang","04-657 3363","Pulau Pinang"
"Klinik Syifa",1,0,0,0,5.37075,100.31,"363Q
Jalan Sultan Azlan Shah
11700, Glugor
Pulau Pinang","04-657 6159","Pulau Pinang"
"Penang Medical College Sdn Bhd",1,0,0,0,5.4198,100.307,"4
Jalan Sepoy Lines
10450
Pulau Pinang","04-226 3459","Pulau Pinang"
"Eng Dental Surgery",1,0,0,0,5.43098,100.311,"33-B
Jalan Cantonment
10350
Pulau Pinang","04-226 8623","Pulau Pinang"
"Klinik Y.S. Lee",1,0,0,0,5.4297,100.313,"273
Jalan Burmah
10350, George Town
Pulau Pinang","04-227 0425","Pulau Pinang"
"Klinik Teong",1,0,0,0,5.42982,100.313,"279
Jalan Burma
10350, George Town
Pulau Pinang","04-227 5741","Pulau Pinang"
"Penang Dental Surgery",1,0,0,0,5.42998,100.313,"287
Jalan Burma
10350
Pulau Pinang","04-226 2440","Pulau Pinang"
"Prestige Orthodontic (Braces) Clinik",1,0,0,0,5.43014,100.313,"293, 1St Floor
Jalan Burma
10350
Pulau Pinang","04-228 1330","Pulau Pinang"
"Klinik Lim",1,0,0,0,5.23294,100.491,"1472, Mk. 12
Jalan Besar
14200, Sungai Bakap
Pulau Pinang","TIADA","Pulau Pinang"
"Klinik Jawi",1,0,0,0,5.23351,100.491,"1432, Taman Sungai Bakap
Jalan Besar
14200, Sungai Bakap
Pulau Pinang","04-582 6335","Pulau Pinang"
"Klinik Pergigian Union",1,0,0,0,5.23514,100.491,"No. 2878
Jalan Rozhan
14000, Bukit Mertajam
Pulau Pinang","04-551 1310","Pulau Pinang"
"Klinik Topcare Sdn. Bhd",1,0,0,0,5.23483,100.491,"11A, Tingkat Bawah, Pusat Perniagaan Sri Aman
Jalan Sungai Bakap
14200, Sungai Bakap
Pulau Pinang","04-582 1810","Pulau Pinang"
"Klinik Joe Fernandez",1,0,0,0,5.23242,100.492,"1381, Taman Sungai Bakap Permai
Jalan Sungai Bakap
14200, Sungai Bakap
Pulau Pinang","012-428 5550","Pulau Pinang"
"Klinik Wawasan",1,0,0,0,5.23226,100.492,"1384, Taman Sungai Bakap Permai
Jalan Sungai Bakap
14200, Sungai Bakap
Pulau Pinang","04-583 8080","Pulau Pinang"
"Klinik Wellesley @ Wellesly Medical Clinic",1,0,0,0,5.23552,100.491,"2 & 4, Pusat Perniagaan Sri Aman
Jalan Seri Aman 1
14200, Sungai Bakap
Pulau Pinang","019-519 1998","Pulau Pinang"
"Klinik Kok",1,0,0,0,5.23571,100.491,"No. 10, Pusat Perniagaan Seri Aman
Jalan Seri Aman 1
14200, Sungai Bakap
Pulau Pinang","04-582 2486","Pulau Pinang"
"Poliklinik Vasanthi",1,0,0,0,5.28421,100.485,"152 B
Jalan Tasek Ss/1
14120, Simpang Ampat
Pulau Pinang","04-508 1560","Pulau Pinang"
"Klinik Wawasan",1,0,0,0,5.28404,100.482,"56
Jalan Tasek Ss1
14120, Bandar Tasek Mutiara, Simpang Ampat
Pulau Pinang","04-5021020","Pulau Pinang"
"Poliklinik Ravic (Formerly Klinik Shri Sam)",1,0,0,0,5.28119,100.475,"1640 G
Jalan Bukit Tambun
14110, Simpang Ampat
Pulau Pinang","TIADA","Pulau Pinang"
"Poliklinik Yeap Sdn. Bhd",1,0,0,0,5.28105,100.476,"No 2, Tingkat Bawah
Lorong Bkt Tambun Satu, Jalan Bkt Tambun
14100, Simpang Ampat
Pulau Pinang","04-588 6882","Pulau Pinang"
"Hoh Klinik",1,0,0,0,5.28613,100.478,"1400
Main Road
14100, Simpang Ampat
Pulau Pinang","04-588 7217","Pulau Pinang"
"Klinik Besatu",1,0,0,0,5.27725,100.477,"No. 21, Taman Jentayu
Jalan Jentayu
14100, Simpang Ampat
Pulau Pinang","04-588 2803","Pulau Pinang"
"Poliklinik Perdana",1,0,0,0,5.2722,100.477,"559-E
Jalan Sungai Dua
10400, Glugor
Pulau Pinang","04-656 4473","Pulau Pinang"
"Klinik Paul",1,0,0,0,5.26788,100.476,"18, Taman Tangling
Jalan Besar
14100, Simpang Ampat
Pulau Pinang","04-588 4113","Pulau Pinang"
"Klinik Pergigian Ming Ya",1,0,0,0,5.2684,100.476,"36, Taman Tangling
Jalan Besar
14100, Simpang Ampat
Pulau Pinang","04-568 2768","Pulau Pinang"
"Union Clinic (S.A)",1,0,0,0,5.26711,100.476,"No. 7, Taman Tangling Jaya
Jalan Besar
14100, Simpang Ampat
Pulau Pinang","04-587 1048","Pulau Pinang"
"Poliklinik Bahagia",1,0,0,0,5.19925,100.495,"24, Tingkat Bawah, Taman Jawi Jaya, Sg. Jawi
Jalan Jawi Jaya 1
14200, Sungai Bakap
Pulau Pinang","04-582 9303","Pulau Pinang"
"Klinik Lim",1,0,0,0,5.1686,100.478,"3617
Jalan Che Ahmad
14200, Nibong Tebal
Pulau Pinang","04-593 1437","Pulau Pinang"
"Poliklinik Suri",1,0,0,0,5.17445,100.474,"No. 87, Taman Berjaya
Jalan Rajawali
14300, Nibong Tebal
Pulau Pinang","04-593 9152","Pulau Pinang"
"Poliklinik Perdana",1,0,0,0,5.16736,100.476,"559-E
Jalan Sungai Dua
10400, Glugor
Pulau Pinang","04-656 4473","Pulau Pinang"
"Klinik Bersatu",1,0,0,0,5.16655,100.476,"1, Taman Sentosa
Jalan Serindit
14300, Nibong Tebal
Pulau Pinang","04-593 5920","Pulau Pinang"
"Klinik Harmony",1,0,0,0,5.16643,100.476,"9, Taman Pokok Sena
Jalan Serindit
14300, Nibong Tebal
Pulau Pinang","04-594 1403","Pulau Pinang"
"Klinik Wawasan",1,0,0,0,5.16692,100.476,"9, Taman Sentosa
Jalan Serindit
14300, Nibong Tebal
Pulau Pinang","04-593 9433","Pulau Pinang"
"Khoo Clinic",1,0,0,0,5.16565,100.476,"No. 2903
Jalan Atas
14300, Nibong Tebal
Pulau Pinang","04-593 1397","Pulau Pinang"
"Singapore Children And Family Clinic",1,0,0,0,5.17692,100.482,"6, Taman Merbah
Jalan Besar
14300, Nibong Tebal
Pulau Pinang","04-646 6557","Pulau Pinang"
"Klinik Dr. Jammy Suzana",1,0,0,0,5.15143,100.489,"No. 1, Taman Ilmu
Jalan Ilmu 1
14300, Nibong Tebal
Pulau Pinang","04-594 9049","Pulau Pinang"
"Klinik Marik",1,0,0,0,5.14606,100.471,"Taman Fajar, Permatang Keling, 16
Jalan Permatang Keling
14300, Nibong Tebal
Pulau Pinang","04-594 1799","Pulau Pinang"
"Klinik Shri Sam Sdn. Bhd.",1,0,0,0,5.23039,100.492,"1407
Jalan Besar
14200, Sungai Bakap
Pulau Pinang","04-593 1437","Pulau Pinang"
"Klinik Pergigian Lim Bersaudara",1,0,0,0,5.23293,100.491,"No. 3617
Jalan Che Ahmad
14300, Nibong Tebal
Pulau Pinang","04-593 1437","Pulau Pinang"
"Klinik Perubatan Mutiara",1,0,0,0,5.50078,100.43,"1752, Tingkat Bawah, Taman Sri Indah
Jalan Datok.Hj.Ahmad Badawi
13200, Kepala Batas
Pulau Pinang","04-575 1434","Pulau Pinang"
"Poliklinik Dr.Azhar & Rakan-Rakan",1,0,0,0,5.51523,100.425,"No. 1510, Tingkat Bawah, Taman Arowana
Jalan Permatang Pauh
13500, Permatang Pauh
Pulau Pinang","04-398 8180","Pulau Pinang"
"Klinik Joseph",1,0,0,0,5.51333,100.405,"G-06, Taman Permatang Sintok
Lorong Sintok 3
13100, Simpang Ampat
Pulau Pinang","04-575 5658","Pulau Pinang"
"Klinik Sam",1,0,0,0,5.51655,100.422,"1325, Taman Sepakat
Lorong Melinjai
13200, Kepala Batas
Pulau Pinang","TIADA","Pulau Pinang"
"Klinik Bersatu",1,0,0,0,5.51863,100.426,"Jalan Kedah
13200, Kepala Batas
Pulau Pinang","TIADA","Pulau Pinang"
"Klinik Berjaya",1,0,0,0,5.51779,100.426,"No. 731
Jalan Perak
13200, Kepala Batas
Pulau Pinang","04-575 1546","Pulau Pinang"
"Klinik Pergigian Kepala Batas",1,0,0,0,5.51724,100.431,"25
Jalan Bertam
13200, Kepala Batas
Pulau Pinang","04-575 3460","Pulau Pinang"
"Klinik Bertam",1,0,0,0,5.51658,100.433,"2130, Wisma Sheikh Abdullah Fahim
Jalan Bertam
13200, Kepala Batas
Pulau Pinang","04-574 1791","Pulau Pinang"
"Klinik Impiana",1,0,0,0,5.51596,100.431,"13, Pusat Perniagaan Kepala Batas
Jalan Usahawan 4
13200, Kepala Batas
Pulau Pinang","04-575 4937","Pulau Pinang"
"Klinik Dr. Roslan Kuala Muda",1,0,0,0,5.5732,100.34,"1221, Plot 809, Kuala Muda
13310, Penaga
Pulau Pinang","04-579 4609","Pulau Pinang"
"Klinik Dr. Rozi",1,0,0,0,5.49313,100.384,"1665
Jalan Telok Air Tawar
13050, Butterworth
Pulau Pinang","04-351 7129","Pulau Pinang"
"Poliklinik Teluk Air Tawar",1,0,0,0,5.47428,100.383,"12
Jalan Aman
13050, Butterworth
Pulau Pinang","04-351 1437","Pulau Pinang"
"Klinik Bersatu",1,0,0,0,5.4777,100.384,"Jalan Teluk Air Tawar
13050, Butterworth
Pulau Pinang","04-351 7054","Pulau Pinang"
"Klinik Putra",1,0,0,0,5.526,100.435,"No. 34, Taman Bertam Indah
Lorong Bertam Indah
13200, Kepala Batas
Pulau Pinang","04-537 7484","Pulau Pinang"
"Klinik Bersatu",1,0,0,0,5.51915,100.436,"6, Taman Bertam Indah
Lorong Bertam Indah 1/5
13500, Kepala Batas
Pulau Pinang","TIADA","Pulau Pinang"
"Poliklinik Bestari",1,0,0,0,5.51999,100.435,"No 20
Lorong Pauh Jaya 1/1
13700, Prai
Pulau Pinang","04-399 3636","Pulau Pinang"
"Klinik Pergigian Wan Harzita",1,0,0,0,5.51736,100.449,"No 37-A, Taman Bertam Indah
Lorong Bertam Indah 4/9
13200, Kepala Batas
Pulau Pinang","TIADA","Pulau Pinang"
"Pusat Diagnostik Anda",1,0,0,0,5.51701,100.449,"No 42, Pusat Bandar Bertam Perdana
Jalan Dagangan 3
13200, Kepala Batas
Pulau Pinang","04-578 0577","Pulau Pinang"
"Klinik Dr. Rashidah",1,0,0,0,5.49293,100.452,"1737
Lorong Pokok Sena, Jln Pongsu Seribu
13200, Kepala Batas
Pulau Pinang","04-575 5078","Pulau Pinang"
"Klinik Keluarga",1,0,0,0,5.49305,100.452,"1727, Taman Pokok Sena
13200, Kepala Batas
Pulau Pinang","04-575 2622","Pulau Pinang"
"Poliklinik Dr. Azhar & Rakan-Rakan",1,0,0,0,5.48243,100.495,"D1 & D4, Komplek Tasek Glugor
13300, Tasek Gelugur
Pulau Pinang","04-573 3377","Pulau Pinang"
"Klinik Bersatu",1,0,0,0,5.4795,100.494,"A.G.15
Lorong Pasar 1
133100, Tasek Gelugur
Pulau Pinang","04-573 7108","Pulau Pinang"
"Klinik Shan",1,0,0,0,5.48109,100.496,"12572
Jalan Raya
13300, Tasek Gelugur
Pulau Pinang","TIADA","Pulau Pinang"
"Klinik Inthira & Joe Fernandez",1,0,0,0,5.47866,100.499,"2839
Jalan Tasek Gelugor
13300, Tasek Gelugur
Pulau Pinang","04-573 1631","Pulau Pinang"
"Klinik Dr. Wan Noor",1,0,0,0,5.44625,100.432,"No 7, Taman Seri Murni
Lorong Seri Murni 2
13800, Butterworth
Pulau Pinang","04-356 3635","Pulau Pinang"
"Klinik Dr. Shobri",1,0,0,0,5.43766,100.43,"5, Taman Desa Murni
13800, Butterworth
Pulau Pinang","04-356 3022","Pulau Pinang"
"Klinik Seri Indah",1,0,0,0,5.277,100.271,"16-G
Jalan Permatang Damar Laut
11950, Bayan Lepas
Pulau Pinang","04-626 1070","Pulau Pinang"
"Klinik Aman",1,0,0,0,5.41314,100.314,"603
Jalan Dato Keramat
11700, George Town
Pulau Pinang","04-229 1844","Pulau Pinang"
"Poliklinik Pan Medic",1,0,0,0,5.41198,100.322,"249
Jalan Dato Keramat
10150, George Town
Pulau Pinang","04-829 1499","Pulau Pinang"
"Penang X-Ray Specialist Klinik",1,0,0,0,5.41255,100.321,"316-H
Jalan Dato Keramat
10150, George Town
Pulau Pinang","04-228 9989","Pulau Pinang"
"Klinik Pertama",1,0,0,0,5.41227,100.32,"331
Jalan Dato Keramat
10150, George Town
Pulau Pinang","04-643 4085","Pulau Pinang"
"Klinik Pakar Mata Shaik",1,0,0,0,5.41223,100.32,"331, 1St Floor
Jalan Dato Keramat
10150, George Town
Pulau Pinang","04-228 6272","Pulau Pinang"
"Lim'S Dental Surgery",1,0,0,0,5.41289,100.32,"356
Jalan Dato Keramat
10150, George Town
Pulau Pinang","04-229 8075","Pulau Pinang"
"Klinik Seri Pulau",1,0,0,0,5.40929,100.316,"1-1-3
Jalan P. Ramli
10460, George Town
Pulau Pinang","04-282 8113","Pulau Pinang"
"Klinik Aman Mehar",1,0,0,0,5.39569,100.315,"381-A-G-2
Jalan Perak
11600, George Town
Pulau Pinang","04-281 6166","Pulau Pinang"
"City Poliklinik",1,0,0,0,5.39552,100.315,"381 A-G-5
Jalan Perak
11600, George Town
Pulau Pinang","04-282 2168","Pulau Pinang"
"Klinik Pergigian Ming",1,0,0,0,5.39489,100.314,"380
Jalan Perak
11600
Pulau Pinang","04-282 2699","Pulau Pinang"
"Klinik Narin",1,0,0,0,5.39288,100.314,"No. 402D
Jalan Perak
11600, George Town
Pulau Pinang","04-283 3743","Pulau Pinang"
"Klinik P.M.A (Penang Medical Associates)",1,0,0,0,5.39268,100.314,"462
Jalan Jelutong
11600, George Town
Pulau Pinang","04-282 4961","Pulau Pinang"
"Klinik Bersatu Jelutong",1,0,0,0,5.38901,100.313,"605
Jalan Jelutong
11600, George Town
Pulau Pinang","04-655 3164","Pulau Pinang"
"Klinik Sentosa Sdn. Bhd",1,0,0,0,5.38613,100.313,"15-D
Lengkok Dumbar
11600, George Town
Pulau Pinang","04-658 2772","Pulau Pinang"
"Klinik Dr. Gigi Bhar Dental Surgery",1,0,0,0,5.38622,100.313,"15-B
Lengkok Dumbar
11600, George Town
Pulau Pinang","04-398 8919","Pulau Pinang"
"Klinik Cheng Ghee",1,0,0,0,5.38774,100.313,"598 J
Jalan Jelutong
11600, George Town
Pulau Pinang","04-262 6018","Pulau Pinang"
"Klinik Lim Siew Kim",1,0,0,0,5.38875,100.313,"596 B
Jalan Jelutong
11600, George Town
Pulau Pinang","04-658 5522","Pulau Pinang"
"Klinik Salahudin",1,0,0,0,5.3888,100.313,"No. 596
Jalan Jelutong
11600, Jelutong
Pulau Pinang","04-657 8909","Pulau Pinang"
"Klinik Batu Lanchang 24 Jam",1,0,0,0,5.39162,100.312,"12 F
Jalan Tan Sri Teh Ewe Lim
11600, George Town
Pulau Pinang","04-282 5282","Pulau Pinang"
"Liang Dental Surgery",1,0,0,0,5.39165,100.312,"52A
Jalan Batu Lancang
11600
Pulau Pinang","04-282 6136","Pulau Pinang"
"Koe Heart Specialist & Physician",1,0,0,0,5.3917,100.312,"14-D
Jalan Tan Sri Teh Ewe Lim
11600, George Town
Pulau Pinang","04-282 4245","Pulau Pinang"
"Ong & Lim Dental Surgery",1,0,0,0,5.39171,100.312,"14E
Jalan Batu Lancang
11600
Pulau Pinang","04-282 3731","Pulau Pinang"
"Loh Child Specialist Clinic",1,0,0,0,5.39261,100.308,"84B
Jalan Tan Sri Ewe Lim
11600, George Town
Pulau Pinang","04-282 4582","Pulau Pinang"
"Poliklinik Alex",1,0,0,0,5.39236,100.307,"139
Jalan Tan Sri Teh Ewe Lim
11600, George Town
Pulau Pinang","04-657 7137","Pulau Pinang"
"Klinik Goh",1,0,0,0,5.39236,100.307,"139C
Jalan Tan Sri Teh Ewe Lim
11600, George Town
Pulau Pinang","04-658 3388","Pulau Pinang"
"Neoh Dental Surgery",1,0,0,0,5.39636,100.316,"41-1
Jalan Lenggong
11600
Pulau Pinang","04-281 8299","Pulau Pinang"
"Jelutong Poliklinik Khoo",1,0,0,0,5.3977,100.319,"236
Jalan Jelutong
11600, George Town
Pulau Pinang","04-281 3837","Pulau Pinang"
"Klinik West Jelutong",1,0,0,0,5.40046,100.322,"No. 132D
Jalan Perak
11600, George Town
Pulau Pinang","04-281 2125","Pulau Pinang"
"Klinik Metro",1,0,0,0,5.41393,100.328,"139C
Jalan Tan Sri Teh Ewe Lim
11600, George Town
Pulau Pinang","04-423 8888","Pulau Pinang"
"Tan Dental Surgery",1,0,0,0,5.41728,100.33,"2 E
Jalan Burma
10050, George Town
Pulau Pinang","04-263 3091","Pulau Pinang"
"Klinik Comfort",1,0,0,0,5.41868,100.328,"131
Jalan Burma
10050, George Town
Pulau Pinang","04-227 1828","Pulau Pinang"
"Klinik Pergigian Sk",1,0,0,0,5.41917,100.324,"26. B
Lorong Abu Siti
10400, George Town
Pulau Pinang","04-644 6298","Pulau Pinang"
"Lim Skin Specialist Clinic",1,0,0,0,5.41977,100.325,"14-A
Lorong Abu Siti
10400, George Town
Pulau Pinang","04-226 3767","Pulau Pinang"
"Yeoh Dental Surgery",1,0,0,0,5.41981,100.325,"14, 1St Floor
Lorong Abu Siti
10400, George Town
Pulau Pinang","04-226 3555","Pulau Pinang"
"Klinik Teng",1,0,0,0,5.41841,100.339,"86-88
Lebuh China
10200, George Town
Pulau Pinang","04-262 3808","Pulau Pinang"
"Klinik Perubatan The Pearl",1,0,0,0,5.41659,100.339,"No. 99, Tingkat Bawah
Lebuh King
11200, George Town
Pulau Pinang","04-262 7295","Pulau Pinang"
"Poliklinik Sharma",1,0,0,0,5.46554,100.291,"2-G
Jalan Tanjung Bungah
11200, George Town
Pulau Pinang","04-899 3858","Pulau Pinang"
"Klinik Ferringhi",1,0,0,0,5.47008,100.245,"No. 46B
11100, Batu Ferringgi
Pulau Pinang","TIADA","Pulau Pinang"
"Klinik Pergigian K K Ong",1,0,0,0,5.4514,100.306,"125F-P, Desa Tanjong
Jalan Tanjong Tokong
10470
Pulau Pinang","04-899 1469","Pulau Pinang"
"Tanjung Dental Surgery",1,0,0,0,5.45152,100.306,"125-L, 1St Floor
Jalan Tanjung Tokong
10470
Pulau Pinang","04-899 5918","Pulau Pinang"
"Klinik Malaysia",1,0,0,0,5.32698,100.294,"21
Lorong Kg. Jawa
11950, Bayan Baru
Pulau Pinang","04-643 3305","Pulau Pinang"
"Klinik K. Nadeesan",1,0,0,0,5.32631,100.293,"No. 23
Solok Kampung Jawa 1
11900, Bayan Baru
Pulau Pinang","04-644 4778","Pulau Pinang"
"Klinik Team Medic",1,0,0,0,5.32694,100.294,"2
Solok Kampung Jawa 2
11950, Bayan Baru
Pulau Pinang","04-643 9448","Pulau Pinang"
"Intan Poliklinik",1,0,0,0,5.32334,100.291,"4
Jalan Sungai Nibong
11950, Bayan Baru
Pulau Pinang","04-646 4797","Pulau Pinang"
"Klinik Pertama",1,0,0,0,5.36661,100.311,"2516 - A - G - 11, Flat Koperasi
Jalan Sultan Azlan Shah
10150, Glugor
Pulau Pinang","04-658 3093","Pulau Pinang"
"Klinik Zainal",1,0,0,0,5.33699,100.299,"247-D
11900, Sungai Nibung,Glugor
Pulau Pinang","04-643 4330","Pulau Pinang"
"Klinik Pergigian Chin",1,0,0,0,5.3317,100.297,"B303-1 & 2, Krystal Point
Jalan Sultan Azlan Shah
11900, Sungai Nibung
Pulau Pinang","04-645 1005","Pulau Pinang"
"Klinik Krystal",1,0,0,0,5.33203,100.296,"303-01-09, Krystal Point
Jalan Sultan Azlan Shah
11900, Bayan Lepas
Pulau Pinang","04-643 2231","Pulau Pinang"
"Poliklinik Pan-Medic",1,0,0,0,5.33232,100.296,"303-01-04, Krystal Point
Jln Sultan Azlan Shah
11900, Bayan Lepas
Pulau Pinang","04-646 6975","Pulau Pinang"
"Sri Pelangi Medical Centre",1,0,0,0,5.33308,100.288,"No 22, Bkt Jambul
Jalan Tun Dr. Awang
11900, Bayan Lepas
Pulau Pinang","04-642 0366","Pulau Pinang"
"Klinik Pakar Wanita Tan",1,0,0,0,5.33303,100.288,"38
Jalan Tun Dr. Awang
11900, Bukit Jambul
Pulau Pinang","04-646 8703","Pulau Pinang"
"Poliklinik Desa Permai",1,0,0,0,5.34994,100.3,"No. 34, Desa Permai Indah
Lorong Helang 2
11700, Glugor
Pulau Pinang","04-656 4345","Pulau Pinang"
"Klinik Perubatan Tanah Melayu",1,0,0,0,5.33024,100.294,"1P
Jalan Sungai Nibong
11900, Bayan Lepas
Pulau Pinang","04-640 5599","Pulau Pinang"
"Klinik Halbans",1,0,0,0,5.37511,100.399,"36
Jalan Prai Jaya 4
13700, Prai
Pulau Pinang","04-390 2451","Pulau Pinang"
"Klinik Sri Pinang Dan Surgeri",1,0,0,0,5.3986,100.329,"No. 42, Tingkat Bawah
Lebuh Sungai Pinang
11600, Sungai Pinang
Pulau Pinang","04-282 8810","Pulau Pinang"
"Ong Specialist & Counselling Center",1,0,0,0,5.3978,100.328,"8-G
Lebuh Sg. Pinang 1
11600, Jelutong
Pulau Pinang","04-283 8178","Pulau Pinang"
"Klinik Pergigian Ewe",1,0,0,0,5.4041,100.286,"29-G, Mukim 13
11500, Ayer Itam
Pulau Pinang","04-282 3731","Pulau Pinang"
"Poliklinik Resevoir Garden",1,0,0,0,5.4046,100.287,"10-I
Jalan Air Itam
11500, Ayer Itam
Pulau Pinang","04-823 8787","Pulau Pinang"
"Klinik Yong & Ng",1,0,0,0,5.40449,100.291,"1-E, Mukim 13
Jalan Air Itam
11400, Ayer Itam
Pulau Pinang","04-828 8470","Pulau Pinang"
"Klinik Bersatu Rifle Range",1,0,0,0,5.41018,100.291,"Block H-4, Rifle Range Flats
Jalan Rifle Range
11400, George Town
Pulau Pinang","04-829 7796","Pulau Pinang"
"Koon Teik Clinic",1,0,0,0,5.41047,100.291,"G-0-9, Rifle Range Flats
Jalan Pdg. Tembak
10150, Ayer Itam
Pulau Pinang","04-828 8015","Pulau Pinang"
"Khong Klinik",1,0,0,0,5.41072,100.291,"F 16, Rifle Range Flats
Jalan Pdg. Tembak
11400, Ayer Itam
Pulau Pinang","04-828 5652","Pulau Pinang"
"Klinik Sidhu",1,0,0,0,5.38548,100.284,"4E-01-10
Jalan Semarak Api
11500, Ayer Itam
Pulau Pinang","04-828 4555","Pulau Pinang"
"Klinik Utama",1,0,0,0,5.39834,100.285,"20, Kampung Melayu
Jalan Pisang Emas
11500, Ayer Itam
Pulau Pinang","04-828 1754","Pulau Pinang"
"Klinik Singapore",1,0,0,0,5.39852,100.288,"288A-1-11
Jalan Thean Teik
11500, Ayer Itam
Pulau Pinang","04-828 7592","Pulau Pinang"
"Klinik Special",1,0,0,0,5.39718,100.288,"288D-01-02, Fortune Court
Jalan Thean Teik
11500, Ayer Itam
Pulau Pinang","04-829 5955","Pulau Pinang"
"Bandar Baru Dental Surgery",1,0,0,0,5.39727,100.288,"288-D-1-4
Jalan Thean Tek
11500, George Town
Pulau Pinang","04-828 1114","Pulau Pinang"
"Klinik Pakar Kanak-Kanak Teow",1,0,0,0,5.39762,100.288,"288 D-1-10, Fortune Court
Jalan Thean Teik
11500, Ayer Itam
Pulau Pinang","04-828 5399","Pulau Pinang"
"Poliklinik Dr. Loo",1,0,0,0,5.39122,100.284,"Blok 2C-01-02
Medan Angsana 1
11500, Ayer Itam
Pulau Pinang","04-829 7054","Pulau Pinang"
"Peace Polyclinic",1,0,0,0,5.39105,100.284,"81
Lorong Selamat
10400, Ayer Itam
Pulau Pinang","04-227 4541","Pulau Pinang"
"Klinik K.G.Mah",1,0,0,0,5.38884,100.284,"211-A
Jalan Angsana
11500, Ayer Itam
Pulau Pinang","04-827 1822","Pulau Pinang"
"Poliklinik P.Sellan",1,0,0,0,5.38842,100.284,"No. 29
Jalan Angsana
11500, Ayer Itam
Pulau Pinang","04-827 2877","Pulau Pinang"
"Klinik Pergigian Daniel Cheong",1,0,0,0,5.38896,100.305,"17-D, Tingkat Satu, Ijm Shoplots, Taman Seri Damai
Lebuhraya Batu Lancang
11600, George Town
Pulau Pinang","04-657 7668","Pulau Pinang"
"Asia Klinik",1,0,0,0,5.38921,100.306,"19-D, Taman Seri Damai
Lebuhraya Batu Lancang
11600, George Town
Pulau Pinang","04-657 0376","Pulau Pinang"
"Klinik Dr. Ong Too",1,0,0,0,5.38911,100.306,"19-D, 2Nd Floor, Taman Seri Damai
Lebuhraya Batu Lancang
11600, George Town
Pulau Pinang","04-657 0376","Pulau Pinang"
"Klinik Green Lane",1,0,0,0,5.38929,100.303,"88K
Jalan Masjid Negeri
11600, George Town
Pulau Pinang","04-655 4058","Pulau Pinang"
"Sijung Diagnostic Healthcare Sdn Bhd",1,0,0,0,5.41454,100.329,"456
Jalan Penang
10000, George Town
Pulau Pinang","TIADA","Pulau Pinang"
"Choong Dispensary",1,0,0,0,5.41522,100.335,"147
Lebuh Carnavon
10100, George Town
Pulau Pinang","04-261 0701","Pulau Pinang"
"Lim Dispensary",1,0,0,0,5.41993,100.331,"25
Jalan Dato Koyah
10050, George Town
Pulau Pinang","04-263 3729","Pulau Pinang"
"Klinik United Sdn. Bhd",1,0,0,0,5.41564,100.333,"130
Jalan Pintal Tali
10100, George Town
Pulau Pinang","04-261 4684","Pulau Pinang"
"Kheng Dental Care Centre",1,0,0,0,5.43246,100.302,"7 F-1, Asas Centre
Jalan Gottlieb
10350
Pulau Pinang","04-228 1331","Pulau Pinang"
"Klinik Kt Ooi",1,0,0,0,5.42134,100.331,"98
Jalan Argyll
10050, George Town
Pulau Pinang","04-263 9468","Pulau Pinang"
"Koh Dental Surgery",1,0,0,0,5.42051,100.332,"12
Jalan Argyll
10050
Pulau Pinang","04-263 1690","Pulau Pinang"
"Ong & Lim Dental Surgery",1,0,0,0,5.41869,100.332,"185A
Lebuh Campbell
10100
Pulau Pinang","04-261 9119","Pulau Pinang"
"Chua Dental Surgery",1,0,0,0,5.41403,100.338,"302
Lebuh Pantai
10300
Pulau Pinang","04-261 4517","Pulau Pinang"
"Klinik England",1,0,0,0,5.42185,100.331,"64
Jalan Sri Bahari
10050, George Town
Pulau Pinang","017-478 6269","Pulau Pinang"
"Ooi Kwee Lim Polyclinic",1,0,0,0,5.41606,100.332,"9
Jalan Sungai Ujong
10100, George Town
Pulau Pinang","04-261 5497","Pulau Pinang"
"Burma Klinik",1,0,0,0,5.4324,100.311,"306D
Jalan Burmah
10350, George Town
Pulau Pinang","04-228 8189","Pulau Pinang"
"Luke Klinik",1,0,0,0,5.43237,100.311,"306C
Jalan Burmah
10350, George Town
Pulau Pinang","04-226 2866","Pulau Pinang"
"Ang Dental Surgery",1,0,0,0,5.43259,100.311,"5
Lintang Burma
10250
Pulau Pinang","04-228 1127","Pulau Pinang"
"Klinik Koay",1,0,0,0,5.43204,100.312,"296
Jalan Burma
10350, George Town
Pulau Pinang","04-227 1215","Pulau Pinang"
"Klinik Joel",1,0,0,0,5.43211,100.31,"413-A
Jalan Burma
10350, George Town
Pulau Pinang","04-226 8826","Pulau Pinang"
"Goh Dental Surgery",1,0,0,0,5.43205,100.311,"407
Jalan Burmah
10350, George Town
Pulau Pinang","04-228 7060","Pulau Pinang"
"Poliklinik Mega",1,0,0,0,5.41609,100.323,"6
Jalan Naning
10400
Pulau Pinang","04-227 5619","Pulau Pinang"
"Eva Dental Surgery",1,0,0,0,5.43422,100.306,"No 30
Persiaran Midlands
10250, George Town
Pulau Pinang","04-227 5848","Pulau Pinang"
"Hyperbaric Oxygen Therapy & Wound Centre",1,0,0,0,5.41758,100.32,"125-A, Wisma Getah
Jalan Macalister
10400, George Town
Pulau Pinang","04-210 8310","Pulau Pinang"
"Choo Dental Surgery",1,0,0,0,5.41484,100.328,"52A
Jalan Macalister
10400
Pulau Pinang","04-227 6775","Pulau Pinang"
"Tan Medical Clinic",1,0,0,0,5.41719,100.324,"59
Jalan Ranggon
10400, George Town
Pulau Pinang","04-226 3860","Pulau Pinang"
"Nippon Surgical Clinic",1,0,0,0,5.41749,100.325,"53-A
Jalan Ranggon
10400, George Town
Pulau Pinang","04-226 2166","Pulau Pinang"
"Klinik Pergigian Central",1,0,0,0,5.45252,100.304,"30
Jalan Fettes
11200, Tanjong Bungah
Pulau Pinang","04-890 2528","Pulau Pinang"
"Poliklinik Yik",1,0,0,0,5.45235,100.304,"30
Jalan Fettes
11200, Tanjong Bungah
Pulau Pinang","04-890 4322","Pulau Pinang"
"Poliklinik Teng",1,0,0,0,5.45114,100.305,"Prima Tanjung
Jalan Fettes
11200, Tanjong Tokong
Pulau Pinang","04-899 0766","Pulau Pinang"
"Klinik Fong",1,0,0,0,5.45083,100.305,"98-G-42, Prima Tanjung
Jalan Fettes
10470, Tanjong Tokong
Pulau Pinang","TIADA","Pulau Pinang"
"Tejani Medical Clinic",1,0,0,0,5.46567,100.284,"547-M
Jalan Tanjung Bunga
11200
Pulau Pinang","04-890 3999","Pulau Pinang"
"Meridian Dental Surgery",1,0,0,0,5.46644,100.293,"598-02-46
Jalan Tanjung Bunga
11200
Pulau Pinang","04-899 5907","Pulau Pinang"
"Looi Orthodontic Clinic",1,0,0,0,5.43395,100.304,"390
Jalan Burma
10350, George Town
Pulau Pinang","04-229 4248","Pulau Pinang"
"Poliklinik Chiah",1,0,0,0,5.43387,100.303,"1
Jalan Gottlieb
10350, George Town
Pulau Pinang","04-226 6478","Pulau Pinang"
"Singapore Dental Surgery",1,0,0,0,5.43387,100.303,"1A
Jalan Gottlieb
10350, George Town
Pulau Pinang","04-227 6897","Pulau Pinang"
"Singapore Women'S Specialist Centre",1,0,0,0,5.43249,100.306,"2-B
Jalan Brown
10350, George Town
Pulau Pinang","04-228 0833","Pulau Pinang"
"Oh Medical Klinik",1,0,0,0,5.43085,100.314,"14
Lorong Burma
10250, George Town
Pulau Pinang","TIADA","Pulau Pinang"
"Klinik Pakar Kanak-Kanak Choo",1,0,0,0,5.43092,100.314,"18
Lorong Burma
10250, George Town
Pulau Pinang","04-227 5731","Pulau Pinang"
"Lau Dental Surgery",1,0,0,0,5.43008,100.312,"15
Solok Moulmein
10350, Pulau Tikus
Pulau Pinang","04-226 6163","Pulau Pinang"
"Phoon Dental Surgery",1,0,0,0,5.40338,100.309,"71G
Jalan Terengganu
10460, George Town
Pulau Pinang","04-281 4384","Pulau Pinang"
"Klinik Singapore",1,0,0,0,5.40339,100.309,"71-F
Jalan Terengganu
10460, Ayer Itam
Pulau Pinang","04-281 0114","Pulau Pinang"
"Klinik Shanti",1,0,0,0,5.40388,100.309,"75F
Jalan Terengganu
10460, George Town
Pulau Pinang","04-281 2582","Pulau Pinang"
"Klinik Kulit Dan Leser Leh",1,0,0,0,5.42854,100.315,"No 202D
Jalan Burma
10350, George Town
Pulau Pinang","04-227 2120","Pulau Pinang"
"Klinik Kanak-Kanak Goh",1,0,0,0,5.42848,100.315,"202 C
Jalan Burma
10350, George Town
Pulau Pinang","04-226 5630","Pulau Pinang"
"Dr. Kk Ng Women Specialist Centre",1,0,0,0,5.42844,100.315,"202  Ground Floor
Jalan Burma
10350, George Town
Pulau Pinang","016-417 0456","Pulau Pinang"
"Ht Ong Heart Clinic",1,0,0,0,5.42767,100.315,"251 C
Jalan Burma
10350, George Town
Pulau Pinang","04-229 2875","Pulau Pinang"
"Lim Dental Surgery",1,0,0,0,5.42758,100.315,"3
Lenkok Burma
13500, Bukit Mertajam
Pulau Pinang","04-229 8686","Pulau Pinang"
"Klinik Tropika Sdn. Bhd",1,0,0,0,5.42456,100.32,"231-E
Jalan Burma
10050, George Town
Pulau Pinang","04-226 6196","Pulau Pinang"
"Oh Eye Clinic & Surgery",1,0,0,0,5.41829,100.325,"229-G
Jalan Burma
10050, George Town
Pulau Pinang","04-227 4471","Pulau Pinang"
"Huang Dental Clinic",1,0,0,0,5.42332,100.321,"221B
Jalan Burma
10050, George Town
Pulau Pinang","04-227 1125","Pulau Pinang"
"Poliklinik Mutiara",1,0,0,0,5.4618,100.308,"No. 42, Tingkat Bawah
Lebuh Sungai Pinang
11600, Sungai Pinang
Pulau Pinang","04-890 9508","Pulau Pinang"
"Klinik Khoo",1,0,0,0,5.40664,100.332,"300
Pengkalan Weld
10300, George Town
Pulau Pinang","04-261 0489","Pulau Pinang"
"Poliklinik Mah",1,0,0,0,5.41065,100.336,"123-G-3
Pengkalan Weld
10300, George Town
Pulau Pinang","04-263 5705","Pulau Pinang"
"K.L. Ong Specialist Clinic",1,0,0,0,5.43264,100.313,"58-4-2, Fortune Heights
Jalan Contonment
10250, George Town
Pulau Pinang","04-229 0168","Pulau Pinang"
"Geh Surgical Centre",1,0,0,0,5.43245,100.312,"37-G
Jalan Cantonment
10250, George Town
Pulau Pinang","04-226 9192","Pulau Pinang"
"Guan Klinik",1,0,0,0,5.40211,100.278,"616 K
Jalan Paya Terubong
11500, Ayer Itam
Pulau Pinang","04-828 6535","Pulau Pinang"
"Klinik Bersatu 24 Jam Air Itam",1,0,0,0,5.40206,100.277,"No. 607 H, Tingkat Bawah
Jalan Balik Pulau
11500, Ayer Itam
Pulau Pinang","04-828 8625","Pulau Pinang"
"Klinik 1 Utama",1,0,0,0,5.40158,100.277,"616-D
Jalan Pasar
11500, Bukit Mertajam
Pulau Pinang","04-828 6233","Pulau Pinang"
"Klinik Union (Pg) 16 Jam",1,0,0,0,5.39347,100.277,"1228L, Desa Permata
Jalan Paya Terubong
11500, Paya Terubung
Pulau Pinang","04-829 6122","Pulau Pinang"
"Klinik Pergigian Desa Permata",1,0,0,0,5.39367,100.277,"8
Jalan Paya Terubong
11060, Paya Terubung
Pulau Pinang","04-828 4695","Pulau Pinang"
"Klinik Pergigian K K Tan",1,0,0,0,5.38928,100.281,"65B, 1St Floor
Lintang Angsana
11500, Ayer Itam
Pulau Pinang","04-828 3563","Pulau Pinang"
"Poliklinik & Klinik Pakar Wanita Qoay",1,0,0,0,5.38867,100.282,"40 A
Lintang Angsana
11500, Ayer Itam
Pulau Pinang","04-826 0813","Pulau Pinang"
"Klinik Siti",1,0,0,0,5.36845,100.309,"1-B, Brown Garden
Jalan Permai
11700, Glugor
Pulau Pinang","04-655 3630","Pulau Pinang"
"Island Dental Surgery",1,0,0,0,5.38262,100.304,"1M, Tingkat Satu, Island Glades
Lorong Delima 5
11700, Glugor
Pulau Pinang","04-657 1402","Pulau Pinang"
"Poliklinik Pan_Medic",1,0,0,0,5.38892,100.282,"51A
Lintang Angsana
11500, Ayer Itam
Pulau Pinang","04-829 1499","Pulau Pinang"
"Khor Dental Surgery",1,0,0,0,5.38984,100.285,"Block 2G-01-17
Medan Angsana Satu
11500, Ayer Itam
Pulau Pinang","04-826 3093","Pulau Pinang"
"Island Dental Surgery",1,0,0,0,5.38888,100.282,"48-B, Tingkat Satu
Lintang Angsana
11500, Ayer Itam
Pulau Pinang","04-826 1254","Pulau Pinang"
"E-Heart & Health Scan Centre",1,0,0,0,5.37635,100.315,"Lot 1-02-18, E Gate
Lebuh Tunku Kudin 2
11700, Glugor
Pulau Pinang","04-377 6006","Pulau Pinang"
"Ooi Dental Surgery",1,0,0,0,5.40181,100.278,"6161 E
Jalan Paya Terubong
11500, Ayer Itam
Pulau Pinang","04-828 3364","Pulau Pinang"
"Poliklinik See",1,0,0,0,5.4755,100.253,"3
Lorong Sungai Emas
11100, Batu Ferringgi
Pulau Pinang","04-885 1168","Pulau Pinang"
"Klinik Kulit Ong",1,0,0,0,5.42042,100.326,"106
Jalan Burma
10050, George Town
Pulau Pinang","04-227 0425","Pulau Pinang"
"Klinik Sada",1,0,0,0,5.41935,100.341,"13
Jalan Penang
10200, George Town
Pulau Pinang","04-261 9313","Pulau Pinang"
"Klinik Dr. Ng S. G.",1,0,0,0,5.43804,100.381,"6694
Jalan Bagan Ajam
13000, Butterworth
Pulau Pinang","04-331 7318","Pulau Pinang"
"Lawrence Dental Surgery",1,0,0,0,5.43793,100.381,"No 6690, Ground Floor
Jalan Bagan Ajam
13000, Butterworth
Pulau Pinang","04-331 7319","Pulau Pinang"
"Poliklinik Ropheka",1,0,0,0,5.43623,100.381,"No. 7164, Taman Bagan Ajam
Jalan Bagan Ajam
13000, Butterworth
Pulau Pinang","04-331 9866","Pulau Pinang"
"Poliklinik Hl",1,0,0,0,5.43606,100.381,"No. 12, Taman Bukit Minyak
Jalan Bukit Minyak 3
14000, Bukit Mertajam
Pulau Pinang","04-324 7161","Pulau Pinang"
"Klinik 1 Utama",1,0,0,0,5.43341,100.386,"6879
Jalan Raja Uda
13400, Butterworth
Pulau Pinang","04-538 5372","Pulau Pinang"
"Klinik Yeoh Oon Theam Sdn. Bhd.",1,0,0,0,5.42527,100.383,"6228
Jalan Raja Uda
12300, Butterworth
Pulau Pinang","TIADA","Pulau Pinang"
"Klinik Pergigian Eow",1,0,0,0,5.43033,100.384,"7373
Jalan Raja Uda
12300, Butterworth
Pulau Pinang","04-333 3112","Pulau Pinang"
"Klinik Koh",1,0,0,0,5.43491,100.385,"6640
Jalan Raja Uda
12300, Butterworth
Pulau Pinang","04-331 0668","Pulau Pinang"
"Klinik Pergigian Goh",1,0,0,0,5.43552,100.389,"6995, Tingkat 1
Jalan Ong Yi How
13400
Pulau Pinang","04-323 6399","Pulau Pinang"
"Klinik Pakar Kanak-Kanak Butterworth",1,0,0,0,5.43555,100.389,"6995
Jalan Ong Yi How
13400, Butterworth
Pulau Pinang","04-324 1910","Pulau Pinang"
"Klinik C.H. Ang",1,0,0,0,5.43554,100.389,"7003
Jalan Ong Yi How
13400, Butterworth
Pulau Pinang","04-333 3113","Pulau Pinang"
"Klinik Kh Soon",1,0,0,0,5.43677,100.386,"6489
Jalan Raja Uda
13000, Butterworth
Pulau Pinang","04-331 3622","Pulau Pinang"
"Klinik Xavier",1,0,0,0,5.44583,100.383,"633
Jalan Bagan Ajam
13000, Butterworth
Pulau Pinang","04-331 4684","Pulau Pinang"
"Poliklinik Dr.Azhar & Rakan-Rakan",1,0,0,0,5.4453,100.382,"No. 1510, Tingkat Bawah, Taman Arowana
Jalan Permatang Pauh
13500, Permatang Pauh
Pulau Pinang","04-398 8180","Pulau Pinang"
"Klinik Joe Fernandez",1,0,0,0,5.44513,100.382,"620
Jalan Teluk Air Tawar
13000, Butterworth
Pulau Pinang","04-332 2900","Pulau Pinang"
"Rozi And Teoh Klinik",1,0,0,0,5.41406,100.372,"6722
Jalan Kampong Gajah
12200, Butterworth
Pulau Pinang","04-332 3535","Pulau Pinang"
"Klinik Pergigian Thang",1,0,0,0,5.412,100.371,"3849, Tingkat 1
Jalan Bagan Luar
12000, Butterworth
Pulau Pinang","04-468 6945","Pulau Pinang"
"Klinik K. H. Ong",1,0,0,0,5.4119,100.371,"3851
Jalan Bagan Luar
12000, Butterworth
Pulau Pinang","04-331 1934","Pulau Pinang"
"Klinik Pillai",1,0,0,0,5.41112,100.371,"Jalan Bagan Luar
12000, Butterworth
Pulau Pinang","04-333 1040","Pulau Pinang"
"Klinik Pergigian Lim",1,0,0,0,5.40866,100.371,"4703A
Jalan Bagan Luar
12000, Butterworth
Pulau Pinang","04-332 7373","Pulau Pinang"
"Klinik Dr Ng",1,0,0,0,5.42057,100.381,"No 145, Pusat Perniagaan Raja Uda
Jalan Raja Uda
12300, Butterworth
Pulau Pinang","04-490 0232","Pulau Pinang"
"Klinik Pergigian Maxcare",1,0,0,0,5.42465,100.382,"No 7303, Tingkat Bawah, Taman Angerik
Jalan Raja Uda
12300, Butterworth
Pulau Pinang","04-333 7289","Pulau Pinang"
"Reddy Klinik",1,0,0,0,5.43257,100.378,"4773
Jalan Bagan Jermal
12300, Butterworth
Pulau Pinang","04-332 7248","Pulau Pinang"
"Klinik Syed Alwi Dan Chandran",1,0,0,0,5.41557,100.373,"6466
Jalan Kampung Gajah
12200, Butterworth
Pulau Pinang","04-333 0789","Pulau Pinang"
"Klinik Munnir",1,0,0,0,5.41358,100.375,"6656
Jaaln Telaga Air
12200, Butterworth
Pulau Pinang","04-331 7333","Pulau Pinang"
"Klinik Yoong",1,0,0,0,5.41343,100.376,"4743
Jalan Telaga Air
12200, Butterworth
Pulau Pinang","04-331 5959","Pulau Pinang"
"Klinik Jen Jen",1,0,0,0,5.40923,100.372,"4472
Jalan Kg. Benggali
12200, Butterworth
Pulau Pinang","04-333 4114","Pulau Pinang"
"Klinik Ling",1,0,0,0,5.40822,100.371,"4220
Jalan Kg. Benggali
12200, Butterworth
Pulau Pinang","04-332 8146","Pulau Pinang"
"Klinik United",1,0,0,0,5.39872,100.372,"4793
Jalan Chain Ferry
12100, Butterworth
Pulau Pinang","04-323 2077","Pulau Pinang"
"Klinik Poh",1,0,0,0,5.39903,100.373,"4997, Tingkat Bawah
Jalan Chain Ferry
12100, Butterworth
Pulau Pinang","04-323 6994","Pulau Pinang"
"Klinik Pergigian Butterworth",1,0,0,0,5.39769,100.368,"3920,First Floor
Jalan Bagan Luar
12000, Butterworth
Pulau Pinang","04-323 9831","Pulau Pinang"
"Seet Dental Surgery",1,0,0,0,5.40876,100.371,"4423, 1St Floor
Jalan Bagan Luar
12000, Butterworth
Pulau Pinang","04-332 1282","Pulau Pinang"
"Island Dental Surgery",1,0,0,0,5.3213,100.286,"102-A, Tingkat Satu
Jalan Mayang Pasir
11950, Bayan Baru
Pulau Pinang","04-643 7803","Pulau Pinang"
"Island Dental Surgery",1,0,0,0,5.35498,100.239,"111C-12, Tingkat Bawah
Jalan Bukit Penara
11000, Balik Pulau
Pulau Pinang","04-866 9006","Pulau Pinang"
"Poliklinik Koay & Cheah",1,0,0,0,5.42575,100.382,"6542
Jalan Raja Uda
12300, Butterworth
Pulau Pinang","04-331 0417","Pulau Pinang"
"Selva Klinik",1,0,0,0,5.43017,100.397,"G 07, Taman Mesra
Jalan Bagan Lalang
13400, Butterworth
Pulau Pinang","04-333 1768","Pulau Pinang"
"Klinik Bagan Ajam",1,0,0,0,5.44909,100.388,"860, Taman Perkasa
Jalan Permatang Tengah
12100, Butterworth
Pulau Pinang","04-333 1768","Pulau Pinang"
"Klinik Pergigian A Marina",1,0,0,0,5.3239,100.291,"4E
Jalan Sungai Nibong
11950, Bayan Baru
Pulau Pinang","04-643 7487","Pulau Pinang"
"Klinik 24 Jam",1,0,0,0,5.33084,100.294,"1
Jalan Relau
11950, Bayan Lepas
Pulau Pinang","04-644 7199","Pulau Pinang"
"Klinik Joe Fernandez",1,0,0,0,5.33039,100.294,"1-L
Jalan Sultan Azlan Shah
11950, Bayan Baru
Pulau Pinang","04-644 6699","Pulau Pinang"
"Klinik Pergigian E.L. Lim",1,0,0,0,5.33242,100.294,"1-2-2
Jalan Tun Dr. Awang
11900, Bayan Lepas
Pulau Pinang","04-641 0375","Pulau Pinang"
"Relau Dental Surgery",1,0,0,0,5.33246,100.294,"No 1-1-7, Ideal Evenue
Jalan Tun Dr. Awang
11900, Bayan Lepas
Pulau Pinang","04-641 0288","Pulau Pinang"
"Klinik Bayan Medic",1,0,0,0,5.33583,100.291,"215-1-2, Krystal Square
11900, Bayan Lepas
Pulau Pinang","04-642 5844","Pulau Pinang"
"Klinik Pakar Kanak-Kanak Toong",1,0,0,0,5.33586,100.291,"215-1-3, Paras 1, Krystal Square
Jalan Bukit Gambir
11900, Bayan Lepas
Pulau Pinang","TIADA","Pulau Pinang"
"Klinik Neoh",1,0,0,0,5.3389,100.295,"33-G-6, Taman Lip Sin
Leboh Nipah
11900, Bayan Lepas
Pulau Pinang","04-643 0789","Pulau Pinang"
"Klinik Abdul Rahim",1,0,0,0,5.29564,100.264,"2-D, Pangsapuri Garuda
11900, Bayan Lepas
Pulau Pinang","04-644 4181","Pulau Pinang"
"Klinik Desa Ara",1,0,0,0,5.32553,100.271,"282
Jalan Dato Ismail Hashim
11900, Bayan Lepas
Pulau Pinang","04-642 8228","Pulau Pinang"
"Klinik Pakar Yeap",1,0,0,0,5.32592,100.272,"270-1
Jalan Dato Ismail Hashim
11900, Bayan Lepas
Pulau Pinang","04-644 4187","Pulau Pinang"
"Tan Klinik",1,0,0,0,5.40202,100.383,"4600-4601
Jalan Chain Ferry
12100, Butterworth
Pulau Pinang","04-331 0349","Pulau Pinang"
"Bp Dianostic Centre Sdn Bhd",1,0,0,0,5.39912,100.373,"5001 & 5002, Tingkat Bawah
Jalan New Fery
12100, Butterworth
Pulau Pinang","04-332 7644","Pulau Pinang"
"Penang International Dental College",1,0,0,0,5.39661,100.367,"19Th,20Th&21St, Of Nb Tower 5050
Jalan Bagan Luar
12000, Butterworth
Pulau Pinang","04-332 5050","Pulau Pinang"
"Klinik Tan & Rakan-Rakan",1,0,0,0,5.40672,100.372,"4644
Jalan Heng Choon Thean
12000, Butterworth
Pulau Pinang","04-331 0349","Pulau Pinang"
"Klinik Pakar Chen & Yu",1,0,0,0,5.41809,100.38,"107, Pusat Perniagaan Raja Uda
Jalan Raja Uda
12300, Butterworth
Pulau Pinang","012-429 6418","Pulau Pinang"
"Klinik Topcare (Raja Uda) Sdn Bhd",1,0,0,0,5.41757,100.38,"90, Pusat Perniagaan Raja Uda
Jalan Raja Uda
12300, Butterworth
Pulau Pinang","04-331 7609","Pulau Pinang"
"Klinik Budi",1,0,0,0,5.32541,100.27,"3, Taman Sungai Ara
Jalan Sungai Ara
11900, Bayan Lepas
Pulau Pinang","04-644 4508","Pulau Pinang"
"Poliklinik Sunway",1,0,0,0,5.32309,100.279,"No. 36 Ground Floor, Sunway Tunas
Persiaran Mahsuri 2
11900, Bayan Lepas
Pulau Pinang","04-645 5529","Pulau Pinang"
"We Care Dental Surgery",1,0,0,0,5.32404,100.278,"No. 13G, Sunway Tunas
Persiaran Mahsuri 1/3
11900, Bayan Baru
Pulau Pinang","04-643 7036","Pulau Pinang"
"Klinik Brunei",1,0,0,0,5.33972,100.304,"41
Jalan Aziz Ibrahim
11900, Bayan Lepas
Pulau Pinang","04-658 1328","Pulau Pinang"
"Poliklinik I-Care",1,0,0,0,5.34085,100.303,"No. 5
Jalan Pantai Jerejak 13
11900, Bayan Lepas
Pulau Pinang","04-656 3993","Pulau Pinang"
"Klinik Kenari",1,0,0,0,5.31557,100.266,"24 Ground Floor, Desa Pilihan
Jalan Kedidi
11900, Sungai Ara
Pulau Pinang","04-643 7661","Pulau Pinang"
"Poliklinik Pan Medic (Sg.Ara)",1,0,0,0,5.32013,100.269,"2 F, Paras 1
Tingkat Kenari Desaria
11900, Sungai Ara
Pulau Pinang","04-646 6975","Pulau Pinang"
"Klinik Bersatu 16 Jam (Sg.Ara)",1,0,0,0,5.32031,100.269,"2B, Paras 1
Tingkat Kenari
11900, Bayan Lepas
Pulau Pinang","04-645 2018","Pulau Pinang"
"Klinik Public",1,0,0,0,5.31999,100.271,"302B-1, Desa Ria
Jalan Dato Ismail Hashim
11900, Bayan Lepas
Pulau Pinang","04-642 2361","Pulau Pinang"
"Klinik Bersatu Relau",1,0,0,0,5.33366,100.276,"No 823 G-12
Jalan Paya Terubong
11900, Relau
Pulau Pinang","04-646 2600","Pulau Pinang"
"Poliklinik Teluk Kumbar",1,0,0,0,5.29311,100.232,"No. 11
Tingkat Teluk Kumbar 2
11920, Teluk Kumbar
Pulau Pinang","04-649 3908","Pulau Pinang"
"Klinik Seri Pulau",1,0,0,0,5.28599,100.237,"711-G-50, Taman Emas
Jalan Teluk Kumbar
11920, Teluk Kumbar
Pulau Pinang","04-649 1857","Pulau Pinang"
"Klinik Ratna",1,0,0,0,5.35031,100.235,"42-44
Jalan Besar
11000, Balik Pulau
Pulau Pinang","04-866 8331","Pulau Pinang"
"Klinik Seri Pulau",1,0,0,0,5.35124,100.235,"51
Jalan Balik Pulau
11000, Balik Pulau
Pulau Pinang","04-866 9422","Pulau Pinang"
"Klinik Murni",1,0,0,0,5.33352,100.217,"No 11A, Taman Pasir Mas
Jalan Balik Pulau
11000, Balik Pulau
Pulau Pinang","04-866 4188","Pulau Pinang"
"Klinik Lee",1,0,0,0,5.41193,100.333,"Jalan Magazine
10300, George Town
Pulau Pinang","04-262 7831","Pulau Pinang"
"Klinik Union",1,0,0,0,5.39246,100.298,"5-1-9, Hunza Complex
Jalan Gangsa
11600, George Town
Pulau Pinang","04-655 3517","Pulau Pinang"
"Optimax Eye Specialist Center",1,0,0,0,5.39908,100.304,"8-1C
Jalan Masjid Negeri
11600, Jelutong
Pulau Pinang","04-282 3522","Pulau Pinang"
"Klinik Soon",1,0,0,0,5.4097,100.332,"132
Jalan C.Y. Choy
10300, George Town
Pulau Pinang","04-261 8268","Pulau Pinang"
"Bp Dianostic Centre Sdn Bhd",1,0,0,0,5.42452,100.329,"Suite G1, Menara Penang Garden
Jalan Sultan Ahmad Shah
10050, Glugor
Pulau Pinang","04-229 2677","Pulau Pinang"
"Intan Poliklinik",1,0,0,0,5.28534,100.282,"1
Lebuh Batu Maung 2
11960, Bayan Lepas
Pulau Pinang","04-626 3932","Pulau Pinang"
"Klinik Bersatu Lip Sin",1,0,0,0,5.34211,100.294,"2-G-2, Taman Lip Sin
Lengkok Nipah
11900, Bayan Lepas
Pulau Pinang","04-643 2901.","Pulau Pinang"
"Klinik Pertama",1,0,0,0,5.33465,100.297,"578-A
Jalan Sultan Azlan Shah
11900, Bayan Lepas
Pulau Pinang","04-643 4085","Pulau Pinang"
"Klinik Pergigian Smilebay",1,0,0,0,5.32656,100.286,"52, Tingkat 1
Jalan Mahsuri
11950, Bayan Baru
Pulau Pinang","04-643 2637","Pulau Pinang"
"Santokh Ear Nose & Throat Clinic",1,0,0,0,5.4219,100.331,"68
Jalan Sri Bahari
10050, George Town
Pulau Pinang","04-263 9545","Pulau Pinang"
"Klinik Hari",1,0,0,0,5.31893,100.279,"162
Persiaran Mayang Pasir
11900, Bayan Baru
Pulau Pinang","04-644 9943","Pulau Pinang"
"Klinik Pergigian Family",1,0,0,0,5.28892,100.247,"1172, Taman Widuri
Jalan Teluk Kumbar
11920, Bayan Lepas
Pulau Pinang","04-649 3861","Pulau Pinang"
"Klinik Dr Gigi Bhar Dental Surgery",1,0,0,0,5.33027,100.294,"1-P, Tingkat Satu
Jalan Sungai Nibong
11900, Bayan Baru
Pulau Pinang","04-644 6555","Pulau Pinang"
"Klinik Pergigian Sri Mutiara",1,0,0,0,5.32982,100.291,"3
Lorong Mahsuri Tujuh
11950, Bayan Baru
Pulau Pinang","016-466 6039","Pulau Pinang"
"Poliklinik Sri Mutiara",1,0,0,0,5.32983,100.291,"3
Lorong Mahsuri Tujuh
11950, Bayan Baru
Pulau Pinang","04-643 3261","Pulau Pinang"
"Klinik Sentosa Sdn Bhd",1,0,0,0,5.326,100.286,"20-C
Lebuh Penang
10200, George Town
Pulau Pinang","04-643 2131","Pulau Pinang"
"Poliklinik Bistari (Relau)",1,0,0,0,5.33463,100.276,"825A
Jalan Paya Terubong
11900, Bayan Lepas
Pulau Pinang","04-644 5039","Pulau Pinang"
"Poliklinik Pan-Medic (Baung Maung)",1,0,0,0,5.28444,100.282,"35
Lebuhraya Batu Maung
11960, Bayan Lepas
Pulau Pinang","04-626 6645","Pulau Pinang"
"Poliklinik Dr Azhar Dan Rakan-Rakan",1,0,0,0,5.35138,100.239,"39, Mk. 6
Jalan Tun Sardon
11000, Balik Pulau
Pulau Pinang","04-866 3592","Pulau Pinang"
"Siak Dental Surgery",1,0,0,0,5.2946,100.258,"229
Jalan Raya
11900, Bayan Lepas
Pulau Pinang","04-643 0796","Pulau Pinang"
"Klinik Kong & Sia 16 Jam",1,0,0,0,5.35091,100.235,"25
Jalan Besar
11000, Balik Pulau
Pulau Pinang","TIADA","Pulau Pinang"
"Klinik Kanak-Kanak Lim",1,0,0,0,5.41805,100.325,"39
Jalan Rangoon
11700, George Town
Pulau Pinang","04-227 0723","Pulau Pinang"
"Poliklinik Hong",1,0,0,0,5.40335,100.309,"288-A-11
Jalan Thean Teik
11500, Ayer Itam
Pulau Pinang","04-281 1828","Pulau Pinang"
"Klinik B.S. Tan",1,0,0,0,5.41779,100.341,"No. 21
Lebuh Gereja
10200, George Town
Pulau Pinang","04-261 8345","Pulau Pinang"
"Klinik Pergigian Ng",1,0,0,0,5.42032,100.381,"148
Jalan Raja Uda
12300, Butterworth
Pulau Pinang","04-332 3142","Pulau Pinang"
"Klinik Bersatu 16 Jam",1,0,0,0,5.38503,100.393,"56, Taman Chai Leng
Jalan Kurau
13700, Prai
Pulau Pinang","04-397 8810","Pulau Pinang"
"Klinik Bersatu 16 Jam",1,0,0,0,5.43101,100.384,"No. 5021
Jalan Raja Uda
13000, Butterworth
Pulau Pinang","04-324 5841","Pulau Pinang"
"Klinik Dr. Aqib & Surgeri",1,0,0,0,5.53299,100.431,"No. 9 & 11, Taman Paya Keladi
Jalan Paya Keladi 2
13200, Kepala Batas
Pulau Pinang","04-575 4996","Pulau Pinang"
"Pusat Pakar Mata Isec",1,0,0,0,5.42437,100.32,"229-G
Jalan Burma
10050, George Town
Pulau Pinang","04 228 8802","Pulau Pinang"
"Pusat Pakar Perubatan Dr. Anwar",1,0,0,0,5.39675,100.4,"No. 57 & 59, Sunway Perdana
Jalan Todak 6
13700, Seberang Jaya
Pulau Pinang","04 383 8829","Pulau Pinang"
"Klinik Pakar Mata Vista Eye",1,0,0,0,5.35138,100.458,"No. 2
Lorong Bukit Kecil Indah
14000, Bukit Mertajam
Pulau Pinang","04-539 3937","Pulau Pinang"
"Putra Poliklinik & Surgery",1,0,0,0,5.33686,100.291,"No.20
Solok Bukit Jambul
11950, Bayan Lepas
Pulau Pinang","04-646 4042","Pulau Pinang"
"Poliklinik Khor",1,0,0,0,5.34694,100.446,"Taman Sri Rambai, 38
Tingkat Binjai 12
14000, Bukit Mertajam
Pulau Pinang","04-539 4101","Pulau Pinang"
"Teoh Polyclinic",1,0,0,0,5.41519,100.335,"145
Lebuh Carnarvon
10200, George Town
Pulau Pinang","04-261 9537","Pulau Pinang"
"Koe Klinik",1,0,0,0,5.43,100.313,"289
Jalan Burma
10350, Pulau Tikus
Pulau Pinang","04-227 0404","Pulau Pinang"
"Klinik Sein",1,0,0,0,5.40663,100.332,"330
Pengkalan Weld
10300, George Town
Pulau Pinang","TIADA","Pulau Pinang"
"Klinik Sri Pinang",1,0,0,0,5.40617,100.319,"159-G-5
Jalan Sungai Pinang
10150, George Town
Pulau Pinang","04-251 2599","Pulau Pinang"
"Klinik Joe Fernandez",1,0,0,0,5.38375,100.39,"1303
Jalan Chai Leng
13700, Prai
Pulau Pinang","04-390 0851","Pulau Pinang"
"Klinik Singapore",1,0,0,0,5.28828,100.282,"19-1
Lintang Batu Maung 1
11960, Bayan Lepas
Pulau Pinang","04-626 1319","Pulau Pinang"
"Klinik Loh Surgery",1,0,0,0,5.39256,100.308,"No 84 - 84A
Jalan Tan Sri Trh Ewe Lim
11600, Jelutong
Pulau Pinang","04-282 7868","Pulau Pinang"
"Poliklinik Rajoo",1,0,0,0,5.38637,100.385,"2908
Jalan Perai
13600, Prai
Pulau Pinang","04-398 1677","Pulau Pinang"
"Prime Polyclinic Pillai",1,0,0,0,5.38643,100.385,"Taman Inderawasih, 2910
Jalan Perai
13600, Prai
Pulau Pinang","04-390 9169","Pulau Pinang"
"Klinik Singapore",1,0,0,0,5.41595,100.339,"125
Lebuh Penang
10200, George Town
Pulau Pinang","04-261 3850","Pulau Pinang"
"Klinik Singapore",1,0,0,0,5.32312,100.29,"12
Jalan Sungai Nibong
11950, Bayan Baru
Pulau Pinang","04-643 3150","Pulau Pinang"
"Klinik Union",1,0,0,0,5.3834,100.39,"1294
Jalan Chai Leng
13700, Prai
Pulau Pinang","04-398 8377","Pulau Pinang"
"Peace Polyclinic",1,0,0,0,5.391,100.284,"2C-01-069
Medan Angsana 1
11500, Ayer Itam
Pulau Pinang","04-829 4536","Pulau Pinang"
"Klinik P.H, Yew",1,0,0,0,5.38687,100.384,"Taman Inderawasih, No 2945
Jalan Perai
13600, Prai
Pulau Pinang","04-398 7300","Pulau Pinang"
"Klinik Joe Fernandez",1,0,0,0,5.36337,100.412,"Taman Nagasari, No  86
Jalan Nagasari 1
13600, Prai
Pulau Pinang","04-397 5505","Pulau Pinang"
"Pen Fabric Mill 4 Klinik",1,0,0,0,5.36474,100.388,"Penfabric Sdn Bhd, Plot 117-119 & 200-202
Lorong Perusahaan 4
13600, Prai
Pulau Pinang","04-390 7000","Pulau Pinang"
"Sunshine Children Specialist Clinic",1,0,0,0,5.32408,100.278,"Sunway Tunas, No 11
Persiaran Mahsuri 1/3
11900, Bayan Lepas
Pulau Pinang","04-643 2372","Pulau Pinang"
"Poliklinik Mutiaraku",1,0,0,0,5.45715,100.209,"48-0-7
Jalan Hassan Abbas
11050, Teluk Bahang
Pulau Pinang","04-885 2499","Pulau Pinang"
"Klinik Lee",1,0,0,0,5.41993,100.326,"106
Jalan Burma
10050, George Town
Pulau Pinang","04-227 0425","Pulau Pinang"
"Klinik Famili",1,0,0,0,5.3888,100.284,"11A
Jalan Angsana
11500, Ayer Itam
Pulau Pinang","04-829 8822","Pulau Pinang"
"Khoo Soo Kheng Clinic",1,0,0,0,5.22423,100.495,"No 730
Jalan Sungai Bakap
14200, Poliklinik Fadzil
Pulau Pinang","04-582 4344","Pulau Pinang"
"Klinik Ima",1,0,0,0,5.40863,100.371,"No 4703
Jalan Bagan Luar
12000, Butterworth
Pulau Pinang","04-329 9156","Pulau Pinang"
"Klinik Bukit Jambul",1,0,0,0,5.33512,100.288,"Blok F-G-1, Taman Bukit Jambul
11900, Bayan Lepas
Pulau Pinang","04-644 6048","Pulau Pinang"
"Klinik Ima",1,0,0,0,5.32403,100.287,"46
Jalan Mayang Pasir
11950, Bayan Baru
Pulau Pinang","TIADA","Pulau Pinang"
"Klinik Health Plus",1,0,0,0,5.35009,100.297,"725-U
Jalan Sungai Dua
11700, Glugor
Pulau Pinang","04-657 7750","Pulau Pinang"
"Klinik Penang",1,0,0,0,5.41361,100.316,"No 132
Jalan Perak
10150, George Town
Pulau Pinang","04-229 6787","Pulau Pinang"
"Klinik Bala",1,0,0,0,5.43017,100.313,"242
Jalan Burma
10350, Pulau Tikus
Pulau Pinang","04-226 1835","Pulau Pinang"
"Klinik Joe Fernandez",1,0,0,0,5.31659,100.443,"Taman Duku, No 697
Jalan Juru
14100, Bukit Mertajam
Pulau Pinang","04-507 8639","Pulau Pinang"
"Klinik Solectron P1",1,0,0,0,5.35385,100.415,"Solectron Tecnology Sdn Bhd
Tingkat Perusaahn 6
13600, Prai
Pulau Pinang","04-506 4566","Pulau Pinang"
"Klinik Sanmina Sci Systems (M) Sdn Bhd",1,0,0,0,5.34136,100.425,"Kawasan Industri Bukit Tengah, Sanmina Sci Systems (M) Sdn Bhd, 202
Lorong Perusaahn Maju 9
13600, Prai
Pulau Pinang","04-508 1228","Pulau Pinang"
"Klinik Solectron P3",1,0,0,0,5.30784,100.455,"Solectron Technology Sdn Bhd, No 719
Jalan Perindustrian Bukit Minyak
13600, Bukit Mertajam
Pulau Pinang","04-506 5566","Pulau Pinang"
"Klinik Dell Apcc 1",1,0,0,0,5.3081,100.293,"Taman Perindustrian 2, Dell Global Bunises Centre Sdn Bhd, Plot 27
Hilir Sungai Keluang 2
11900, Bayan Lepas
Pulau Pinang","04-633 2727","Pulau Pinang"
"Poliklinik Mutiara",1,0,0,0,5.40641,100.324,"28-G-02
Jalan Sungai
10150, George Town
Pulau Pinang","04-281 0609","Pulau Pinang"
"Klinik Dr. Habsah",1,0,0,0,5.28481,100.241,"2-G-9, Taman Teluk Kumbar
Lintang Sungai Batu
11920, Teluk Kumbar
Pulau Pinang","04-649 5596","Pulau Pinang"
"Klinik Bersatu",1,0,0,0,5.36274,100.412,"72G, Taman Nagasari
Jalan Nagasari 1
13600, Prai
Pulau Pinang","04-398 8524","Pulau Pinang"
"Asp Medical Clinic",1,0,0,0,5.34178,100.443,"Kawasan Industri Bukit Tengah, Dell Asia Pacific Sdn, Plot 76
Lorong Perusahaan Utama 3
14000, Bukit Mertajam
Pulau Pinang","04-504 4888","Pulau Pinang"
"Klinik Hms",1,0,0,0,5.34048,100.459,"Taman Kota Permai, 43
Lebuh Kota Permai
14000, Bukit Mertajam
Pulau Pinang","04-508 6052","Pulau Pinang"
"Kids Carer Child Speacialist Clinic",1,0,0,0,5.34888,100.295,"2-G-6, Bagunan Lip Sin
Lebuh Pekaka 1
12100, Sungai Dua
Pulau Pinang","04-658 2557","Pulau Pinang"
"Klinik Bayu",1,0,0,0,5.33673,100.294,"67
Lebuh Nipah 3
11900, Bayan Lepas
Pulau Pinang","04-644 0039","Pulau Pinang"
"Poliklinik Dr. Azhar & Rakan-Rakan",1,0,0,0,5.44526,100.382,"No 623
Jalan Telok Air Tawar
12100, Butterworth
Pulau Pinang","04-323 1969","Pulau Pinang"
"Kids Carer Child Speacialist Clinic",1,0,0,0,5.38702,100.386,"Taman Inderawasih, 141
Medan Kikik 1
13600, Prai
Pulau Pinang","04-397 6557","Pulau Pinang"
"Klinik Rakyat",1,0,0,0,5.34779,100.304,"558-W, Taman Century
Persiaran Batu Uban
11700, Glugor
Pulau Pinang","04-658 1582","Pulau Pinang"
"Poliklinik Fadzil",1,0,0,0,5.22132,100.498,"1326
Jalan Sungai Bakap
14200, Sungai Bakap
Pulau Pinang","016-421 8990","Pulau Pinang"
"Poliklinik Dr. Roslan",1,0,0,0,5.36707,100.426,"No 42
Lorong Perda Utama 1
14000, Bukit Mertajam
Pulau Pinang","04-538 2964","Pulau Pinang"
"Klinik Amar",1,0,0,0,5.34209,100.428,"Unit K-3, Blok O
Jalan Pelangi
13600, Prai
Pulau Pinang","04-507 9607","Pulau Pinang"
"Klinik Bukit Tambun",1,0,0,0,5.27613,100.465,"Taman Tambun Indah, No 15
Jalan Bukit Tambun
14100, Simpang Ampat
Pulau Pinang","04-588 7004","Pulau Pinang"
"Klinik Abd  Aziz & Rakan-Rakan",1,0,0,0,5.28426,100.488,"No 14A
Jalan Tasek Ss2
14120, Simpang Ampat
Pulau Pinang","04-491 6721","Pulau Pinang"
"Klinik Bersatu (Bukit Minyak)",1,0,0,0,5.3286,100.447,"Taman Bukit Minyak, 11
Tingkat Bukit Minyak 7
14000, Bukit Mertajam
Pulau Pinang","04-507 1788","Pulau Pinang"
"Klinik Unicare",1,0,0,0,5.32046,100.448,"Taman Juru, 63
Jalan Juru
14100, Bukit Mertajam
Pulau Pinang","04-508 8190","Pulau Pinang"
"Klinik Singapore",1,0,0,0,5.33409,100.276,"823-G-3
Jalan Paya Terubong
11900, Relau
Pulau Pinang","04-644 8488","Pulau Pinang"
"Klinik Relau",1,0,0,0,5.33123,100.281,"No  88 U, Kompleks Sri Bukit Jambul
Jalan Tun Dr Awang
11900, Relau
Pulau Pinang","04-646 6911","Pulau Pinang"
"House Of Hope Klinik",1,0,0,0,5.40831,100.29,"49 U
Lorong Sempadan 2
11400, Ayer Itam
Pulau Pinang","04-826 4826","Pulau Pinang"
"Sim Children And Child Heart Clinic",1,0,0,0,5.39414,100.303,"36
Jalan Masjid Negeri
11600, Jelutong
Pulau Pinang","04-655 4058","Pulau Pinang"
"Klinik Aman",1,0,0,0,5.3256,100.282,"Unit 70-1-64, D'Piazza Mall
Jalan Mahsuri
11900, Bayan Baru
Pulau Pinang","04-645 2793","Pulau Pinang"
"Klinik Mesra",1,0,0,0,5.33588,100.291,"215-1-5, Crystal Square
Jalan Bukit Gambir
11900, Bayan Lepas
Pulau Pinang","04-646 3185","Pulau Pinang"
"Ido'S Clinic",1,0,0,0,5.33794,100.307,"A-16-1, Bay Avenue
Lorong Bayan Indah 4
11900, Bayan Lepas
Pulau Pinang","012-412 5992","Pulau Pinang"
"Northern Care Clinic Sdn Bhd",1,0,0,0,5.39768,100.328,"4
Lebuh Sungai Pinang 1
11600, Bandar Sri Pinang
Pulau Pinang","04-281 2290","Pulau Pinang"
"Klinik Bersatu Georgetown",1,0,0,0,5.40735,100.333,"30
Gat Lebuh Macallum
10300, George Town
Pulau Pinang","04-261 2735","Pulau Pinang"
"Klinik Dr Segar",1,0,0,0,5.35134,100.458,"No 6
Lorong Bukit Kecil Indah
14000, Bukit Mertajam
Pulau Pinang","04-537 7146","Pulau Pinang"
"Klinik Harmony",1,0,0,0,5.34948,100.472,"Taman Seri Jaya, 30
Lorong Seri Jaya
14000, Bukit Mertajam
Pulau Pinang","04-530 9112","Pulau Pinang"
"Klinik Koay",1,0,0,0,5.34948,100.472,"Taman Seri Jaya, 28
Lorong Seri Jaya
14000, Bukit Mertajam
Pulau Pinang","04-537 9897","Pulau Pinang"
"Klinik Penawar",1,0,0,0,5.41332,100.41,"Taman Cermai, No 16
Lorong Cermai 1
13500, Permatang Pauh
Pulau Pinang","04-398 1469","Pulau Pinang"
"Klinik Jaaya",1,0,0,0,5.1964,100.506,"Taman Jawi Indah, No 40
Jalan Jawi Indah
14200, Sungai Bakap
Pulau Pinang","04-582 2359","Pulau Pinang"
"Klinik Dr, Dashindar Singh",1,0,0,0,5.31361,100.464,"Kawasan Perniagaan Asas Murni, No 2194
Jalan Bukit Minyak
14100, Bukit Mertajam
Pulau Pinang","04-588 3817","Pulau Pinang"
"Klinik 6",1,0,0,0,5.36731,100.216,"Taman Manggis Indah, 29
Lorong Permatang Pasir 1
11010, Balik Pulau
Pulau Pinang","04-866 5304","Pulau Pinang"
"Klinik Harmony",1,0,0,0,5.39876,100.314,"330H-1
Jalan Slim
11600, Jelutong
Pulau Pinang","04-283 3394","Pulau Pinang"
"Drs Allan & Gunstensen",1,0,0,0,5.41848,100.342,"18
Lebuh Bishop
10300, George Town
Pulau Pinang","04-261 5199","Pulau Pinang"
"Klinik Gurney",1,0,0,0,5.43955,100.308,"167
Jalan Kelawei
10250, Pulau Tikus
Pulau Pinang","04-229 9840","Pulau Pinang"
"Klinik Bersatu Tanjung Bungah",1,0,0,0,5.4658,100.287,"30
Jalan Tanjung Bungah
11200, Tanjong Bungah
Pulau Pinang","04-899 9550","Pulau Pinang"
"Klinik Dr. Ko",1,0,0,0,5.43383,100.311,"No 87-C
Jalan Kelawei
10250, George Town
Pulau Pinang","04-226 2740","Pulau Pinang"
"Klinik Ima",1,0,0,0,5.41819,100.343,"4E Ground Floor, Heritage Building
Lebuh Pantai
10300, George Town
Pulau Pinang","04-261 2967","Pulau Pinang"
"Klinik Mediviron",1,0,0,0,5.35305,100.307,"8-G-06, Sunny Point Complex
Jalan Batu Uban
11700, Glugor
Pulau Pinang","04-658 3101","Pulau Pinang"
"O2 Klinik",1,0,0,0,5.40474,100.288,"1 & 1M
Jalan Air Itam
11500, Ayer Itam
Pulau Pinang","04-828 3345","Pulau Pinang"
"Poliklinik Dr. Azhar & Rakan-Rakan",1,0,0,0,5.44447,100.43,"Pusat Perniagaan Sungai Dua, No 16
Lorong Perniagaan 2
13800, Butterworth
Pulau Pinang","04-356 2969","Pulau Pinang"
"Poliklinik Intan Sdn. Bhd.",1,0,0,0,5.3617,100.411,"Taman Nagasari, 57
Jalan Nagasari 1
13600, Prai
Pulau Pinang","04-399 9560","Pulau Pinang"
"Poliklinik Hari Krisnan",1,0,0,0,5.28466,100.502,"No 25
Jalan Tasek
14100, Simpang Ampat
Pulau Pinang","04-588 2380","Pulau Pinang"
"Klinik Dr. Safari",1,0,0,0,5.5283,100.47,"49A
Jalan Syahbandar
13200, Kepala Batas
Pulau Pinang","016-446 6460","Pulau Pinang"
"Klinik Perubatan Tanah Melayu (Bayan Lepas)",1,0,0,0,5.28911,100.248,"1158
Jalan Teluk Kumbar
11920, Teluk Kumbar
Pulau Pinang","04-649 1642","Pulau Pinang"
"Asp Medical Clinic",1,0,0,0,5.28762,100.276,"National Instrumens (Malaysia) Sdn Bhd, No 8
Lebuh Batu Maung
11960, Bayan Lepas
Pulau Pinang","04-377 6000","Pulau Pinang"
"Klinik Bersatu Bayan Baru",1,0,0,0,5.32867,100.285,"2-G-13, One World
Tingkat Mahsuri 2
11950, Bayan Baru
Pulau Pinang","04-518 1330","Pulau Pinang"
"Klinik Farrali Afiat",1,0,0,0,5.36951,100.31,"2486
Jalan Sultan Azlan Sah
11700, Glugor
Pulau Pinang","04-656 4171","Pulau Pinang"
"Klinik Team Medic",1,0,0,0,5.34996,100.298,"19
Lintang Merak
11700, Glugor
Pulau Pinang","04-658 0464","Pulau Pinang"
"Menara Medical Clinic",1,0,0,0,5.29267,100.266,"Lot Ls 05, Level 1, Penang International Airport
11900, Bayan Lepas
Pulau Pinang","TIADA","Pulau Pinang"
"Klinik Permai",1,0,0,0,5.46436,100.28,"2R-G
Jalan Lembah Permai
12000, Tanjong Bungah
Pulau Pinang","04-890 6017","Pulau Pinang"
"Loke-Kun Child Specialist Clinic",1,0,0,0,5.46234,100.304,"502E
Jalan Tanjung Bungah
11200
Pulau Pinang","04-899 4962","Pulau Pinang"
"Klinik Kenari",1,0,0,0,5.30661,100.265,"8-G-13A, I-Park Aparment
Jalan Rajawali
11900, Sungai Ara
Pulau Pinang","TIADA","Pulau Pinang"
"Eternal Clinic (Penang)",1,0,0,0,5.32909,100.284,"2-1-28, The One
Tingkat Mahsuri
11950, Bayan Baru
Pulau Pinang","04-611 9585","Pulau Pinang"
"Hope Clinic",1,0,0,0,5.39058,100.284,"10 Ground Floor
Medan Angsana 1
11500, Ayer Itam
Pulau Pinang","04-826 6557","Pulau Pinang"
"Osel Clinic",1,0,0,0,5.42129,100.313,"213
Jalan Macalister
10450, George Town
Pulau Pinang","04-228 3005","Pulau Pinang"
"Amandrey Clinic",1,0,0,0,5.46601,100.292,"No 523-B
Jalan Tanjung Bungah
11200, Tanjong Bungah
Pulau Pinang","04-891 7917","Pulau Pinang"
"Klinik Singapore",1,0,0,0,5.3417,100.294,"Lot 1-03, 2A, Pan Palace
Lengkok Nipah
11700, Bayan Lepas
Pulau Pinang","04-643 4298","Pulau Pinang"
"Asp Medical Clinic",1,0,0,0,5.30513,100.278,"Bayan Lepas Free Industrial Zone, B.Braun Medical Industries Sdn Bhd
11900, Bayan Lepas
Pulau Pinang","TIADA","Pulau Pinang"
"Poliklinik Asas Jaya",1,0,0,0,5.3134,100.463,"1983
Jalan Bukit Minyak
14000, Bukit Mertajam
Pulau Pinang","04-587 3629","Pulau Pinang"
"Allianze Polyclinic",1,0,0,0,5.51873,100.483,"No 16 Ground Floor, Bandar Putra Bertam
Persiaran Seksyen 4/8
13200, Kepala Batas
Pulau Pinang","04-578 0292","Pulau Pinang"
"Klinik Bersatu",1,0,0,0,5.45009,100.434,"Taman Merbau Indah, 1886
Jalan Merbau Indah
13800, Tasek Gelugur
Pulau Pinang","04-356 2620","Pulau Pinang"
"Poliklinik Dr. Marina",1,0,0,0,5.40264,100.399,"No 12
Jalan Sembilang 2
13700, Seberang Jaya
Pulau Pinang","04-398 2848","Pulau Pinang"
"Poliklinik Mediasia",1,0,0,0,5.34073,100.504,"Taman Machang Bubok, 21
Jalan Machang Bubok
14000, Bukit Mertajam
Pulau Pinang","04-552 2484","Pulau Pinang"
"Poliklinik Bagan",1,0,0,0,5.40847,100.371,"4706
Jalan Bagan Luar
12000, Butterworth
Pulau Pinang","04-333 1933","Pulau Pinang"
"Klinik Putra (Cawangan Bagan)",1,0,0,0,5.42559,100.376,"No 20-G
Jalan Kampung Gajah
12300, Butterworth
Pulau Pinang","04-323 6620","Pulau Pinang"
"Klinik Dr Yip",1,0,0,0,5.52141,100.431,"Taman Bertam Perdana, 15
Jalan Bertam Perdana
13200, Kepala Batas
Pulau Pinang","012-585 4115","Pulau Pinang"
"Klinik Dr Ko",1,0,0,0,5.34021,100.43,"Kompleks Auto World, Pt 1797-1-4A (Plot 15A)
Jalan Perusahaan
13600, Juru
Pulau Pinang","04-502 5240","Pulau Pinang"
"Poliklinik Taman Wakaf",1,0,0,0,5.40363,100.408,"11A, Pusat Perniagaan Seetee Aisah
Jalan Seetee Aisah
13700, Permatang Pauh
Pulau Pinang","04-383 8341","Pulau Pinang"
"Klinik Swaran",1,0,0,0,5.34248,100.272,"20G, Taman Desa Relau
Lebuh Relau 2
11900, Bayan Lepas
Pulau Pinang","TIADA","Pulau Pinang"
"Poliklinik Jun",1,0,0,0,5.3194,100.269,"1B-1
Tingkat Kenari 6
11900, Sungai Ara
Pulau Pinang","04-637 0275","Pulau Pinang"
"Singapore Children And Family Clinic",1,0,0,0,5.3298,100.294,"No 1Y
Jalan Sultan Azlan Shah
11940, Bayan Baru
Pulau Pinang","04-646 6557","Pulau Pinang"
"Poliklinik Neoh",1,0,0,0,5.31574,100.441,"1340
Lorong Pinanng 1
14300, Bukit Mertajam
Pulau Pinang","04-593 1969","Pulau Pinang"
"Poliklinik Ng",1,0,0,0,5.36652,100.46,"Taman Ciku, No 12
Jalan Ciku
14000, Sungai Ara
Pulau Pinang","04-530 3278","Pulau Pinang"
"Klinik Waqaf An-Nur Masjik Jamek Seberang Jaya",1,0,0,0,5.38662,100.405,"Jalan Tun Hussain Onn
13700, Seberang Jaya
Pulau Pinang","TIADA","Pulau Pinang"
"Poliklinik Chik",1,0,0,0,5.48422,100.448,"Kampung Banggol
Jalan Pokok Sena
13200, Kepala Batas
Pulau Pinang","TIADA","Pulau Pinang"
"Klinik Pakar Kanak-Kanak Goh",1,0,0,0,5.43493,100.39,"Kawasan Perindustrian Ringan Teras Jaya, No 6188G
Jalan Ong Yi How
13400, Prai
Pulau Pinang","04-324 5118","Pulau Pinang"
"Klinik Rawatan Dr Mahmud",1,0,0,0,5.39825,100.368,"4452
Jalan Bagan Luar
12000, Butterworth
Pulau Pinang","TIADA","Pulau Pinang"
"Klinik Desa Murni",1,0,0,0,5.39305,100.418,"Kampung Permata
Jalan Permatang Pauh
13500, Permatang Pauh
Pulau Pinang","04-398 9429","Pulau Pinang"
"Klinik Careist",1,0,0,0,5.31683,100.478,"6  Ground Floor, Taman Seri Impian
Lorong Seri Impian 1
14000, Bukit Mertajam
Pulau Pinang","04-548 4113","Pulau Pinang"
"Klinik Topcare (Bm)",1,0,0,0,5.35191,100.473,"3207-G, Pusat Perusahaan Maju Utama
Jalan Kampung Baru
14000, Bukit Mertajam
Pulau Pinang","04-228 3005","Pulau Pinang"
"Klinik Putra (Cawangan Penaga)",1,0,0,0,5.52461,100.379,"Taman Penaga Permai, No 14
Jalan Kuala Bekah
13100, Penaga
Pulau Pinang","04-575 0032","Pulau Pinang"
"Aoklinik",1,0,0,0,5.39607,100.303,"26M
Jalan Masjid Negeri
11600, George Town
Pulau Pinang","017-888 9050","Pulau Pinang"
"O2 Klinik",1,0,0,0,5.33826,100.308,"110-1A-25, Summerton Complex
Persiara Bayan Indah
11900, Bayan Lepas
Pulau Pinang","04-371 5028","Pulau Pinang"
"O2 Klinik",1,0,0,0,5.33192,100.276,"29-1-10, Golden Triangle
Jalan Paya Terubong
11900, Bayan Lepas
Pulau Pinang","04-637 1345","Pulau Pinang"
"Klinik Quartermile",1,0,0,0,5.32516,100.285,"2A-G-16, One Prerinct
Solok Mayang Pasir
11350, Bayan Baru
Pulau Pinang","04-637 1979","Pulau Pinang"
"Dx Klinik",1,0,0,0,5.33061,100.276,"29-1-31, Golden Triangle
Jalan Paya Terubong
11900, Bayan Lepas
Pulau Pinang","012-380 6899","Pulau Pinang"
"Klinik Perubatan Tanah Melayu (Jelutong)",1,0,0,0,5.38883,100.318,"1-L1-28
Lintang Hajjah Rehmah
11600, Jelutong
Pulau Pinang","04-283 9493","Pulau Pinang"
"Klinik Permai",1,0,0,0,5.3732,100.299,"163-1-02
Jalan Permai
11700, Glugor
Pulau Pinang","04-653 0259","Pulau Pinang"
"Klinik Medilife",1,0,0,0,5.30367,100.277,"30A, Sunway Prima
Lintang Sungai Tiram 5
11700, Bayan Lepas
Pulau Pinang","04-611 5111","Pulau Pinang"
"Klinik Bersatu 24 Jam",1,0,0,0,5.2872,100.234,"72-1-5
Jalan Teluk Kumbar
11920, Teluk Kumbar
Pulau Pinang","04-649 4525","Pulau Pinang"
"Klinik Harmoni 24 Jam",1,0,0,0,5.48865,100.457,"Pusat Perniagaan Pokok Sena, No 17
Jalan  Pokok Sena
13220, Kepala Batas
Pulau Pinang","016-708 2800","Pulau Pinang"
"Klinik Wawasan (Taman Sutera)",1,0,0,0,5.383,100.407,"Taman Sutera, No 6
Jalan Sutera 3
13700, Prai
Pulau Pinang","04-399 1020","Pulau Pinang"
"Caring Clinic",1,0,0,0,5.42846,100.386,"Taman Tanjung Aman, 10
Lorong Tanjung Aman 2
12300, Butterworth
Pulau Pinang","TIADA","Pulau Pinang"
"Aoklinik",1,0,0,0,5.35018,100.439,"Pusat Perniagaan Limau Emas, 19
Medan Limau Emas
14000, Bukit Mertajam
Pulau Pinang","017-888 9050","Pulau Pinang"
"Medicare Clinic",1,0,0,0,5.42778,100.386,"Villa Tanjung, No 9
Jalan Villa Tanjung
12300, Villa Tanjung
Pulau Pinang","04-320 0606","Pulau Pinang"
"Klink Pergigian A. Marina",1,0,0,0,5.34318,100.228,"858-K, Taman Seri Indah, Mukim 6
Jalan Balik Pulau
11000, Balik Pulau
Pulau Pinang","04-866 2007","Pulau Pinang"
"Lim Keong Peng Dental Surgery",1,0,0,0,5.43227,100.309,"4421-2-2, Pulau Tikus Plaza
Jalan Burma
10350, Pulau Tikus
Pulau Pinang","04-229 4229","Pulau Pinang"
"Tai Dental Surgery",1,0,0,0,5.39217,100.297,"5-02-04, Greenlane Heights
Jalan Gangsa
11600, George Town
Pulau Pinang","04-656 1116","Pulau Pinang"
"Loo Dental Surgery",1,0,0,0,5.41275,100.324,"214
Jalan  Dato Keramat
10150, George Town
Pulau Pinang","04-229 4757","Pulau Pinang"
"Klinik Pergigian Desa Murni",1,0,0,0,5.43883,100.43,"No 5 Tingkat 1, Taman Desa Murni
Jalan Murni 1
13800, Sungai Dua
Pulau Pinang","04-356 9958","Pulau Pinang"
"Klinik Pergigian Pakar Ortodontik Pauh",1,0,0,0,5.37118,100.415,"Taman Pauh Jaya, 22-1
Lorong P/J 1/1
13700, Permatang Pauh
Pulau Pinang","04-399 0222","Pulau Pinang"
"Millenium Care Dental Surgery",1,0,0,0,5.34378,100.437,"No 6 Tingkat 1, Taman Mutiara
Jalan Bayu Mutiara 1
14000, Bukit Mertajam
Pulau Pinang","04-502 5364","Pulau Pinang"
"Klinik Pergigian Teoh",1,0,0,0,5.39081,100.283,"No 16-J Tingkat 1
Lebuhraya Thean Teik
11500, Bandar Baru Ayer Itam
Pulau Pinang","TIADA","Pulau Pinang"
"Klinik Pergigian Kang Min",1,0,0,0,5.38928,100.306,"19G Tingkat 1
Lebuhraya Tbatu Lancang
11600, George Town
Pulau Pinang","04-658 0926","Pulau Pinang"
"Klinik Pergigian Khor",1,0,0,0,5.35002,100.473,"Taman Tampoi Indah, 3213
Jalan Kampung Baru
14000, Bukit Mertajam
Pulau Pinang","016-412 0476","Pulau Pinang"
"Klinik Pergigiant Firdauce",1,0,0,0,5.51694,100.449,"No.39-1, Pusat Bandar Bertam Perdana
Jalan Dagangan 3
13200, Kepala Batas
Pulau Pinang","012-983 6847","Pulau Pinang"
"Klinik Pergigian Union",1,0,0,0,5.32664,100.283,"No. 70-1-24, D'Plaza Mall
Jalan Mahsuri
11900, Bayan Baru
Pulau Pinang","04-638 6011","Pulau Pinang"
"Klinik Pergigian Tay",1,0,0,0,5.3193,100.27,"306 C-2
Jalan Dato' Ismail Hashim
11900, Sungai Ara
Pulau Pinang","04-643 0253","Pulau Pinang"
"Klinik Pergigian Smile",1,0,0,0,5.33182,100.277,"No. 821-H
Jalan Paya Terubong
11900, Bayan Lepas
Pulau Pinang","TIADA","Pulau Pinang"
"Klinik Pergigian Maxcare",1,0,0,0,5.33075,100.279,"31
Jalan Dato' Ismail Hashim
11900, Bayan Lepas
Pulau Pinang","TIADA","Pulau Pinang"
"Klinik Pergigian Smilebay",1,0,0,0,5.45042,100.306,"118-M-06, Island Plaza
Jalan Tanjung Tokong
10470, Tanjong Tokong
Pulau Pinang","04-890 0600","Pulau Pinang"
"Klinik Pergigian Eow (Cawangan)",1,0,0,0,5.28781,100.281,"45-1,47-1
Lintang Batu Maung 2
11960, Bayan Lepas
Pulau Pinang","04-626 6112","Pulau Pinang"
"Klinik Pergigian Yusmin Aznida",1,0,0,0,5.20002,100.498,"Taman Sungai Jawi, No. 35
Jalan Sungai Jawi
14200, Sungai Bakap
Pulau Pinang","04-582 1539","Pulau Pinang"
"Klinik Pergigan Balik Pulau",1,0,0,0,5.33379,100.217,"25 Tingkat 1
Jalan Balik Pulau
11000, Balik Pulau
Pulau Pinang","04-866 1788","Pulau Pinang"
"Klinik Pergigan Ep Teoh",1,0,0,0,5.3209,100.286,"112 -A Tingkat 1, Taman Sri Tunas
Jalan Mayang Pasir
11950, Bayan Baru
Pulau Pinang","04-645 0848","Pulau Pinang"
"Klinik Pergigan Ep Precise",1,0,0,0,5.39747,100.291,"6G-2-3, All Seasons Places
Leburaya Thean Teik
11500, Ayer Itam
Pulau Pinang","04-826 5534","Pulau Pinang"
"Klinik Pergigan Bliss",1,0,0,0,5.31622,100.437,"Taman Seri Delima, 24
Jalan Delima 2
14000, Bukit Mertajam
Pulau Pinang","017-515 5908","Pulau Pinang"
