"Name","Clinic","Hospital","ST","VAC","Latitude","Longitude","Address","Contact","State"
"KKIA Baling",1,0,0,0,5.68086,100.91618,"Lot 851, Lorong Harun Abdullah, Off Jalan Weng
9100, Baling
Kedah","04-4701351","Kedah"
"KKIA Sungai Petani",1,0,0,0,5.64241,100.48786,"81, Jalan Padang
8000, Sungai Petani
Kedah","04-4216357","Kedah"
"KKIA Jitra",1,0,0,0,6.26274,100.42033,"Klinik Kesihatan Ibu Dan Anak Jitra
6000, Jitra
Kedah","04-9171355","Kedah"
"KKIA Kuala Nerang",1,0,0,0,6.25558,100.61333,"Klinik Kesihatan Ibu Dan Anak Kuala Nerang
6300, Kuala Nerang
Kedah","04-7866355 / 04-7860510","Kedah"
"KKIA Sik",1,0,0,0,5.82364,100.74538,"Jalan Tuanku Ibrahim
8200, Sik
Kedah","04-4690617","Kedah"
"KKIA Yan",1,0,0,0,5.78155,100.37149,"Klinik Kesihatan Ibu Dan Anak Yan, Yan Besar
6900, Yan
Kedah","04-4655355","Kedah"
"KKIA Air Putih",1,0,0,0,5.3641,100.21778,"Lot 312, Mk.E, Jkr 2761 (P) Air Putih
11000, Balik Pulau
Pulau Pinang","04-8660287","Pulau Pinang"
"KKIA Sungai Bakap",1,0,0,0,5.21802,100.49796,"Sungai Bakap
14200, Sungai Bakap
Pulau Pinang","04-5824205","Pulau Pinang"
"KKIA Bukit Mertajam",1,0,0,0,5.35989,100.46461,"D 49, Jalan Kulim, 14000 Bukit Mertajam
14000, Bukit Mertajam
Pulau Pinang","04-5382389","Pulau Pinang"
"KKIA Rifle Range",1,0,0,0,5.410481,100.289767,"Unit A-G-18, Flat Padang Tembak Blok A, Rumah Pangsa Rifle Range, Ayer Itam
11500, Georgetown
Pulau Pinang","04-8296355","Pulau Pinang"
"KKIA Taman Tun Sardon",1,0,0,0,5.36931,100.30372,"Unit A-G-9 & A-G-10 Rumah Pangsa Taman Tun Sardon, Gelugor
11700, Georgetown
Pulau Pinang","04-6571592","Pulau Pinang"
"KKIA Tanjong Tokong",1,0,0,0,5.461071,100.306179,"Unit A-G-3 & A-G-4 Rumah Pangsa Tanjong Tokong Uda, Fasa 1 Bandar Tanjung Pinang
10470, Georgetown
Pulau Pinang","04-8993727","Pulau Pinang"
"KKIA Telok Intan",1,0,0,0,4.00117,101.01195,"Jalan Maharajalela
36000, Telok Intan
Perak","05-6221011 / 2033 / 4828","Perak"
"KKIA Gerik",1,0,0,0,5.433767,101.129717,"Batu 1, Jalan Intan
33300, Gerik
Perak","05-7912871","Perak"
"KKIA Parit Buntar",1,0,0,0,5.13002,100.48196,"Jalan Sekolah
34200, Parit Buntar
Perak","05-7162355","Perak"
"KKIA Batu Gajah",1,0,0,0,4.478056,101.035,"Jalan Changkat, Pekan Batu Gajah
31000, Batu Gajah
Perak","05-3661627","Perak"
"KKIA Greentown",1,0,0,0,4.60108,101.08529,"Jalan Dato Onn Jaafar
30300, Ipoh
Perak","05-2539670","Perak"
"KKIA Ulu Kinta",1,0,0,0,4.64872,101.17419,"Pasukan Gerakan Am (Rumah Polis)
31250, Ulu Kinta
Perak","05-5332222","Perak"
"KKIA Pengkalan Pegoh",1,0,0,0,4.536722,101.068702,"Jalan Pasir Puteh, Kg Pengkalan Pegoh, Lahat
31500, Ipoh
Perak","05-3226451","Perak"
"KKIA Simpang Pulai",1,0,0,0,4.529346,101.127584,"Jalan Raja Nazrin, Kg. Kepayang
31300, Ipoh
Perak","05-3575759","Perak"
"KKIA Kuala Kangsar",1,0,0,0,4.773633,100.930617,"D/A Hospital Kuala Kangsar
33000, Kuala Kangsar
Perak","05-7760658","Perak"
"KKIA Taiping",1,0,0,0,4.84921,100.740384,"Jalan Panggung Wayang
34000, Taiping
Perak","05-8083355","Perak"
"KKIA Seri Iskandar",1,0,0,0,4.605121,100.607754,"No. 13A, (Tingkat Bawah), Persiaran Dataran 2, Taman Iskandar Perdana, Bandar Seri Iskandar
32610, Seri Iskandar
Perak","05-3711642","Perak"
"KKIA Cheras Baru",1,0,0,0,3.11213,101.75329,"Jalan 49 Bukit E, Cheras Baru
56100, Cheras
Selangor","03-42975853","Selangor"
"KKIA Kampung Pandan",1,0,0,0,3.14578,101.75059,"Kkia Kampung Pandan, Kuala Lumpur
55100, Kampung Pandan
Selangor","03-92847881","Selangor"
"KKIA Bukit Sentosa",1,0,0,0,3.4159148,101.5781466,"Jalan Seroja, 1A Bukit Sentosa
48000, Rawang
Selangor","03-61040062 / 03-60213210","Selangor"
"KKIA Kuala Kubu Baru",1,0,0,0,3.567873,101.661058,"Jalan Kolam Air, Hulu Selangor
44000, Kuala Kubu Baru
Selangor","03-60641257","Selangor"
"KKIA Jalan Bangsar",1,0,0,0,3.12981,101.67699,"Blok 2, Tingkat Bawah, Flat Sri Pahang, Bukit Bangsar
59000, Kuala Kumpur
Wp Kuala Lumpur","03-22825564","Wp Kuala Lumpur"
"KKIA Pasar Moden Gombak",1,0,0,0,3.217297,101.713298,"Bt. 5, Jln Gombak
53000, Kuala Kumpur
Wp Kuala Lumpur","03-40218030","Wp Kuala Lumpur"
"KKIA Bandar Tun Razak",1,0,0,0,3.0896,101.71366,"Blok 90-00-05, Flat Sri Kota, Bandar Tun Razak
56000, Kuala Kumpur
Wp Kuala Lumpur","03-91717129","Wp Kuala Lumpur"
"KKIA Taman Sri Sentosa",1,0,0,0,3.072354,101.649,"Blok 67-00-01 & 67-00-02, Taman Sri Sentosa
55800, Kuala Kumpur
Wp Kuala Lumpur","03-77814120","Wp Kuala Lumpur"
"KKIA Taman Pantai Indah",1,0,0,0,3.093767,101.669246,"No 7, Jln 2/ 112 F, Taman Pantai Indah, Jln Pantai Dalam, Bangsar
59000, Kuala Kumpur
Wp Kuala Lumpur","03-22825107","Wp Kuala Lumpur"
"KKIA Cheras Makmur",1,0,0,0,3.101951,101.740931,"No 16 & 18 Jln 2/96 A, Taman Cheras Makmur
56100, Kuala Kumpur
Wp Kuala Lumpur","03-91304796","Wp Kuala Lumpur"
"KKIA Koperasi Polis Fasa 2",1,0,0,0,3.221741,101.692272,"Dewan Komuniti Fasa 2, Taman Koperasi, Batu Caves
68100, Kuala Kumpur
Wp Kuala Lumpur","03-61841767","Wp Kuala Lumpur"
"KKIA Alor Gajah",1,0,0,0,2.38204,102.20754,"Alor Gajah
78000, Alor Gajah
Melaka","06-5566235","Melaka"
"KKIA Jalan Abd Samad",1,0,0,0,1.47954,103.74238,"Jalan Abdul Samad, Johor Bharu
81800, Johor Bahru
Johor","07-2224711","Johor"
"KKIA Kluang",1,0,0,0,2.03372,103.31867,"Pt 3782, Jalan Sultanah
86000, Kluang
Johor","07-7721852","Johor"
"KKIA Jalan Tun Habab",1,0,0,0,1.73667,103.89944,"Jalan Tun Habab
81900, Kota Tinggi
Johor","07-8832181","Johor"
"KKIA Kuantan",1,0,0,0,3.80835,103.32566,"Jalan Gambut, Kuantan
25000, Kuantan
Pahang","09-5132055","Pahang"
"KKIA Kuala Lipis",1,0,0,0,4.0134,101.96057,"Kuala Lipis
27200, Kuala Lipis
Pahang","09-3101083","Pahang"
"KKIA Raub",1,0,0,0,3.79541,101.85493,"Raub
27600, Raub
Pahang","09-3552355","Pahang"
"KKIA Muadzam Shah",1,0,0,0,3.05361,103.09028,"Muadzam Shah
26700, Muadzam Shah
Pahang","09-4522780","Pahang"
"KKIA Mentakab",1,0,0,0,3.48152,102.34206,"Mentakab
28400, Mentakab
Pahang","09-2775182","Pahang"
"KKIA Air Jernih",1,0,0,0,5.32811,103.13521,"Jalan Air Jernih, Kuala Terengganu
20300, Kuala Terengganu
Terengganu","09-6203532 / 09-6203533","Terengganu"
"KKIA Beaufort",1,0,0,0,5.35382,115.72967,"Pejabat Kesihatan Kawasan Beaufort, Peti Surat 101
89807, Beaufort
Sabah","087-211182","Sabah"
"KKIA Sipitang",1,0,0,0,5.09669,115.562181,"D/A Pejabat Kesihatan Kawasan Beaufort, Peti Surat 101
89807, Beufort
Sabah","087-730103","Sabah"
"KKIA Beluran",1,0,0,0,5.89278,117.55778,"Klinik Kesihatan Ibu Dan Anak Beluran, Peti Surat 117
90107, Beluran
Sabah","089-511236 / 089-511122","Sabah"
"KKIA Keningau",1,0,0,0,5.34083,116.16,"D/A Pejabat Kesihatan Kawasan Keningau, Peti Surat 94
89007, Keningau
Sabah","087-331204","Sabah"
"KKIA Tambunan",1,0,0,0,5.669498,116.362842,"D/A Pejabat Kesihatan Kawasan Keningau, Peti Surat 94
89007, Tambunan
Sabah","087-774219","Sabah"
"KKIA Tenom",1,0,0,0,5.12519,115.94469,"D/A Pejabat Kesihatan Kawasan Keningau, Peti Surat 94
89007, Tenom
Sabah","087-735355","Sabah"
"KKIA Kota Belud",1,0,0,0,6.34593,116.43156,"D/A Pejabat Kesihatan Kawasan Tuaran, Peti Surat 620
89158, Kota Belud
Sabah","088-976611","Sabah"
"KKIA Jln. Kebajikan, Kota Kinabalu",1,0,0,0,5.958786,116.074043,"D/A Pejabat Kesihatan Kawasan Kota Kinabalu , Lot 21-24 Tkt 2, Blok C, Heritage Plaza, Off Jalan Lintas Luyang
88300, Kota Kinabalu
Sabah","088-726185","Sabah"
"KKIA Papar",1,0,0,0,5.73694,115.9325,"D/A Pejabat Kesihatan Kawasan Kota Kinabalu, Lot 21-24, Tkt 2, Blok C Heritage Plaza
88300, Papar
Sabah","088-913580","Sabah"
"KKIA Pekan",1,0,0,0,5.97994,116.075489,"D/A Pejabat Kesihatan Kawasan Kota Kinabalu, Lot 21-24, Tkt 2, Blok C Heritage Plaza, Off Jalan Lintas Luyang
88300, Kota Kinabalu
Sabah","088-726185 / 088-726309","Sabah"
"KKIA Kota Kinabatangan",1,0,0,0,5.58543,117.85026,"D/A Pejabat Kesihatan Kawasan Kinabatangan, Wdt 40
90200, Kota Kinabatangan
Sabah","089-561975","Sabah"
"KKIA Kota Marudu",1,0,0,0,6.49522,116.75928,"Jalan Lotong, Peti Surat 421
89108, Kudat
Sabah","088-661884","Sabah"
"KKIA Kuala Penyu",1,0,0,0,5.57099,115.59894,"D/A Pejabat Kesihatan Daerah Kuala Penyu
89747, Kuala Penyu
Sabah","087-884333","Sabah"
"KKIA Kudat",1,0,0,0,6.90361,116.84806,"D/A Pejabat Kesihatan Kawasan Kudat, Beg Berkunci 6
89059, Kudat
Sabah","088-611581 / 088-622118","Sabah"
"KKIA Kunak 1",1,0,0,0,4.68675,118.25109,"D/A Pejabat Kesihatan Daerah Kunak, Peti Surat 990, Kunak
91008, Kunak
Sabah","089-851745","Sabah"
"KKIA Kunak 2",1,0,0,0,4.685,118.25036,"D/A Pejabat Kesihatan Daerah Kunak, Peti Surat 6
91008, Kunak
Sabah","089-851745","Sabah"
"KKIA Pitas",1,0,0,0,5.38611,115.69556,"D/A Pejabat Kesihatan Kawasan Kudat, Beg Berkunci No 6
89059, Pitas
Sabah","088-671376","Sabah"
"KKIA Ranau",1,0,0,0,5.954421,116.670411,"D/A Pejabat Kesihatan Kawasan Tuaran, Wdt 10
89200, Ranau
Sabah","088-876088","Sabah"
"KKIA Sandakan",1,0,0,0,5.861485,118.102276,"D/A Pejabat Kesihatan Kawasan Sandakan, Tkt 6, Rumah Persekutuan
90009, Sandakan
Sabah","089-561451","Sabah"
"KKIA Kinabutan",1,0,0,0,4.254927,117.952324,"Pejabat Kesihatan Kawasan Tawau, Tingkat 7, Bangunan Persekutuan, Peti Surat 990
91008, Tawau
Sabah","-","Sabah"
"KKIA Tawau 1",1,0,0,0,4.245715,117.885736,"D/A Pejabat Kesihatan Kawasan Tawau,Peti Surat 990
91008, Tawau
Sabah","089-772526","Sabah"
"KKIA Tuaran",1,0,0,0,6.174257,116.230115,"D/A Pejabat Kesihatan Kawasan Tuaran Wdt 10
89200, Tuaran
Sabah","088-788655","Sabah"
"KKIA Bau",1,0,0,0,1.428673,110.142848,"D/A Peg. Kesihatan Bahagian, Bahagian Kuching, Jalan Tun Ahmad Zaidi Adruce
94000, Bau
Sarawak","082-763711","Sarawak"
"KKIA Betong",1,0,0,0,1.40297,111.53872,"D/A Peg. Kesihatan Bahagian, Bahagian Betong
95700, Betong
Sarawak","083-472821","Sarawak"
"KKIA Kidurong, Bintulu",1,0,0,0,3.234082,113.081621,"D/A Peg. Kesihatan Bahagian, Bahagian Bintulu, Lebuh Raya Abang Galau
97000, Bintulu
Sarawak","086-251599 / 019-8179076","Sarawak"
"KKIA Dalat",1,0,0,0,2.4364356,112.1538839,"Hospital Dalat, Fasa 1
96300, Mukah
Sarawak","084-864269 (ext.210)","Sarawak"
"KKIA Kanowit",1,0,0,0,2.100943,112.151041,"D/A Peg. Kesihatan Daerah Kanowit, Daerah Kanowit
96700, Kanowit
Sarawak","084-752333","Sarawak"
"KKIA Batu Kawa",1,0,0,0,1.514256,110.327157,"Jalan Ensing
93250, Kuching
Sarawak","082-685830","Sarawak"
"KKIA Bintawa",1,0,0,0,1.558059,110.376179,"D/A Peg. Kesihatan Bahagian, Bahagian Kuching, Jalan Tuan Ahmad Zaidi Adruce
93050, Kuching
Sarawak","082-444840","Sarawak"
"KKIA Gita",1,0,0,0,1.562204,110.311554,"Jalan Semarak, Kg. Pinang Jawa, Batu 2 1/2
93050, Kuching
Sarawak","082-240991","Sarawak"
"KKIA Jalan Sekama",1,0,0,0,1.544988,110.36262,"Jalan Sekama
93300, Sekama
Sarawak","082-337093","Sarawak"
"KKIA Jawa",1,0,0,0,1.560588,110.314552,"D/A Peg. Kesihatan Bahagian, Bahagian Kuching, Jalan Tun Ahmad Zaidi Adruce
93400, Kuching
Sarawak","082-240694","Sarawak"
"KKIA Kota Padawan",1,0,0,0,1.422229,110.32898,"Batu 10, Jalan Puncak Borneo
93250, Kuching
Sarawak","082-617687","Sarawak"
"KKIA RCBM",1,0,0,0,1.389034,110.322481,"Km13, Jalan Puncak Borneo
93250, Kuching
Sarawak","082-614494","Sarawak"
"KKIA Limbang",1,0,0,0,1.544781,110.367038,"D/A Peg. Kesihatan Bahagian, Bahagian Limbang, Jalan Pandaruan
98700, Limbang
Sarawak","085-211046 (ext.136)","Sarawak"
"KKIA Lundu",1,0,0,0,1.550192,110.341873,"D/A Peg. Kesihatan Daerah, Daerah Lundu, Jalan Lundu / Sekambal
94500, Lundu
Sarawak","082-735042","Sarawak"
"KKIA Marudi",1,0,0,0,1.55393,110.348724,"Jalan Hospital Marudi,Baram
98050, Marudi
Sarawak","085-755511","Sarawak"
"KKIA Miri",1,0,0,0,4.358393,113.981829,"D/A Peg. Kesihatan Bahagian, Bahagian Miri
98000, Miri
Sarawak","085-436042","Sarawak"
"KKIA Lambir",1,0,0,0,4.351594,113.986604,"D/A Peg. Kesihatan Bahagian, Bahagian Miri
98000, Miri
Sarawak","085-611578","Sarawak"
"KKIA Taman Tunku",1,0,0,0,1.575913,110.331523,"Lot 927(2351), Neighbourhood Shopping Centre, Taman Tunku
98000, Kuching
Sarawak","085-612804","Sarawak"
"KKIA Mukah",1,0,0,0,2.902153,112.077617,"D/A Peg. Kesihatan Bahagian, Bahagian Mukah
96400, Mukah
Sarawak","084-873301","Sarawak"
"KKIA Sebisak",1,0,0,0,1.457768,110.492651,"Tingkat 1, Sublot 396-397, Lot 2071 Dan 539, Jalan Muara Tuang, Taman Suria 1
94300, Kota Samarahan
Sarawak","082-379702","Sarawak"
"KKIA Saratok",1,0,0,0,1.745912,111.341157,"D/A Peg. Kesihatan Daerah Saratok, Daerah Saratok
95400, Saratok
Sarawak","083-436222","Sarawak"
"KKIA Serian",1,0,0,0,1.16785,110.566208,"Jln Bunga Tanjong
94700, Serian
Sarawak","082-876904","Sarawak"
"KKIA Simunjan Bandar",1,0,0,0,1.368505,110.785103,"Jalan Sabun
94800, Simunjan
Sarawak","082-803709","Sarawak"
"KKIA Simunjan Hospital",1,0,0,0,4.536957,101.067164,"Hospital Simunjan, Jalan Gunung Ngeli
94800, Simunjan
Sarawak","082-895435","Sarawak"
