"Name","Clinic","Hospital","ST","VAC","Latitude","Longitude","Address","Contact","State"
"AMC Medical Clinic",0,0,0,1,"2.69262",101.90478,"Seremban","","Negeri Sembilan"
"Auditorium BDA, Wisma BDA",0,0,0,1,"3.2081999",113.0485959,"Bintulu","","Sarawak"
"Auditorium BDA, Wisma Bintulu",0,0,0,1,"3.21315",113.06177,"Bintulu","","Sarawak"
"Austin International Convention Centre - AICC",0,0,0,1,"1.5610537",103.7736871,"Johor Bahru","","Johor"
"Axiata Arena Bukit Jalil",0,0,0,1,"3.0538134",101.691247,"Kuala Lumpur","","W.P. Kuala Lumpur"
"B Braun Medical Industries Sdn Bhd",0,0,0,1,"3.1466205",101.6150604,"Barat Daya","","Pulau Pinang"
"Balai Raya Felda Chiku 5",0,0,0,1,"4.987999",102.202632,"Gua Musang","","Kelantan"
"Balai Raya Sebauh",0,0,0,1,"3.11774",113.26414,"Sebauh","","Sarawak"
"Bangi Avenue Convention Center [BACC]",0,0,0,1,"2.9006795",101.7890557,"Ulu Langat","","Selangor"
"Bangi Convention Centre (BCC), Seksyen 14 BBB",0,0,0,1,"2.9258159",101.7613474,"Ulu Langat","","Selangor"
"Bilik Gerakan JKK Simpang Pelangai",0,0,0,1,"4.1921461",101.9234722,"Lipis","","Pahang"
"Bilik Mesyuarat Eksekutif Perpustakaan Raja Zarith Sofiah UTM",0,0,0,1,"1.5614414",103.6407195,"Johor Bahru","","Johor"
"Bilik Operasi JKKK Nenasi Pantai (Bekas GIATMARA Nenasi)",0,0,0,1,"4.2543939","117.9348812","Pekan","","Pahang"
"Borneo Convention Centre Kuching (BCCK)",0,0,0,1,"1.5626183","110.40560140000001","Kuching","","Sarawak"
"Bukit Beruntung Golf Resort",0,0,0,1,"3.4356508",101.562882,"Ulu Selangor","","Selangor"
"Casuarina Convention Centre",0,0,0,1,"4.67102",101.076663,"Kinta","","Perak"
"Christian Ecumenical Worship Centre",0,0,0,1,"1.52202",110.3442,"Kuching","","Sarawak"
"CIDB Convention Centre",0,0,0,1,"3.1257744",101.7150183,"Kuala Lumpur","","W.P. Kuala Lumpur"
"D'cattleya",0,0,0,1,"2.694524","101.9790452","Seremban","","Negeri Sembilan"
"Desaru Coast Conference Centre (DCCC)",0,0,0,1,"1.5406382",104.2626428,"Kota Tinggi","","Johor"
"Dewan 2020",0,0,0,1,"6.4148",100.1928,"Perlis","","Perlis"
"Dewan ADTEC",0,0,0,1,"3.92767",102.46066,"Jerantut","","Pahang"
"Dewan Al Hana, Kedah",0,0,0,1,"5.82501",100.74729,"Sik","","Kedah"
"Dewan Al- Muktafi Billah Shah UniSZA",0,0,0,1,"5.3997172","103.07816190000001","Kuala Terengganu","","Terengganu"
"Dewan Apam Putra Lubok Jong",0,0,0,1,"6.0073",102.0973,"Pasir Mas","","Kelantan"
"Dewan APMM",0,0,0,1,"5.8884",102.4705,"Pasir Puteh","","Kelantan"
"Dewan Aspirasi UiTM",0,0,0,1,"4.70635",103.44215,"Dungun","","Terengganu"
"Dewan Badminton Kompleks Sukan LADA, Kuah",0,0,0,1,"6.33212",99.8595,"Langkawi","","Kedah"
"Dewan Balai Polis Kabong",0,0,0,1,"1.92124",111.20718,"Saratok","","Sarawak"
"Dewan Balai Polis Kabong, Kabong",0,0,0,1,"1.8797881",111.0861171,"Kabong","","Sarawak"
"Dewan Balai Rakyat Bayan Baru",0,0,0,1,"","","Barat Daya","","Pulau Pinang"
"Dewan Balora Benta, Lipis",0,0,0,1,"4.0143248",101.9644191,"Lipis","","Pahang"
"Dewan Bandar Pasir Mas",0,0,0,1,"6.0436",102.14511,"Pasir Mas","","Kelantan"
"Dewan Bandaran Kampar",0,0,0,1,"4.48717",101.15391,"Kampar","","Perak"
"Dewan Bandaran Kinta, Batu Gajah",0,0,0,1,"4.47572",101.03632,"Kinta","","Perak"
"Dewan Bandaran Kulim",0,0,0,1,"5.3694",100.5586,"Kulim","","Kedah"
"Dewan Bandaran Pengkalan Hulu",0,0,0,1,"5.7016626",100.9924749,"Hulu Perak","","Perak"
"Dewan Bandaran Teluk Intan",0,0,0,1,"4.02295",101.02473,"Hilir Perak","","Perak"
"Dewan Bangunan Latihan KESEDAR",0,0,0,1,"4.8385836",101.9623796,"Gua Musang","","Kelantan"
"Dewan Belia Arena KBBS, Pitas",0,0,0,1,"6.7071865",117.0303367,"Kota Marudu","","Sabah"
"Dewan Besar ADTEC",0,0,0,1,"4.8538",100.7436,"Larut, Matang dan Selama","","Perak"
"Dewan Besar Chee Ann Khor",0,0,0,1,"2.0207032",103.080368,"Batu Pahat","","Johor"
"Dewan Besar Dara Muadzam Shah",0,0,0,1,"3.0629458",103.075214,"Rompin","","Pahang"
"Dewan Besar Felcra Seberang Perak",0,0,0,1,"4.141135",100.7637319,"Perak Tengah","","Perak"
"Dewan Besar Gemas",0,0,0,1,"2.581287",102.5924631,"Tampin","","Negeri Sembilan"
"Dewan Bunga Raya Pantai Seri Tujuh",0,0,0,1,"6.21684",102.12717,"Tumpat","","Kelantan"
"Dewan Bunga Tanjung",0,0,0,1,"2.2649669",102.1956077,"Melaka Tengah","","Melaka"
"Dewan Canseleri Sultan Haji Ahmad Shah, Drb Hicom",0,0,0,1,"3.5307668",103.3864349,"Pekan","","Pahang"
"Dewan Cenderawasih, Pekan Pendang",0,0,0,1,"5.99136",100.47778,"Pendang","","Kedah"
"Dewan Chu Rahimah Jerantut",0,0,0,1,"3.9855121",102.3372294,"Jerantut","","Pahang"
"Dewan CREATE",0,0,0,1,"2.45369",102.20561,"Alor Gajah","","Melaka"
"Dewan CTRM",0,0,0,1,"2.2665126",102.2474934,"Melaka Tengah","","Melaka"
"Dewan Dagang Politeknik Sultan Mizan Zainal Abidin",0,0,0,1,"Lokasi Politeknik","","Dungun","","Terengganu"
"Dewan Dato Bahaman",0,0,0,1,"2.74074",102.24447,"Kuala Pilah","","Negeri Sembilan"
"Dewan Dato' Mohamed Jamrah, Sg Sumun",0,0,0,1,"3.88999",100.85296,"Bagan Datuk","","Perak"
"Dewan Dato Permysuri Permyjaya",0,0,0,1,"4.4575411",114.034896,"Miri","","Sarawak"
"Dewan Dato' Seri Amar Diraja",0,0,0,1,"4.22994",103.42605,"Kemaman","","Terengganu"
"Dewan Datok Zainal Abidin Zin",0,0,0,1,"5.0145614",100.5325956,"Kerian","","Perak"
"Dewan Datu Paduka Mat Salleh PPD",0,0,0,1,"5.5902625",117.8327287,"Kinabatangan","","Sabah"
"Dewan Dinner World",0,0,0,1,"3.2046191",113.0548954,"Bintulu","","Sarawak"
"Dewan D'Sury",0,0,0,1,"2.96743",102.13168,"Jelebu","","Negeri Sembilan"
"Dewan Eastwood Valley",0,0,0,1,"4.3706",114.0172,"Miri","","Sarawak"
"Dewan Felda Kemahang 1",0,0,0,1,"5.8528",102.00661,"Tanah Merah","","Kelantan"
"Dewan Feldajaya Trolak, Sungkai",0,0,0,1,"3.9299874",101.3448959,"Batang Padang","","Perak"
"Dewan Gong Kemuntong",0,0,0,1,"5.73802",102.50855,"Besut","","Terengganu"
"Dewan Hakka",0,0,0,1,"5.8657254",118.0603147,"Sandakan","","Sabah"
"Dewan Hang Tuah",0,0,0,1,"2.20141",102.24791,"Melaka Tengah","","Melaka"
"Dewan IKBN",0,0,0,1,"4.453066",114.0402335,"Miri","","Sarawak"
"Dewan Inderawati , Beruas",0,0,0,1,"4.5025653",100.7795271,"Manjung","","Perak"
"Dewan IPD Kunak, Kunak",0,0,0,1,"4.684741",118.2464795,"Kunak","","Sabah"
"Dewan IPG Balung",0,0,0,1,"4.282457",117.8447492,"Tawau","","Sabah"
"Dewan IPS Telupid",0,0,0,1,"5.6265105",117.1205358,"Kinabatangan","","Sabah"
"Dewan Japerun Ayer Molek",0,0,0,1,"2.2068914",102.3123707,"Melaka Tengah","","Melaka"
"Dewan Japerun Klebang",0,0,0,1,"2.2099213",102.1963876,"Melaka Tengah","","Melaka"
"Dewan Japerun Sg Udang",0,0,0,1,"2.2897737",102.1288136,"Melaka Tengah","","Melaka"
"Dewan JKKK Kampung Sungai Koyan 1",0,0,0,1,"4.2165034",101.7963666,"Raub","","Pahang"
"Dewan Jubli Intan Batu Pahat",0,0,0,1,"1.8485906",102.9325122,"Batu Pahat","","Johor"
"Dewan Jubli Intan Kluang",0,0,0,1,"2.0315",103.3193,"Kluang","","Johor"
"Dewan Jubli Intan Kota Tinggi",0,0,0,1,"1.73618",103.90124,"Kota Tinggi","","Johor"
"Dewan Jubli Intan Mersing",0,0,0,1,"2.4335813","103.8400352","Mersing","","Johor"
"Dewan Jubli Intan Muar",0,0,0,1,"2.0448807",102.5662065,"Muar","","Johor"
"Dewan Jubli Intan Pontian",0,0,0,1,"1.4866",103.38807,"Pontian","","Johor"
"Dewan Jubli Intan Tangkak",0,0,0,1,"2.26774",102.5364,"Tangkak","","Johor"
"Dewan Jubli Perak Raub",0,0,0,1,"3.7937",101.85467,"Raub","","Pahang"
"Dewan Jubli Perak Sultan Ahmad Shah, Kuala Rompin",0,0,0,1,"2.79989",103.47301,"Rompin","","Pahang"
"Dewan Jubli Perak Sultan Haji Ahmad Shah",0,0,0,1,"3.8119798",103.3585315,"Kuantan","","Pahang"
"Dewan Jubli Perak, Jengka",0,0,0,1,"3.77488",102.54695,"Maran","","Pahang"
"Dewan Jubli Perak, Lipis",0,0,0,1,"4.17896",102.05268,"Lipis","","Pahang"
"Dewan Jubli Perak, Maran",0,0,0,1,"3.583215",102.7767484,"Maran","","Pahang"
"Dewan Kampung Gua",0,0,0,1,"1.073937785",111.2926766,"Sri Aman","","Sarawak"
"Dewan KDCA, Penampang",0,0,0,1,"5.9226363",116.0874843,"Kota Kinabalu","","Sabah"
"Dewan Kebudayaan Dan Kesenian Kelantan",0,0,0,1,"6.14394",102.25245,"Kota Bharu","","Kelantan"
"Dewan Kebudayaan Penampang, Penampang",0,0,0,1,"5.9160717",116.1073061,"Penampang","","Sabah"
"Dewan Kejora Bandar Penawar",0,0,0,1,"1.5568833",104.2285191,"Kota Tinggi","","Johor"
"Dewan Kejora Bandar Tenggara",0,0,0,1,"1.8749749",103.6124374,"Kulai","","Johor"
"Dewan Kejora, Pangkor",0,0,0,1,"4.2109129",100.5569043,"Manjung","","Perak"
"Dewan Kemas, Gopeng",0,0,0,1,"4.4870036",101.1514848,"Kampar","","Perak"
"Dewan Kemuning Utama, Seksyen 32, Shah Alam Selatan",0,0,0,1,"3.0064377",101.5204547,"Petaling","","Selangor"
"Dewan Kenangan MPSP(K)",0,0,0,1,"5.6437",100.4871,"Kuala Muda","","Kedah"
"Dewan Kenangan MPSP(K), Kuala Muda",0,0,0,1,"5.6437089",100.4849317,"Kuala Muda","","Kedah"
"Dewan Kenangan Tun Abdul Razak",0,0,0,1,"5.6743",100.9216,"Baling","","Kedah"
"Dewan Kerian Permai",0,0,0,1,"5.11764",100.48183,"Kerian","","Perak"
"Dewan Kesenian Islam Membakut",0,0,0,1,"5.4760026",115.7986504,"Bongawan","","Sabah"
"Dewan Kg Kubambangan Paitan",0,0,0,1,"6.3922017",117.3835047,"Beluran","","Sabah"
"Dewan Kompleks Belia Dan Sukan Teluk Kemang",0,0,0,1,"2.4498",101.8588,"Port Dickson","","Negeri Sembilan"
"Dewan Kompleks Darul Kifayah MAIWP",0,0,0,1,"5.28919",115.26465,"W.P. Labuan","","W.P. Labuan"
"Dewan Kompleks Penghulu Sungai Balang, Muar",0,0,0,1,"1.9074415","102.7390022","Batu Pahat","","Johor"
"Dewan Kompleks Rakan Muda",0,0,0,1,"2.7354823",102.2196179,"Kuala Pilah","","Negeri Sembilan"
"Dewan Kompleks Sukan Majlis Daerah",0,0,0,1,"1.04336",111.8536,"Lubok Antu","","Sarawak"
"Dewan Komuniti Kota Marudu",0,0,0,1,"6.4957238",116.7671397,"Kota Marudu","","Sabah"
"Dewan Komuniti Manggatal",0,0,0,1,"6.023448",116.1209131,"Kota Kinabalu","","Sabah"
"Dewan Komuniti Sadong Jaya",0,0,0,1,"1.51732",110.72632,"Asajaya","","Sarawak"
"Dewan Konvensyen Duyong",0,0,0,1,"5.3389613",103.1301809,"Kuala Terengganu","","Terengganu"
"Dewan Konvensyen Majlis Daerah Bera",0,0,0,1,"3.27279",102.45339,"Bera","","Pahang"
"Dewan Konvesyen Sultan Haji Ahmad Shah",0,0,0,1,"3.49064",103.39026,"Pekan","","Pahang"
"Dewan Kopeladar",0,0,0,1,"6.01475",102.20743,"Tumpat","","Kelantan"
"Dewan LPK, Kelab Sukan Dan Rekreasi Pelabuhan Klang",0,0,0,1,"2.99854","101.39380990000001","Klang","","Selangor"
"Dewan Maharani",0,0,0,1,"2.03725",102.57001,"Muar","","Johor"
"Dewan Mahsuri, Padang Serai, Kulim",0,0,0,1,"5.5077507",100.5413798,"Kulim","","Kedah"
"Dewan Majlis Bandaraya Seremban",0,0,0,1,"2.7052",101.9601,"Seremban","","Negeri Sembilan"
"Dewan Majlis Daerah Bachok",0,0,0,1,"6.05643",102.39934,"Bachok","","Kelantan"
"Dewan Majlis Daerah Jeli",0,0,0,1,"5.69693",101.84564,"Jeli","","Kelantan"
"Dewan Majlis Daerah Ketereh",0,0,0,1,"5.96041",102.25185,"Kota Bharu","","Kelantan"
"Dewan Majlis Daerah Pasir Puteh",0,0,0,1,"5.8368448",102.4022118,"Pasir Puteh","","Kelantan"
"Dewan Majlis Pembandaran Jasin Sri Umbai",0,0,0,1,"3.2308",103.3013,"Jasin","","Melaka"
"Dewan Majlis Perbandaran Bentong",0,0,0,1,"3.52019",101.91348,"Bentong","","Pahang"
"Dewan Majlis Perbandaran Jempol",0,0,0,1,"2.8976102",102.4002233,"Jempol","","Negeri Sembilan"
"Dewan Majlis Perbandaran Kuala Kangsar (MPKK), Sungai Siput",0,0,0,1,"4.8134826",101.0824299,"Kuala Kangsar","","Perak"
"Dewan Manik Urai",0,0,0,1,"5.38799",102.23372,"Kuala Krai","","Kelantan"
"Dewan Masyarakat Bekenu",0,0,0,1,"4.0585895",113.8441897,"Miri","","Sarawak"
"Dewan Masyarakat Belawai",0,0,0,1,"2.23059",111.21591,"Tanjung Manis","","Sarawak"
"Dewan Masyarakat Beluru",0,0,0,1,"3.9760403",114.0981205,"Miri","","Sarawak"
"Dewan Masyarakat Daro",0,0,0,1,"2.51408",111.42906,"Daro","","Sarawak"
"Dewan Masyarakat Gedong / Perpustakaan Desa Gedong",0,0,0,1,"1.240536",110.692067,"Simunjan","","Sarawak"
"Dewan Masyarakat Julau",0,0,0,1,"2.01851",111.91336,"Julau","","Sarawak"
"Dewan Masyarakat Kalok, Pusa",0,0,0,1,"1.62073",111.32355,"Betong","","Sarawak"
"Dewan Masyarakat Keningau",0,0,0,1,"5.3713247",116.143417,"Keningau","","Sabah"
"Dewan Masyarakat Kpg Long Tuma",0,0,0,1,"4.80295",115.40893,"Lawas","","Sarawak"
"Dewan Masyarakat Kpg Sualai",0,0,0,1,"4.8757872",115.3535874,"Lawas","","Sarawak"
"Dewan Masyarakat Marudi",0,0,0,1,"3.764",114.40678,"Marudi","","Sarawak"
"Dewan Masyarakat Medamit",0,0,0,1,"4.4692003",114.9032562,"Limbang","","Sarawak"
"Dewan Masyarakat Meradong",0,0,0,1,"2.16648",111.63654,"Sarikei","","Sarawak"
"Dewan Masyarakat Pakan",0,0,0,1,"2.16648",111.63654,"Pakan","","Sarawak"
"Dewan Masyarakat Papar, Papar",0,0,0,1,"5.7312049",115.9321127,"Papar","","Sabah"
"Dewan Masyarakat Pekan Bongawan",0,0,0,1,"5.5407533",115.8529978,"Beluran","","Sabah"
"Dewan Masyarakat Pekan Ranau",0,0,0,1,"5.9508916",116.6617133,"Ranau","","Sabah"
"Dewan Masyarakat Sandakan",0,0,0,1,"5.8375",118.1119,"Sandakan","","Sabah"
"Dewan Masyarakat Semporna, Semporna",0,0,0,1,"4.4778793",118.6108205,"Semporna","","Sabah"
"Dewan Masyarakat Sepupok Niah",0,0,0,1,"3.80424",113.75171,"Miri","","Sarawak"
"Dewan Masyarakat Serian",0,0,0,1,"1.1656",110.5677,"Serian","","Sarawak"
"Dewan Masyarakat Siburan",0,0,0,1,"1.28896",110.40441,"Serian","","Sarawak"
"Dewan Masyarakat Sook",0,0,0,1,"5.1467296",116.3019641,"Keningau","","Sabah"
"Dewan Masyarakat Sri Kunak",0,0,0,1,"4.684741",118.2453851,"Kunak","","Sabah"
"Dewan Masyarakat Sundar",0,0,0,1,"4.89472",115.211603,"Lawas","","Sarawak"
"Dewan Masyarakat Sungai Asap",0,0,0,1,"3.03199",113.92273,"Belaga","","Sarawak"
"Dewan Masyarakat Tawau",0,0,0,1,"4.2462",117.8841,"Tawau","","Sabah"
"Dewan Masyarakat Tawau, Tawau",0,0,0,1,"4.2461775",117.881925,"Tawau","","Sabah"
"Dewan Masyarakat Tebedu",0,0,0,1,"1.01557",110.35524,"Serian","","Sarawak"
"Dewan Masyarakat Trusan",0,0,0,1,"4.7855739",115.2737545,"Lawas","","Sarawak"
"Dewan MBMB Taman Bertam Jaya",0,0,0,1,"2.27879",102.21457,"Melaka Tengah","","Melaka"
"Dewan MDB Kupang, Baling",0,0,0,1,"5.6758612",100.913944,"Baling","","Kedah"
"Dewan MDHT Kuala Berang",0,0,0,1,"5.0721",103.00892,"Hulu Terengganu","","Terengganu"
"Dewan Meranti 2, Seksyen U20 Bandar Baru Sg. Buloh, Shah Alam Utara",0,0,0,1,"","","Petaling","","Selangor"
"Dewan Merdeka Lenggong",0,0,0,1,"5.108257",100.9656027,"Hulu Perak","","Perak"
"Dewan Merdeka Tapah",0,0,0,1,"4.1976",101.25646,"Batang Padang","","Perak"
"Dewan Mesra Simunjan",0,0,0,1,"1.396017",110.7485703,"Simunjan","","Sarawak"
"Dewan Milenium Kepala Batas",0,0,0,1,"5.5156",100.4382,"Seberang Perai Utara","","Pulau Pinang"
"Dewan Millenium Lubok Merbau",0,0,0,1,"4.78544",100.89805,"Kuala Kangsar","","Perak"
"Dewan Mini Putrajaya Sabah",0,0,0,1,"6.0290243",116.1169203,"Kota Kinabalu","","Sabah"
"Dewan Mini Tambunan",0,0,0,1,"5.6690037",116.3627984,"Tambunan","","Sabah"
"Dewan MMU",0,0,0,1,"2.2505609",102.2745017,"Melaka Tengah","","Melaka"
"Dewan MPHTJ Bukit Beruang",0,0,0,1,"2.2431938",102.2701537,"Melaka Tengah","","Melaka"
"Dewan MPJ Alamanda Jasin",0,0,0,1,"2.3161",102.4328,"Jasin","","Melaka"
"Dewan MPJ Hj. Ahmad Ithnin Merlimau",0,0,0,1,"2.18123",102.4266,"Jasin","","Melaka"
"Dewan MPSJ, Puchong Indah",0,0,0,1,"3.0125816",101.6036124,"Petaling","","Selangor"
"Dewan MPSP(K) Taman Gurun Jaya",0,0,0,1,"5.8168665",100.4714387,"Kuala Muda","","Kedah"
"Dewan Mpt Dato Bahaman Lanchang",0,0,0,1,"3.45093",102.4188,"Temerloh","","Pahang"
"Dewan MPT Dato' Zaharuddin Abu Kassim Simpang Peragap, Temerloh",0,0,0,1,"3.5467616",102.3957801,"Temerloh","","Pahang"
"Dewan Muafakat Johor Taman Adda",0,0,0,1,"1.5505",103.7439,"Johor Bahru","","Johor"
"Dewan Muafakat Johor, Bandar Baru Bukit Gambir",0,0,0,1,"2.21606",102.6510982,"Tangkak","","Johor"
"Dewan Mutiara, Kolej Matrikulasi Labuan",0,0,0,1,"5.3584495",115.2245659,"W.P. Labuan","","W.P. Labuan"
"Dewan Orang Ramai Jerek",0,0,0,1,"5.81125",101.98151,"Gua Musang","","Kelantan"
"Dewan Orang Ramai Kampung Mela",0,0,0,1,"4.07486",102.27072,"Lipis","","Pahang"
"Dewan Orang Ramai Parit Raja, Batu Pahat",0,0,0,1,"1.8668287",103.1103091,"Batu Pahat","","Johor"
"Dewan Orang Ramai Relong, Padang Tengku",0,0,0,1,"4.2325365",101.9815182,"Lipis","","Pahang"
"Dewan Orang Ramai Sendayan",0,0,0,1,"2.6744256",101.8419548,"Seremban","","Negeri Sembilan"
"Dewan Orang Ramai Simpang Renggam",0,0,0,1,"1.8274615",103.2733413,"Kluang","","Johor"
"Dewan Orang Ramai Taman Bukit Mewah Kajang",0,0,0,1,"2.9802032",101.8013886,"Ulu Langat","","Selangor"
"Dewan Org Ramai Sikamat",0,0,0,1,"2.74441",101.96081,"Seremban","","Negeri Sembilan"
"Dewan Pak Musa",0,0,0,1,"5.3446117",115.7446059,"Beaufort","","Sabah"
"Dewan Panglima Rentap",0,0,0,1,"1.4127",111.5309,"Betong","","Sarawak"
"Dewan Pejabat Daerah Jempol",0,0,0,1,"2.8966",102.4055,"Jempol","","Negeri Sembilan"
"Dewan Pejabat Daerah Kanowit",0,0,0,1,"2.10129",112.15143,"Kanowit","","Sarawak"
"Dewan Pejabat Daerah Kecil Matunggong, Kudat",0,0,0,1,"6.7525381",116.7176458,"Kudat","","Sabah"
"Dewan Pembangunan Sebuyau",0,0,0,1,"1.5201761",110.9335044,"Samarahan","","Sarawak"
"DEWAN PERDA CONVENTION CENTRE",0,0,0,1,"5.4183",100.3049,"Seberang Perai Utara","","Pulau Pinang"
"Dewan Perdana",0,0,0,1,"5.021763",118.286614,"Lahad Datu","","Sabah"
"Dewan Perdana Akademi Bomba Bau",0,0,0,1,"1.40579",110.13424,"Bau","","Sarawak"
"Dewan Perdana Tampin",0,0,0,1,"2.47061",102.2263,"Tampin","","Negeri Sembilan"
"Dewan Perhimpunan Cina, Bentong",0,0,0,1,"3.5238914",101.9040737,"Bentong","","Pahang"
"Dewan Perpaduan Machang",0,0,0,1,"5.7631423",102.2124053,"Machang","","Kelantan"
"Dewan Persatuan Bisaya Limbang",0,0,0,1,"4.776644",115.003519,"Limbang","","Sarawak"
"Dewan Profesional UITM",0,0,0,1,"5.76056",102.27461,"Machang","","Kelantan"
"Dewan Puncak Arabella",0,0,0,1,"4.46414",101.38481,"Cameron Highlands","","Pahang"
"Dewan Pusat Islam Rantau",0,0,0,1,"2.5952011",101.9545663,"Seremban","","Negeri Sembilan"
"Dewan Pusat Latihan Anti Dadah Kebangsaan (PLAK)",0,0,0,1,"5.6260073",100.5305213,"Sungai Petani","","Kedah"
"Dewan Pusat Pentadbiran Kerajaan Persekutuan",0,0,0,1,"6.02873",116.11852,"Kota Kinabalu","","Sabah"
"Dewan Putra SBJ",0,0,0,1,"6.11529",102.21153,"Tumpat","","Kelantan"
"Dewan Raya Bandar Putra",0,0,0,1,"1.6538",103.6262,"Kulai","","Johor"
"Dewan Raya Bandar Seri Alam, Masai",0,0,0,1,"1.51294",103.86516,"Johor Bahru","","Johor"
"Dewan Raya Taman Universiti",0,0,0,1,"1.54103",103.63345,"Johor Bahru","","Johor"
"Dewan Rumpun Seri, Kolej Multimedia (Utara), Kompleks Telekom, Taiping",0,0,0,1,"4.8687298",100.7516063,"Larut, Matang dan Selama","","Perak"
"Dewan Rumpun Seri, Kompleks Telekom, Taiping",0,0,0,1,"4.8687494","100.75384430000001","Larut, Matang dan Selama","","Perak"
"Dewan Sains@Bertam Jalan Bertam 2",0,0,0,1,"","","Seberang Perai Utara","","Pulau Pinang"
"Dewan Samad Gul Pusat Tarbiyah Pas Rantau Panjang",0,0,0,1,"5.9996106",102.065074,"Pasir Mas","","Kelantan"
"Dewan Sekolah Menengah Karak Setia",0,0,0,1,"3.4274832",102.0518139,"Bentong","","Pahang"
"Dewan Sekolah Menengah Tengku Ampuan Afzan, Chenor",0,0,0,1,"3.4840895",102.5707411,"Maran","","Pahang"
"Dewan Semai Bakti Desa Kencana",0,0,0,1,"5.078786",119.0652878,"Lahad Datu","","Sabah"
"Dewan Semai Bakti Felda Chini 1",0,0,0,1,"3.3741379",102.9343438,"Pekan","","Pahang"
"Dewan Semai Bakti Felda Sebertak",0,0,0,1,"3.2556701",102.5999262,"Bera","","Pahang"
"Dewan Semai Bakti Felda Soeharto",0,0,0,1,"3.6764",101.3935,"Ulu Selangor","","Selangor"
"Dewan Semai Bakti Felda Tersang 3",0,0,0,1,"4.0807208",101.7962459,"Raub","","Pahang"
"Dewan Serbaguna Beluran",0,0,0,1,"5.8961361",117.5568196,"Beluran","","Sabah"
"Dewan Serbaguna Dabong",0,0,0,1,"5.37686",102.0098,"Kuala Krai","","Kelantan"
"Dewan Serbaguna Engkelili",0,0,0,1,"1.136179",111.667415,"Lubok Antu","","Sarawak"
"Dewan Serbaguna Engkilili",0,0,0,1,"1.13618",111.66742,"Lubok Antu","","Sarawak"
"Dewan Serbaguna Felda Kemasul, Chemomoi",0,0,0,1,"3.2829319",102.2253746,"Bentong","","Pahang"
"Dewan Serbaguna Gerik",0,0,0,1,"5.42771",101.12482,"Hulu Perak","","Perak"
"Dewan Serbaguna Guar Chempedak",0,0,0,1,"5.85271",100.46125,"Yan","","Kedah"
"Dewan Serbaguna Jalan Genuang",0,0,0,1,"2.49456",102.84761,"Segamat","","Johor"
"Dewan Serbaguna Jawi",0,0,0,1,"5.1991",100.4927,"Seberang Perai Selatan","","Pulau Pinang"
"Dewan Serbaguna Kementerian Dalam Negeri, Anak Bukit",0,0,0,1,"6.1855211",100.3743905,"Kota Setar","","Kedah"
"Dewan Serbaguna Lamag",0,0,0,1,"4.9493267",118.1872757,"Lahad Datu","","Sabah"
"Dewan Serbaguna Libaran",0,0,0,1,"5.9058806",118.0533981,"Sandakan","","Sabah"
"Dewan Serbaguna Majlis Daerah Nabawan",0,0,0,1,"5.0420605",116.4333973,"Nabawan","","Sabah"
"Dewan Serbaguna Majlis Daerah Selama Permai 2",0,0,0,1,"4.7250375",100.7147065,"Larut, Matang dan Selama","","Perak"
"Dewan Serbaguna Padang Tengku",0,0,0,1,"4.23509",101.99398,"Lipis","","Pahang"
"Dewan Serbaguna Pagoh",0,0,0,1,"2.1535791",102.7762302,"Muar","","Johor"
"Dewan Serbaguna Perumahan Penjawat Awam Lumut Kiri",0,0,0,1,"4.2262",100.6733,"Manjung","","Perak"
"Dewan Serbaguna Pusat Latihan Sawit M'sia (PLASMA) MPOB",0,0,0,1,"2.7854425",102.921647,"Lahad Datu","","Sabah"
"Dewan Serbaguna RPS Merapoh",0,0,0,1,"4.6924074",102.0011882,"Lipis","","Pahang"
"Dewan Serbaguna Selangau",0,0,0,1,"2.53176",112.32785,"Selangau","","Sarawak"
"Dewan Serbaguna Seri Iskandar",0,0,0,1,"4.36547",100.95566,"Perak Tengah","","Perak"
"Dewan Serbaguna Sg Tarom",0,0,0,1,"5.5178",102.7644,"Setiu","","Terengganu"
"DEWAN SERBAGUNA SG. BAKAP",0,0,0,1,"5.4183",100.3049,"Seberang Perai Selatan","","Pulau Pinang"
"Dewan Serbaguna Sibu Jaya",0,0,0,1,"2.24517",111.95911,"Sibu","","Sarawak"
"Dewan Serbaguna Sipitang",0,0,0,1,"5.0803277",115.547628,"Sipitang","","Sabah"
"Dewan Serbaguna Taman Yayasan",0,0,0,1,"2.560017",102.7938983,"Segamat","","Johor"
"Dewan Serbaguna Tambisan",0,0,0,1,"5.449404",119.1474473,"Lahad Datu","","Sabah"
"Dewan Seri Bernam Sg Besar",0,0,0,1,"3.677",100.9917,"Sabak Bernam","","Selangor"
"Dewan Seri Melati, Perlis",0,0,0,1,"6.5152961",100.2364299,"Perlis","","Perlis"
"Dewan Seri Rembau",0,0,0,1,"2.59179",102.09914,"Rembau","","Negeri Sembilan"
"Dewan Sivik Ajil",0,0,0,1,"5.0860012",103.0881124,"Hulu Terengganu","","Terengganu"
"Dewan Sivik Bukit Payong",0,0,0,1,"5.2350597",103.1002088,"Kuala Terengganu","","Terengganu"
"Dewan Sivik Kertih",0,0,0,1,"4.5123031",103.445309,"Kemaman","","Terengganu"
"Dewan Sivik MBPJ",0,0,0,1,"3.097014",101.6431866,"Petaling","","Selangor"
"Dewan SJK China, Kemayan",0,0,0,1,"3.1362257",102.3672366,"Bera","","Pahang"
"Dewan SJKC Telemong",0,0,0,1,"3.2931598",102.086293,"Bentong","","Pahang"
"Dewan Sk Kalabakan",0,0,0,1,"4.4000301",117.4940881,"Tawau","","Sabah"
"Dewan SK Merotai",0,0,0,1,"4.4193927",117.771906,"Tawau","","Sabah"
"Dewan SK Ulu Tembeling",0,0,0,1,"4.497855",102.6456394,"Jerantut","","Pahang"
"Dewan Sri Antanom, Tenom",0,0,0,1,"5.1246352",115.9415571,"Tenom","","Sabah"
"Dewan Sri Balleh",0,0,0,1,"2.0143",112.9494,"Kapit","","Sarawak"
"Dewan Sri Kenyalang UPM",0,0,0,1,"3.2074",113.09,"Bintulu","","Sarawak"
"Dewan Sri Krian",0,0,0,1,"1.73893",111.33682,"Saratok","","Sarawak"
"Dewan Sri Mas, Polimas Jitra",0,0,0,1,"6.24983",100.43215,"Kubang Pasu","","Kedah"
"Dewan Sri Pantu",0,0,0,1,"1.1406618",111.1158002,"Sri Aman","","Sarawak"
"Dewan Sri Putatan, Putatan",0,0,0,1,"5.895831",116.036745,"Putatan","","Sabah"
"Dewan Sri Renjuna",0,0,0,1,"6.19874",102.17071,"Tumpat","","Kelantan"
"Dewan Sri Seroja",0,0,0,1,"2.9441",101.7243,"W.P. Putrajaya","","W.P. Putrajaya"
"Dewan Sri Sulaman",0,0,0,1,"6.1756",116.23242,"Tuaran","","Sabah"
"Dewan Sri Tunjung, Jabatan Pendidikan Negeri Kelantan",0,0,0,1,"6.0631",102.2376,"Kota Bharu","","Kelantan"
"Dewan Suarah Kota Samarahan",0,0,0,1,"1.463",110.4987,"Samarahan","","Sarawak"
"Dewan Suarah Limbang",0,0,0,1,"4.7595",115.0133,"Limbang","","Sarawak"
"Dewan Suarah Lundu",0,0,0,1,"1.67903",109.85224,"Lundu","","Sarawak"
"Dewan Suarah Matu",0,0,0,1,"2.13206",111.52224,"Matu","","Sarawak"
"Dewan Suarah Mukah",0,0,0,1,"2.8988",112.092,"Mukah","","Sarawak"
"Dewan Suarah Sarikei",0,0,0,1,"2.1321",111.5222,"Sarikei","","Sarawak"
"Dewan Suarah Sibu",0,0,0,1,"2.3108",111.8316,"Sibu","","Sarawak"
"Dewan Suarah Sri Aman",0,0,0,1,"1.2410579",111.4553876,"Sri Aman","","Sarawak"
"Dewan Sukan Tatau",0,0,0,1,"2.8809",112.85079,"Tatau","","Sarawak"
"Dewan Sultan Ibrahim UTHM",0,0,0,1,"1.857603",103.0805996,"Batu Pahat","","Johor"
"Dewan Syifa, Padang Mat Sirat",0,0,0,1,"6.3453647",99.7301015,"Langkawi","","Kedah"
"Dewan Taman Mawar",0,0,0,1,"1.4726559",103.8934219,"Johor Bahru","","Johor"
"Dewan Taman Nusantara",0,0,0,1,"1.4671034",103.5779589,"Johor Bahru","","Johor"
"Dewan Taman Sri Guchil",0,0,0,1,"5.54223",102.20544,"Kuala Krai","","Kelantan"
"Dewan Taming Sari, UiTM Lendu",0,0,0,1,"2.36312",102.184061,"Alor Gajah","","Melaka"
"Dewan Tan Sri Ghazali Jawi",0,0,0,1,"3.83739",101.39775,"Muallim","","Perak"
"Dewan Teknologi Abdul Aziz IKM",0,0,0,1,"3.535268",103.3815498,"Pekan","","Pahang"
"Dewan Terbuka Long Lama",0,0,0,1,"3.76408",114.40726,"Telang Usan","","Sarawak"
"Dewan Tuanku Canselor UMK Bachok",0,0,0,1,"5.99824",102.40188,"Bachok","","Kelantan"
"Dewan Tun Ali",0,0,0,1,"2.2308",102.3013,"Melaka Tengah","","Melaka"
"Dewan Tun Dr Ling Liong Sik, Universiti Tun Abdul Rahman, Kampar",0,0,0,1,"4.3403021",101.1355164,"Kampar","","Perak"
"Dewan Tun Mustapa",0,0,0,1,"6.8831917",116.847499,"Kudat","","Sabah"
"Dewan Tun Razak, Temerloh",0,0,0,1,"3.4492468",102.4163542,"Temerloh","","Pahang"
"Dewan Tun Said, Kota Belud",0,0,0,1,"6.3537178",116.4290955,"Kota Belud","","Sabah"
"Dewan Tunku Anum",0,0,0,1,"6.2992",100.4218,"Kubang Pasu","","Kedah"
"Dewan Tunku Ibrahim Ismail, Pekan Nanas",0,0,0,1,"1.5091233",103.5082684,"Pontian","","Johor"
"Dewan Tunku Putra, Kuala Nerang",0,0,0,1,"6.2571",100.61357,"Padang Terap","","Kedah"
"Dewan UITM Raub",0,0,0,1,"3.7646692",101.8596597,"Raub","","Pahang"
"Dewan Umno Pekan Tajau",0,0,0,1,"3.5564981",102.6874703,"Maran","","Pahang"
"Dewan Utama Majlis Daerah Marang",0,0,0,1,"5.2097",103.2007,"Marang","","Terengganu"
"Dewan Utama Pelajar (Dewan Peperiksaan), Jalan Bukit Gambir, USM Gelugor",0,0,0,1,"5.3563131",100.2944155,"Timur Laut","","Pulau Pinang"
"Dewan Warisan, Perlis",0,0,0,1,"6.4401103",100.1858979,"Perlis","","Perlis"
"Dewan Wisma Wanita, Sabah",0,0,0,1,"5.9763278",116.0862722,"Kota Kinabalu","","Sabah"
"Dewan Yayasan Kemiskinan Kelantan",0,0,0,1,"5.99958",102.28966,"Kota Bharu","","Kelantan"
"DTempat",0,0,0,1,"3.646018774",103.4893502,"Seremban","","Negeri Sembilan"
"Encore Melaka",0,0,0,1,"2.1909891",102.219906,"Melaka Tengah","","Melaka"
"Eng Kwang Methodist Multipurpose Hall",0,0,0,1,"3.1920755",113.0425276,"Bintulu","","Sarawak"
"Equatorial Hotel Penang",0,0,0,1,"","","Barat Daya","","Pulau Pinang"
"Federation Of Johore Furniture Manufacturers And Traders Association (MFA)",0,0,0,1,"2.0488336","102.58555620000001","Muar","","Johor"
"Flextronics",0,0,0,1,"5.351255",100.4159419,"Seberang Perai Tengah","","Pulau Pinang"
"Galaxy Mall, Ampang",0,0,0,1,"3.1471156",101.7536844,"Hulu Langat","","Selangor"
"Hospital  Raja Permaisuri Bainun",0,0,0,1,"4.6039191","101.0901656","Kinta","","Perak"
"Hospital Alor Gajah",0,0,0,1,"2.3954442","102.2020059","Alor Gajah","","Melaka"
"Hospital Ampang",0,0,0,1,"3.1282107","101.7640303","Ulu Langat","","Selangor"
"Hospital Bahagia Ulu Kinta",0,0,0,1,"4.675619","101.15074720000001","Kinta","","Perak"
"Hospital Balik Pulau",0,0,0,1,"5.3502289","100.2331295","Barat Daya","","Pulau Pinang"
"Hospital Baling",0,0,0,1,"5.6777182","100.92581650000001","Baling","","Kedah"
"Hospital Banting",0,0,0,1,"2.8028617","101.49382790000001","Kuala Langat","","Selangor"
"Hospital Batu Gajah",0,0,0,1,"4.4794184","101.0350183","Kinta","","Perak"
"Hospital Bau",0,0,0,1,"1.4295005","110.1426433","Bau","","Sarawak"
"Hospital Beaufort",0,0,0,1,"5.3514137","115.74099190000001","Beaufort","","Sabah"
"Hospital Beluran",0,0,0,1,"5.8934947","117.5554309","Beluran","","Sabah"
"Hospital Bentong",0,0,0,1,"3.52623",101.90576,"Bentong","","Pahang"
"Hospital Besut",0,0,0,1,"5.7296503","102.4925699","Besut","","Terengganu"
"Hospital Betong",0,0,0,1,"1.3739821","111.5737668","Betong","","Sarawak"
"Hospital Bintulu",0,0,0,1,"3.2296957","113.1010301","Bintulu","","Sarawak"
"Hospital Bukit Mertajam",0,0,0,1,"5.3593459","100.46406560000001","Seberang Perai Tengah","","Pulau Pinang"
"Hospital Changkat Melintang",0,0,0,1,"4.312958","100.91049100000001","Perak Tengah","","Perak"
"Hospital Daro",0,0,0,1,"2.5218077","111.41316690000001","Daro","","Sarawak"
"Hospital Duchess Of Kent",0,0,0,1,"5.8589537","118.10295590000001","Sandakan","","Sabah"
"Hospital Dungun",0,0,0,1,"4.7518763","103.41483170000001","Dungun","","Terengganu"
"Hospital Enche' Besar Hajjah Khalsom",0,0,0,1,"2.0081238","103.34709450000001","Kluang","","Johor"
"Hospital Gerik",0,0,0,1,"5.4290267","101.12792160000001","Hulu Perak","","Perak"
"Hospital Gua Musang",0,0,0,1,"4.8594875","101.9546244","Gua Musang","","Kelantan"
"Hospital Hulu Terengganu",0,0,0,1,"5.0732163","103.0447747","Hulu Terengganu","","Terengganu"
"Hospital Jasin",0,0,0,1,"2.3048477","102.42960520000001","Alor Gajah","","Melaka"
"Hospital Jelebu",0,0,0,1,"","","Jelebu","","Negeri Sembilan"
"Hospital Jeli",0,0,0,1,"5.7012901","101.84430110000001","Jeli","","Kelantan"
"Hospital Jempol",0,0,0,1,"2.9032324","102.4069305","Jempol","","Negeri Sembilan"
"Hospital Jengka",0,0,0,1,"3.7731272","102.55170650000001","Maran","","Pahang"
"Hospital Jerantut",0,0,0,1,"3.9293159","102.36017030000001","Jerantut","","Pahang"
"Hospital Jitra",0,0,0,1,"6.2787858","100.4190655","Kubang Pasu","","Kedah"
"Hospital Kajang",0,0,0,1,"2.992875","101.79284580000001","Ulu Langat","","Selangor"
"Hospital Kampar",0,0,0,1,"4.3118993","101.1563613","Kampar","","Perak"
"Hospital Kanowit",0,0,0,1,"2.1027581","112.15231390000001","Kanowit","","Sarawak"
"Hospital Kapit",0,0,0,1,"2.0138652","112.9426557","Kapit","","Sarawak"
"Hospital Kemaman",0,0,0,1,"4.232613","103.42105740000001","Kemaman","","Terengganu"
"Hospital Keningau",0,0,0,1,"5.3701277","116.1819528","Keningau","","Sabah"
"Hospital Kinabatangan",0,0,0,1,"5.584963","117.85041790000001","Kinabatangan","","Sabah"
"Hospital Kota Belud",0,0,0,1,"6.3449445","116.42697930000001","Kota Belud","","Sabah"
"Hospital Kota Marudu",0,0,0,1,"6.4573691","116.7760207","Kota Marudu","","Sabah"
"Hospital Kota Tinggi",0,0,0,1,"1.7349832","103.8994971","Kota Tinggi","","Johor"
"Hospital Kuala Kangsar",0,0,0,1,"4.7730658","100.9319681","Kuala Kangsar","","Perak"
"Hospital Kuala Kubu Bharu",0,0,0,1,"3.5642346","101.65307370000001","Ulu Selangor","","Selangor"
"Hospital Kuala Lipis",0,0,0,1,"4.1826046","102.0556135","Lipis","","Pahang"
"Hospital Kuala Lumpur",0,0,0,1,"3.1719188","101.70124990000001","Kuala Lumpur","","W.P. Kuala Lumpur"
"Hospital Kuala Nerang",0,0,0,1,"6.25263","100.60977150000001","Padang Terap","","Kedah"
"Hospital Kuala Penyu",0,0,0,1,"5.5602788","115.5855573","Kuala Penyu","","Sabah"
"Hospital Kudat",0,0,0,1,"6.9066627","116.83794270000001","Kudat","","Sabah"
"Hospital Kulim",0,0,0,1,"5.3931314","100.57303630000001","Kulim","","Kedah"
"Hospital Kunak",0,0,0,1,"4.6771175","118.2322991","Kunak","","Sabah"
"Hospital Labuan",0,0,0,1,"5.311145","115.23001780000001","W.P. Labuan","","W.P. Labuan"
"Hospital Lahad Datu",0,0,0,1,"5.0266887","118.3136736","Lahad Datu","","Sabah"
"Hospital Langkawi",0,0,0,1,"6.3247688","99.79844150000001","Langkawi","","Kedah"
"Hospital Lawas",0,0,0,1,"4.8543947","115.40459080000001","Lawas","","Sarawak"
"Hospital Limbang",0,0,0,1,"4.7642525","115.01903680000001","Limbang","","Sarawak"
"Hospital Lipis",0,0,0,1,"4.18254",102.0552,"Lipis","","Pahang"
"Hospital Lundu",0,0,0,1,"1.6755934","109.85282020000001","Lundu","","Sarawak"
"Hospital Machang",0,0,0,1,"5.7631889","102.22582990000001","Machang","","Kelantan"
"Hospital Marudi",0,0,0,1,"4.1784081","114.3253545","Marudi","","Sarawak"
"Hospital Melaka",0,0,0,1,"2.2172348","102.261335","Melaka Tengah","","Melaka"
"Hospital Mersing",0,0,0,1,"2.429453","103.8453956","Mersing","","Johor"
"Hospital Mesra Bukit Padang",0,0,0,1,"5.9501784","116.1051903","Kota Kinabalu","","Sabah"
"Hospital Miri",0,0,0,1,"4.3743537","113.99981240000001","Miri","","Sarawak"
"Hospital Muadzam Shah",0,0,0,1,"3.0537991","103.0909161","Rompin","","Pahang"
"Hospital Mukah",0,0,0,1,"2.9008306","112.07635210000001","Mukah","","Sarawak"
"Hospital Orang Asli Gombak",0,0,0,1,"3.2919717","101.73097130000001","Gombak","","Selangor"
"Hospital Pakar Sultanah Fatimah",0,0,0,1,"2.057115","102.5744456","Muar","","Johor"
"Hospital Papar",0,0,0,1,"5.7268546","115.9237714","Papar","","Sabah"
"Hospital Parit Buntar",0,0,0,1,"","","Kerian","","Perak"
"Hospital Pasir Mas",0,0,0,1,"6.0139824","102.1189818","Pasir Mas","","Kelantan"
"Hospital Pekan",0,0,0,1,"3.5022692","103.3801102","Pekan","","Pahang"
"Hospital Pengajar UPM",0,0,0,1,"2.980436","101.7181633","Petaling","","Selangor"
"Hospital Permai",0,0,0,1,"","","Johor Bahru","","Johor"
"Hospital Pitas",0,0,0,1,"6.7119297","117.0296452","Pitas","","Sabah"
"Hospital Pontian",0,0,0,1,"1.4984596","103.3852071","Pontian","","Johor"
"Hospital Port Dickson",0,0,0,1,"2.4777276","101.8550101","Port Dickson","","Negeri Sembilan"
"Hospital Pulau Pinang",0,0,0,1,"5.4170514","100.3114489","Timur Laut","","Pulau Pinang"
"Hospital Putrajaya",0,0,0,1,"2.9290529","101.6741956","W.P. Putrajaya","","W.P. Putrajaya"
"Hospital Queen Elizabeth",0,0,0,1,"","","Kota Kinabalu","","Sabah"
"Hospital Queen Elizabeth Ii",0,0,0,1,"5.9664872","116.0937928","Kota Kinabalu","","Sabah"
"Hospital Raja Perempuan Zainab Ii",0,0,0,1,"6.1252883","102.24571200000001","Kota Bharu","","Kelantan"
"Hospital Ranau",0,0,0,1,"5.9533942","116.67094100000001","Ranau","","Sabah"
"Hospital Raub",0,0,0,1,"3.8099055","101.8514277","Raub","","Pahang"
"Hospital Rembau",0,0,0,1,"","","Rembau","","Negeri Sembilan"
"Hospital Rompin",0,0,0,1,"","","Rompin","","Pahang"
"Hospital Saratok",0,0,0,1,"1.7471428","111.33971930000001","Saratok","","Sarawak"
"Hospital Sarikei",0,0,0,1,"2.1319958","111.4920017","Sarikei","","Sarawak"
"Hospital Seberang Jaya",0,0,0,1,"5.3941082","100.4078271","Seberang Perai Tengah","","Pulau Pinang"
"Hospital Segamat",0,0,0,1,"2.4932691","102.85906320000001","Segamat","","Johor"
"Hospital Selama",0,0,0,1,"5.2131237","100.68887520000001","Larut, Matang dan Selama","","Perak"
"Hospital Selayang",0,0,0,1,"3.2426173","101.6464691","Gombak","","Selangor"
"Hospital Semporna",0,0,0,1,"4.4828295",118.6022699,"Semporna","","Sabah"
"Hospital Sentosa",0,0,0,1,"","","Kuching","","Sarawak"
"Hospital Serdang",0,0,0,1,"","","Sepang","","Selangor"
"Hospital Seri Manjung",0,0,0,1,"4.1855526","100.6618251","Manjung","","Perak"
"Hospital Serian",0,0,0,1,"1.1762658","110.56360980000001","Serian","","Sarawak"
"Hospital Setiu",0,0,0,1,"5.5141275","102.76951670000001","Setiu","","Terengganu"
"Hospital Shah Alam",0,0,0,1,"","","Petaling","","Selangor"
"Hospital Sibu",0,0,0,1,"2.296471","111.891889","Sibu","","Sarawak"
"Hospital Sik",0,0,0,1,"5.8122196","100.7269887","Sik","","Kedah"
"Hospital Simunjan",0,0,0,1,"1.3700471","110.78625450000001","Simunjan","","Sarawak"
"Hospital Sipitang",0,0,0,1,"5.0964878","115.562959","Sipitang","","Sabah"
"Hospital Slim River",0,0,0,1,"3.8387897","101.4051714","Muallim","","Perak"
"Hospital Sri Aman",0,0,0,1,"1.2343801","111.46293530000001","Sri Aman","","Sarawak"
"Hospital Sultan Abdul Halim",0,0,0,1,"5.6695817","100.51741460000001","Sungai Petani","","Kedah"
"Hospital Sultan Ahmad Shah",0,0,0,1,"3.45353",102.45321,"Temerloh","","Pahang"
"Hospital Sultan Hj Ahmad Shah",0,0,0,1,"3.453226","102.45317530000001","Temerloh","","Pahang"
"Hospital Sultan Ismail Johor Bahru",0,0,0,1,"1.5463271","103.79089400000001","Johor Bahru","","Johor"
"Hospital Sultan Ismail Petra",0,0,0,1,"","","Kuala Krai","","Kelantan"
"Hospital Sultanah Aminah",0,0,0,1,"","","Johor Bahru","","Johor"
"Hospital Sultanah Bahiyah",0,0,0,1,"6.1488245","100.4063735","Kota Setar","","Kedah"
"Hospital Sultanah Hajjah Kalsom",0,0,0,1,"4.4667742","101.39120890000001","Cameron Highlands","","Pahang"
"Hospital Sultanah Nora Ismail",0,0,0,1,"1.837516","102.94099680000001","Batu Pahat","","Johor"
"Hospital Sultanah Nur Zahirah",0,0,0,1,"5.323906","103.15067370000001","Kuala Terengganu","","Terengganu"
"Hospital Sungai Bakap",0,0,0,1,"5.2192779","100.4972446","Seberang Perai Selatan","","Pulau Pinang"
"Hospital Sungai Buluh",0,0,0,1,"3.2196265","101.5831991","Gombak","","Selangor"
"Hospital Taiping",0,0,0,1,"4.8510726","100.7368622","Larut, Matang dan Selama","","Perak"
"Hospital Tambunan",0,0,0,1,"5.6825392","116.37103040000001","Tambunan","","Sabah"
"Hospital Tampin",0,0,0,1,"2.484776","102.23364380000001","Tampin","","Negeri Sembilan"
"Hospital Tanah Merah",0,0,0,1,"5.8099911","102.1523233","Tanah Merah","","Kelantan"
"Hospital Tangkak",0,0,0,1,"2.2720635","102.5468192","Tangkak","","Johor"
"Hospital Tanjung Karang",0,0,0,1,"","","Kuala Selangor","","Selangor"
"Hospital Tapah",0,0,0,1,"4.2018538","101.25961170000001","Batang Padang","","Perak"
"Hospital Tawau",0,0,0,1,"4.2498168","117.8807429","Tawau","","Sabah"
"Hospital Teluk Intan",0,0,0,1,"4.0046049","101.04032330000001","Hilir Perak","","Perak"
"Hospital Temenggong Seri Maharaja Tun Ibrahim",0,0,0,1,"1.6397458","103.6238512","Kulai","","Johor"
"Hospital Tengku Ampuan Afzan",0,0,0,1,"3.80101",103.32148,"Kuantan","","Pahang"
"Hospital Tengku Ampuan Jemaah",0,0,0,1,"3.7591076","100.9893055","Sabak Bernam","","Selangor"
"Hospital Tengku Ampuan Rahimah",0,0,0,1,"3.0205787","101.43986480000001","Klang","","Selangor"
"Hospital Tengku Anis",0,0,0,1,"5.8329518","102.3877575","Pasir Puteh","","Kelantan"
"Hospital Tenom",0,0,0,1,"5.1231747","115.941286","Tenom","","Sabah"
"Hospital Tuanku Ampuan Najihah",0,0,0,1,"2.7348657","102.2330869","Kuala Pilah","","Negeri Sembilan"
"Hospital Tuanku Fauziah",0,0,0,1,"","","Perlis","","Perlis"
"Hospital Tuanku Ja'Afar",0,0,0,1,"2.7097523","101.94483020000001","Seremban","","Negeri Sembilan"
"Hospital Tuaran",0,0,0,1,"6.143924","116.21902700000001","Tuaran","","Sabah"
"Hospital Tumpat",0,0,0,1,"6.1897387","102.1573041","Tumpat","","Kelantan"
"Hospital Umum Sarawak",0,0,0,1,"1.543644","110.339635","Kuching","","Sarawak"
"Hospital Wanita Dan Kanak - Kanak, Likas",0,0,0,1,"6.0138039","116.11949990000001","Kota Kinabalu","","Sabah"
"Hospital Yan",0,0,0,1,"5.820611","100.3845112","Yan","","Kedah"
"Hotel Wyndham Acmar",0,0,0,1,"3.0589716",101.4719,"Klang","","Selangor"
"Ideal Convention Centre (IDCC)",0,0,0,1,"3.0661007","101.5262653","Petaling","","Selangor"
"Inari Technology Plant 34",0,0,0,1,"5.22544",100.4417352,"Seberang Perai Selatan","","Pulau Pinang"
"Indoor Stadium",0,0,0,1,"2.3363",111.8455,"Sibu","","Sarawak"
"Institut Jantung Negara",0,0,0,1,"3.1704707",101.7066035,"Kuala Lumpur","","W.P. Kuala Lumpur"
"Institut Kanser Negara",0,0,0,1,"2.926907","101.6739021","W.P. Putrajaya","","W.P. Putrajaya"
"Institut Latihan Islam Malaysia",0,0,0,1,"4.8507",115.3774,"Lawas","","Sarawak"
"Intel Penang",0,0,0,1,"5.327538",100.3015869,"Barat Daya","","Pulau Pinang"
"International SOS, Putrajaya International Convention Centre (PICC)",0,0,0,1,"2.8944847",101.6759546,"W.P. Putrajaya","","W.P. Putrajaya"
"IOI City Mall Putrajaya",0,0,0,1,"2.9697004","101.71314890000001","W.P. Putrajaya","","W.P. Kuala Lumpur"
"Jabatan Kesihatan Negeri Sabah (Pacific Sutera)",0,0,0,1,"5.9656319",116.0567205,"Kota Kinabalu","","Sabah"
"Jabil Penang (Plant 1)",0,0,0,1,"5.3037105",100.2894864,"Barat Daya","","Pulau Pinang"
"Keysight Technologies",0,0,0,1,"5.3217205",100.2984594,"Barat Daya","","Pulau Pinang"
"KK Bandar Penawar",0,0,0,1,"1.55332",104.23373,"Kota Tinggi","","Johor"
"KK Munggu Lallang",0,0,0,1,"1.24594",110.922974,"Simunjan","","Sarawak"
"KK Tenggaroh 2",0,0,0,1,"2.08402",103.94636,"Mersing","","Johor"
"Klinik Desa Kampung Pagi",0,0,0,1,"4.4467623",102.4815212,"Jerantut","","Pahang"
"Klinik Icon Seremban 2",0,0,0,1,"2.68529",101.90669,"Seremban","","Negeri Sembilan"
"Klinik Johor 14 Jam",0,0,0,1,"","","Pontian","","Johor"
"Klinik Kesihatan Air Hangat",0,0,0,1,"6.4228023",99.8009285,"Langkawi","","Kedah"
"Klinik Kesihatan Ampangan",0,0,0,1,"2.723785712",101.9881238,"Seremban","","Negeri Sembilan"
"Klinik Kesihatan Apin-Apin",0,0,0,1,"5.4546808",116.2532238,"Keningau","","Sabah"
"Klinik Kesihatan Astana Raja",0,0,0,1,"2.508257129",102.1202293,"Rembau","","Negeri Sembilan"
"Klinik Kesihatan AU2",0,0,0,1,"3.1749588",101.7487479,"Gombak","","Selangor"
"Klinik Kesihatan Bahau",0,0,0,1,"2.808915437",102.3604267,"Jempol","","Negeri Sembilan"
"Klinik Kesihatan Balok",0,0,0,1,"3.9426653",103.4113238,"Kuantan","","Pahang"
"Klinik Kesihatan Bandar Botanik",0,0,0,1,"2.9894992",101.4442897,"Klang","","Selangor"
"Klinik Kesihatan Bandar Seri Putra",0,0,0,1,"2.8879001",101.790024,"Ulu Langat","","Selangor"
"Klinik Kesihatan Bandar Tun Hussein Onn",0,0,0,1,"3.0543762",101.7569316,"Ulu Langat","","Selangor"
"Klinik Kesihatan Bangi",0,0,0,1,"2.9353833",101.7734029,"Ulu Langat","","Selangor"
"Klinik Kesihatan Batu 8",0,0,0,1,"3.2460154",101.7225779,"Gombak","","Selangor"
"Klinik Kesihatan Batu Arang",0,0,0,1,"3.3192115",101.4724868,"Gombak","","Selangor"
"Klinik Kesihatan Beserah",0,0,0,1,"3.8502385",103.3630454,"Kuantan","","Pahang"
"Klinik Kesihatan Bingkor",0,0,0,1,"5.4052903","116.19034640000001","Keningau","","Sabah"
"Klinik Kesihatan Bukit Belacon",0,0,0,1,"","","Lahad Datu","","Sabah"
"Klinik Kesihatan Bukit Changgang",0,0,0,1,"","","Kuala Langat","","Selangor"
"Klinik Kesihatan Bukit Goh (Felda)",0,0,0,1,"3.9134005",103.2577495,"Kuantan","","Pahang"
"Klinik Kesihatan Bukit Kuda",0,0,0,1,"3.0506643","101.45820950000001","Klang","","Selangor"
"Klinik Kesihatan Bukit Naga",0,0,0,1,"3.003293","101.50531310000001","Klang","","Selangor"
"Klinik Kesihatan Bukit Pelandok",0,0,0,1,"2.637353669",101.7622413,"Port Dickson","","Negeri Sembilan"
"Klinik Kesihatan Chennah",0,0,0,1,"3.091879266",102.0737296,"Jelebu","","Negeri Sembilan"
"Klinik Kesihatan Chenor",0,0,0,1,"3.4863215",102.5579904,"Maran","","Pahang"
"Klinik Kesihatan Damak",0,0,0,1,"3.9554716",102.2167773,"Jerantut","","Pahang"
"Klinik Kesihatan Dengkil",0,0,0,1,"2.859256","101.68178700000001","Sepang","","Selangor"
"Klinik Kesihatan Felda Lepar Utara 4",0,0,0,1,"3.9094054",102.8075557,"Jerantut","","Pahang"
"Klinik Kesihatan Felda Sahabat",0,0,0,1,"5.0786806","119.060749","Lahad Datu","","Sabah"
"Klinik Kesihatan Gambang",0,0,0,1,"3.7151978",103.137399,"Kuantan","","Pahang"
"Klinik Kesihatan Gemas",0,0,0,1,"2.584255429",102.6049176,"Tampin","","Negeri Sembilan"
"Klinik Kesihatan Gemencheh",0,0,0,1,"2.532954081",102.4005382,"Tampin","","Negeri Sembilan"
"Klinik Kesihatan Gombak Setia",0,0,0,1,"3.2178664","101.7142398","Gombak","","Selangor"
"Klinik Kesihatan Gunung Pasir",0,0,0,1,"2.668274622",102.1464204,"Kuala Pilah","","Negeri Sembilan"
"Klinik Kesihatan Indera Mahkota",0,0,0,1,"3.825132",103.2842324,"Kuantan","","Pahang"
"Klinik Kesihatan Jawi-Jawi",0,0,0,1,"","","Kota Belud","","Sabah"
"Klinik Kesihatan Jaya Gading",0,0,0,1,"3.7536438",103.2046437,"Kuantan","","Pahang"
"Klinik Kesihatan Jelai",0,0,0,1,"2.646018774",102.4893502,"Tampin","","Negeri Sembilan"
"Klinik Kesihatan Jengka 22",0,0,0,1,"3.71966",102.4967754,"Maran","","Pahang"
"Klinik Kesihatan Jenjarom",0,0,0,1,"2.8784422","101.50044960000001","Kuala Langat","","Selangor"
"Klinik Kesihatan Jeram",0,0,0,1,"","","Kuala Selangor","","Selangor"
"Klinik Kesihatan Jerantut Feri",0,0,0,1,"3.9788347",102.5292537,"Jerantut","","Pahang"
"Klinik Kesihatan Johol",0,0,0,1,"2.609393721",102.2689065,"Kuala Pilah","","Negeri Sembilan"
"Klinik Kesihatan Juasseh",0,0,0,1,"2.79458057",102.3064786,"Kuala Pilah","","Negeri Sembilan"
"Klinik Kesihatan Kaingaran",0,0,0,1,"6.0917658","116.9725138","Ranau","","Sabah"
"Klinik Kesihatan Kampung Bandar",0,0,0,1,"2.8514869","101.44430100000001","Kuala Langat","","Selangor"
"Klinik Kesihatan Kelana Jaya",0,0,0,1,"","","Petaling","","Selangor"
"Klinik Kesihatan Klang (Anika)",0,0,0,1,"3.0371852","101.4470076","Klang","","Selangor"
"Klinik Kesihatan Kota Damansara",0,0,0,1,"3.1765223","101.57565100000001","Petaling","","Selangor"
"Klinik Kesihatan Kuala Pilah",0,0,0,1,"2.701325631",102.2408803,"Kuala Pilah","","Negeri Sembilan"
"Klinik Kesihatan Kuala Selangor",0,0,0,1,"3.337005","101.2499241","Kuala Selangor","","Selangor"
"Klinik Kesihatan Kuala Tahan",0,0,0,1,"","","Jerantut","","Pahang"
"Klinik Kesihatan Kuang",0,0,0,1,"3.2594189","101.55195","Gombak","","Selangor"
"Klinik Kesihatan Kurnia",0,0,0,1,"3.7800225",103.2863086,"Kuantan","","Pahang"
"Klinik Kesihatan Langkon",0,0,0,1,"6.5704335","116.70583730000001","Kota Marudu","","Sabah"
"Klinik Kesihatan Lui Muda",0,0,0,1,"3.026170703",102.369397,"Jempol","","Negeri Sembilan"
"Klinik Kesihatan Lukut",0,0,0,1,"2.585452297",101.8662832,"Port Dickson","","Negeri Sembilan"
"Klinik Kesihatan Luyang",0,0,0,1,"5.9463533","116.09112180000001","Kota Kinabalu","","Sabah"
"Klinik Kesihatan Mantin",0,0,0,1,"2.825088447",101.89376,"Seremban","","Negeri Sembilan"
"Klinik Kesihatan Merapoh",0,0,0,1,"4.693617",102.0015725,"Lipis","","Pahang"
"Klinik Kesihatan Meru",0,0,0,1,"3.1363776","101.4409284","Klang","","Selangor"
"Klinik Kesihatan Nilai",0,0,0,1,"2.80361001",101.8001194,"Seremban","","Negeri Sembilan"
"Klinik Kesihatan Padang Lebar",0,0,0,1,"2.859404304",102.2716115,"Kuala Pilah","","Negeri Sembilan"
"Klinik Kesihatan Padang Piol",0,0,0,1,"4.0338188",102.3837154,"Jerantut","","Pahang"
"Klinik Kesihatan Palong 4,5,6",0,0,0,1,"2.74171261",102.6477616,"Jempol","","Negeri Sembilan"
"Klinik Kesihatan Palong 9,10,11",0,0,0,1,"2.784722913",102.581397,"Jempol","","Negeri Sembilan"
"Klinik Kesihatan Pandamaran",0,0,0,1,"3.01408","101.41224980000001","Klang","","Selangor"
"Klinik Kesihatan Pasir Panjang",0,0,0,1,"2.429142784",101.9378173,"Port Dickson","","Negeri Sembilan"
"Klinik Kesihatan Paya Besar",0,0,0,1,"3.7899042",103.241885,"Kuantan","","Pahang"
"Klinik Kesihatan Pedas",0,0,0,1,"2.632753582",102.0671015,"Rembau","","Negeri Sembilan"
"Klinik Kesihatan Pekan Awah",0,0,0,1,"3.5072604",102.5476386,"Maran","","Pahang"
"Klinik Kesihatan Pelabuhan Klang",0,0,0,1,"3.0013383","101.3943435","Klang","","Selangor"
"Klinik Kesihatan Permatang Badak",0,0,0,1,"3.7917192",103.2679291,"Kuantan","","Pahang"
"Klinik Kesihatan Pertang",0,0,0,1,"2.955727055",102.2251225,"Jelebu","","Negeri Sembilan"
"Klinik Kesihatan Port Dickson",0,0,0,1,"2.528309995",101.7922007,"Port Dickson","","Negeri Sembilan"
"Klinik Kesihatan Puchong Bt 14",0,0,0,1,"2.9940761","101.619718","Petaling","","Selangor"
"Klinik Kesihatan Pulau Bum-Bum",0,0,0,1,"4.4640278","118.6694793","Semporna","","Sabah"
"Klinik Kesihatan Pulau Indah",0,0,0,1,"2.937951","101.3246989","Klang","","Selangor"
"Klinik Kesihatan Pulau Tambisan",0,0,0,1,"5.4461598","119.1490936","Lahad Datu","","Sabah"
"Klinik Kesihatan Rantau",0,0,0,1,"2.600662879",101.9629342,"Seremban","","Negeri Sembilan"
"Klinik Kesihatan Rantau Panjang",0,0,0,1,"3.0689456","101.41148140000001","Klang","","Selangor"
"Klinik Kesihatan Rawang",0,0,0,1,"3.3147693","101.59588350000001","Gombak","","Selangor"
"Klinik Kesihatan Rembau",0,0,0,1,"2.585847856",102.0937013,"Rembau","","Negeri Sembilan"
"Klinik Kesihatan Rosok",0,0,0,1,"3.0704564","101.52526660000001","Kota Belud","","Sabah"
"Klinik Kesihatan Salak",0,0,0,1,"2.7895199","101.74918860000001","Sepang","","Selangor"
"Klinik Kesihatan Sekinchan",0,0,0,1,"3.5098268","101.1026535","Sabak Bernam","","Selangor"
"Klinik Kesihatan Seksyen 19",0,0,0,1,"3.0500633","101.5331287","Petaling","","Selangor"
"Klinik Kesihatan Seksyen 7 Shah Alam",0,0,0,1,"3.0724525","101.4909343","Petaling","","Selangor"
"Klinik Kesihatan Selayang Baru",0,0,0,1,"","","Gombak","","Selangor"
"Klinik Kesihatan Semporna",0,0,0,1,"4.4809941","118.60591740000001","Semporna","","Sabah"
"Klinik Kesihatan Senaling",0,0,0,1,"2.706008884",102.2544611,"Kuala Pilah","","Negeri Sembilan"
"Klinik Kesihatan Senawang",0,0,0,1,"2.692351203",101.9889164,"Seremban","","Negeri Sembilan"
"Klinik Kesihatan Sepang",0,0,0,1,"","","Sepang","","Selangor"
"Klinik Kesihatan Seremban 2",0,0,0,1,"2.684827803",101.9166764,"Seremban","","Negeri Sembilan"
"Klinik Kesihatan Serendah",0,0,0,1,"3.3623333","101.6027488","Ulu Selangor","","Selangor"
"Klinik Kesihatan Seri Kembangan",0,0,0,1,"3.027736","101.71149220000001","Petaling","","Selangor"
"Klinik Kesihatan Seri Menanti",0,0,0,1,"2.702278673",102.1646994,"Kuala Pilah","","Negeri Sembilan"
"Klinik Kesihatan Sg Bertik",0,0,0,1,"3.0490245","101.42764340000001","Klang","","Selangor"
"Klinik Kesihatan Sijangkang",0,0,0,1,"2.9414953","101.4562351","Kuala Langat","","Selangor"
"Klinik Kesihatan Silabukan",0,0,0,1,"","","Lahad Datu","","Sabah"
"Klinik Kesihatan Simpang Lima",0,0,0,1,"3.6263328","101.0516211","Sabak Bernam","","Selangor"
"Klinik Kesihatan Sri Jaya",0,0,0,1,"3.685484",102.9507728,"Maran","","Pahang"
"Klinik Kesihatan Sukau",0,0,0,1,"5.5099152","118.28697020000001","Kinabatangan","","Sabah"
"Klinik Kesihatan Sungai Besar",0,0,0,1,"3.675894","100.98899390000001","Sabak Bernam","","Selangor"
"Klinik Kesihatan Sungai Buloh",0,0,0,1,"3.2192844","101.57799490000001","Gombak","","Selangor"
"Klinik Kesihatan Sungai Lembing",0,0,0,1,"3.9255046",103.0730535,"Kuantan","","Pahang"
"Klinik Kesihatan Sungai Pelek",0,0,0,1,"2.6446353","101.71850450000001","Sepang","","Selangor"
"Klinik Kesihatan Sungai Tekam Utara",0,0,0,1,"3.89039",102.5976437,"Jerantut","","Pahang"
"Klinik Kesihatan Sungai Ular",0,0,0,1,"4.0451836",103.3946806,"Kuantan","","Pahang"
"Klinik Kesihatan Taginambur",0,0,0,1,"6.2265757","116.44913840000001","Kota Belud","","Sabah"
"Klinik Kesihatan Taman Ehsan",0,0,0,1,"3.224222","101.6229275","Gombak","","Selangor"
"Klinik Kesihatan Taman Medan",0,0,0,1,"3.079249","101.63449390000001","Petaling","","Selangor"
"Klinik Kesihatan Tandek",0,0,0,1,"6.53361","116.852","Kota Marudu","","Sabah"
"Klinik Kesihatan Tanjong Karang",0,0,0,1,"3.421166","101.1737351","Kuala Selangor","","Selangor"
"Klinik Kesihatan Tanjung Sepat",0,0,0,1,"2.665595","101.55126820000001","Kuala Langat","","Selangor"
"Klinik Kesihatan Telok Panglima Garang",0,0,0,1,"2.9049166","101.46755040000001","Kuala Langat","","Selangor"
"Klinik Kesihatan Telupid",0,0,0,1,"5.6296267","117.12077330000001","Telupid","","Sabah"
"Klinik Kesihatan Terachi",0,0,0,1,"2.741806444",102.1356437,"Kuala Pilah","","Negeri Sembilan"
"Klinik Kesihatan Tongod",0,0,0,1,"5.2750588","116.9760037","Tongod","","Sabah"
"Klinik Kesihatan Tungku",0,0,0,1,"5.0256806","118.88337340000001","Lahad Datu","","Sabah"
"Klinik Kesihatan Ulu Yam Bharu",0,0,0,1,"3.434854","101.656462","Ulu Selangor","","Selangor"
"Klinik Masya",0,0,0,1,"2.78449",101.75103,"Sepang","","Selangor"
"Klinik Permata",0,0,0,1,"","","Pontian","","Johor"
"Kolej Kemahiran Tinggi MARA Ledang",0,0,0,1,"2.1702061","102.5918733","Tangkak","","Johor"
"Kompleks Akademik UPSI, Kampus Sultan Azlan Shah, Tg Malim",0,0,0,1,"3.7243552","101.53326440000001","Muallim","","Perak"
"Kompleks Belia dan Sukan Paroi",0,0,0,1,"2.7259873","101.9777686","Seremban","","Negeri Sembilan"
"Kompleks Dewan Kuliah Pusat 13 & 14, UMS",0,0,0,1,"","","Kota Kinabalu","","Sabah"
"Kompleks Islam Jubli Perak",0,0,0,1,"6.1296074","102.30243440000001","Kota Bharu","","Kelantan"
"Kompleks Islam Jubli Perak Sultan Ismail Petra",0,0,0,1,"6.1296074","102.30243440000001","Kota Bharu","","Kelantan"
"Kompleks Sukan Asajaya",0,0,0,1,"1.54424",110.5934,"Asajaya","","Sarawak"
"Kompleks Sukan Balik Pulau",0,0,0,1,"5.3387",100.2137,"Barat Daya","","Pulau Pinang"
"Kompleks Sukan Komuniti Felda Palong 6",0,0,0,1,"2.740761","102.649658","Tampin","","Negeri Sembilan"
"Kompleks Sukan Komuniti Serdang",0,0,0,1,"5.20788",100.61323,"Bandar Baharu","","Kedah"
"Kompleks Sukan Majlis Perbadanan Kuala Langat",0,0,0,1,"2.8038",101.5025,"Kuala Langat","","Selangor"
"Kompleks Sukan Masjid Tanah",0,0,0,1,"2.3512",102.1185,"Alor Gajah","","Melaka"
"Kompleks Sukan Negara Shah Alam Panasonic",0,0,0,1,"3.0568","101.54719010000001","Petaling","","Selangor"
"Kota Putra Square",0,0,0,1,"","","Besut","","Terengganu"
"Kuala Lumpur Convention Centre (KLCC)",0,0,0,1,"3.1532671","101.7130429","Kuala Lumpur","","W.P. Kuala Lumpur"
"Langkawi International Convention Centre (LICC)",0,0,0,1,"6.3017791","99.8549325","Langkawi","","Kedah"
"Le Garden Pavilion, Gamuda Gardens, Rawang, Gombak",0,0,0,1,"","","Gombak","","Selangor"
"Lembaga Pelabuhan Kuantan",0,0,0,1,"","","Kuantan","","Pahang"
"MAHSA University",0,0,0,1,"","","Kuala Langat","","Selangor"
"Main Terminal Building KLIA",0,0,0,1,"2.7525943","101.7039067","Sepang","","Selangor"
"Malaysia Reﬁnery (Petronas)",0,0,0,1,"2.2751786","102.1361832","Melaka Tengah","","Melaka"
"Masjid Wilayah",0,0,0,1,"3.1720495","101.6704473","Kuala Lumpur","","W.P. Kuala Lumpur"
"Micron, Bukit Jawi Resort",0,0,0,1,"5.1855428","100.51975100000001","Seberang Perai Selatan","","Pulau Pinang"
"MidValley Southkey",0,0,0,1,"1.5009581","103.77737780000001","Johor Bahru","","Johor"
"Molex (Malaysia) Sdn Bhd",0,0,0,1,"5.3508428","100.4204088","Seberang Perai Tengah","","Pulau Pinang"
"Multimedia University (MMU), Cyberjaya, Sepang",0,0,0,1,"2.9277715","101.64190040000001","Sepang","","Selangor"
"Multi-Storey Car Park Kapit",0,0,0,1,"2.0159151","112.94020010000001","Kapit","","Sarawak"
"National Stadium Bukit Jalil",0,0,0,1,"3.0546349","101.69134000000001","Kuala Lumpur","","W.P. Kuala Lumpur"
"Orion Clinic",0,0,0,1,"2.92125",101.63614,"Sepang","","Selangor"
"Pejabat Daerah Lingga",0,0,0,1,"1.3518625","111.1716995","Sri Aman","","Sarawak"
"Persada Johor International Convention Centre (Persada Johor)",0,0,0,1,"1.4615265","103.76157370000001","Johor Bahru","","Johor"
"Plexus Manufacturing",0,0,0,1,"1.335629","103.90534600000001","Barat Daya","","Pulau Pinang"
"Poliklinik Medi Ihsan",0,0,0,1,"2.81945",101.68985,"Sepang","","Selangor"
"PPV Lion Plate MillS",0,0,0,1,"4.399124","103.25102100000001","Kemaman","","Terengganu"
"Pusat Jantung Sarawak",0,0,0,1,"1.4809232","110.4190451","Samarahan","","Sarawak"
"Pusat Pakar Perubatan UiTM (Sungai Buloh)",0,0,0,1,"","","Gombak","","Selangor"
"Pusat Perubatan Universiti Kebangsaan Malaysia – Pandu Lalu",0,0,0,1,"3.099267","101.7254018","Kuala Lumpur","","W.P. Kuala Lumpur"
"Pusat Perubatan Universiti Malaya (PPUM)",0,0,0,1,"3.1137086","101.6528322","Kuala Lumpur","","W.P. Kuala Lumpur"
"Pusat Sains dan Kreativiti",0,0,0,1,"5.2699",103.1521,"Kuala Terengganu","","Terengganu"
"Pusat Sivik Gua Musang",0,0,0,1,"4.869995",101.961613,"Gua Musang","","Kelantan"
"Qualitas Medical, Petronas Kertih Integrated Petrochemical Complex",0,0,0,1,"","","Kemaman","","Terengganu"
"RAPID Petronas Pengerang",0,0,0,1,"1.3771644","104.167629","Kota Tinggi","","Johor"
"Rumah Rehat Song",0,0,0,1,"2.0096139","112.5496743","Song","","Sarawak"
"Sabah International Convention Center",0,0,0,1,"5.9974508","116.08432760000001","Kota Kinabalu","","Sabah"
"Sapura Fabrication Sdn Bhd",0,0,0,1,"4.2460312","100.6715927","Manjung","","Perak"
"Seberang Perai Arena Convention Centre",0,0,0,1,"5.387",100.4015,"Seberang Perai Tengah","","Pulau Pinang"
"Setia Eco Templer, Rawang",0,0,0,1,"","","Gombak","","Selangor"
"SKJC Chung Hua No 1",0,0,0,1,"2.7308643","101.93500510000001","Kuching","","Sarawak"
"SKT Banquet Hall",0,0,0,1,"2.0567689","102.5877856","Muar","","Johor"
"SPA City Hall",0,0,0,1,"2.2610043","102.23343360000001","Melaka Tengah","","Melaka"
"Space U8, Bukit Jelutong",0,0,0,1,"3.1118583","101.552338","Petaling","","Selangor"
"Stadium Indera Mulia",0,0,0,1,"4.6102",101.102,"Kinta","","Perak"
"Stadium Perpaduan Dalat",0,0,0,1,"2.74314",111.94503,"Dalat","","Sarawak"
"Stadium Perpaduan Kuching",0,0,0,1,"1.5877",110.3555,"Kuching","","Sarawak"
"Stadium Proton Tanjung Malim",0,0,0,1,"3.73912","101.51368400000001","Muallim","","Perak"
"Stadium Proton Tanjung Malim",0,0,0,1,"3.73912","101.51368400000001","Muallim","","Perak"
"Stadium Tertutup Gong Badak",0,0,0,1,"5.36813",103.10298,"Kuala Nerus","","Terengganu"
"Stadium Tertutup Kuala Selangor",0,0,0,1,"3.3191",101.2543,"Kuala Selangor","","Selangor"
"Stadium Tertutup Samarahan",0,0,0,1,"1.470349","110.49288390000001","Samarahan","","Sarawak"
"Stadium Tertutup Sultan Abdul Halim",0,0,0,1,"6.151",100.3658,"Kota Setar","","Kedah"
"Stadium Tun Abdul Razak",0,0,0,1,"3.77488",102.54695,"Maran","","Pahang"
"Subterranean Penang International Convention & Exhibition Centre (SPICE)",0,0,0,1,"","","Barat Daya","","Pulau Pinang"
"Sultan Ahmad Shah Medical Centre @IIUM (SASMEC@IIUM)",0,0,0,1,"3.2504767","101.73466950000001","Kuantan","","Pahang"
"Swettenham Cruise Terminal",0,0,0,1,"","","Timur Laut","","Pulau Pinang"
"Tapak Ekspo Seberang Jaya",0,0,0,1,"5.4003407","100.4042285","Seberang Perai Tengah","","Pulau Pinang"
"TAPAK PESTA PULAU PINANG",0,0,0,1,"5.3439362","100.30036050000001","Barat Daya","","Pulau Pinang"
"Terengganu Trade Centre ( TTC)",0,0,0,1,"5.3120722","103.1292648","Kuala Terengganu","","Terengganu"
"Texas Instruments Malaysia Sdn Bhd",0,0,0,1,"3.1703205","101.7505223","Kuala Lumpur","","W.P. Kuala Lumpur"
"UCSI University",0,0,0,1,"3.0800732","101.73350070000001","Kuala Lumpur","","W.P. Kuala Lumpur"
"UITM Rembau (Dewan Biduanda)",0,0,0,1,"2.5105215","102.06291420000001","Rembau","","Negeri Sembilan"
"UNIKL British Malaysia  Institute (BMI), Sg. Pusu",0,0,0,1,"3.2511277","101.72799810000001","Gombak","","Selangor"
"Universiti Islam Antarabangsa Sultan Abdul Halim Mu'adzam Shah (UniSHAMS)",0,0,0,1,"5.5837827","100.6428448","Baling","","Kedah"
"Universiti Kebangsaan Malaysia (UKM)",0,0,0,1,"2.930255","101.77741940000001","Ulu Langat","","Selangor"
"Universiti Malaya (UM)",0,0,0,1,"3.1209046","101.6538414","Kuala Lumpur","","W.P. Kuala Lumpur"
"Universiti Sains Islam Malaysia (USIM) - Dewan Tuanku Canselor",0,0,0,1,"2.847055","101.78335990000001","Seremban","","Negeri Sembilan"
"University College TATI",0,0,0,1,"4.3011681","103.4740486","Kemaman","","Terengganu"
"Wisma Belia",0,0,0,1,"3.82478",103.28139,"Kuantan","","Pahang"
"World Trade Centre KL (WTCKL)",0,0,0,1,"","","Kuala Lumpur","","W.P. Kuala Lumpur"
"Xcape Resort Tahan",0,0,0,1,"","","Jerantut","","Pahang"
"Yayasan Toh Puan Zurina",0,0,0,1,"2.2256661","102.25704150000001","Melaka Tengah","","Melaka"
